Publisher Name,Type,Location,Country,Genres/Focus,Contact Email,Phone,Address,Website,Submissions Email,Annual Output,Has Audiobooks,Priority Tier,Notes
Berrett-Koehler Publishers,Traditional,Oakland CA,USA,"Business, personal growth, current affairs",bkpub@bkpub.com,(510) 817-2277,"1333 Broadway Suite 1000, Oakland CA 94612",bkconnection.com,submissions@bkpub.com,40-50,Some via RBmedia,High,"Mission-driven publisher. Strong platform"
Greenleaf Book Group,Hybrid,Austin TX,USA,"Business, entrepreneurship, self-improvement",contact@greenleafbookgroup.com,(512) 891-6100,"PO Box 91869, Austin TX 78709",greenleafbookgroup.com,submissions@greenleafbookgroup.com,40-60,Some,High,"70+ NYT/WSJ bestsellers"
Amplify Publishing Group,Hybrid,Herndon VA,USA,"Business, politics, self-help, technology",info@amplifypublishing.com,(703) 437-3584,"620 Herndon Parkway Suite 220, Herndon VA 20170",amplifypublishinggroup.com,info@amplifypublishing.com,50-80,Some,High,"85% royalty rate"
BenBella Books,Traditional,Dallas TX,USA,"Business/finance, health/nutrition, nonfiction",glenn@benbellabooks.com,(214) 750-3600,"10300 N Central Expy Suite 530, Dallas TX",benbellabooks.com,Via website only,40,Some,High,"Distributed by S&S"
Mango Publishing,Traditional,Miami FL,USA,"Innovation, technology, marketing, management",chris@mango.bz,(305) 428-2299,"5966 S. Dixie Hwy Suite 300, South Miami FL 33143",mango.bz,Via Submittable,40-60,Yes via Ascent,Medium,"High royalties, no advances"
Kogan Page,Traditional,London/NYC,UK/USA,"Business, management, HR, marketing, finance",kpinfo@koganpage.com,+44 20 7278 0433,"45 Gee Street 2nd Floor, London EC1V 3RS",koganpage.com,kpinfo@koganpage.com,80-100,Yes,Medium,"US office in NYC"
Career Press,Traditional,Newburyport MA,USA,"Career development, soft skills, personal finance",submissions@rwwbooks.com,N/A,N/A,redwheelweiser.com,submissions@rwwbooks.com,20-30,Some,High,"Red Wheel/Weiser imprint"
Skyhorse Publishing,Traditional,New York NY,USA,"Sports, nature, history, business, current events",submissions@skyhorsepublishing.com,(212) 643-6816,"307 West 36th Street 11th Floor, NYC 10018",skyhorsepublishing.com,submissions@skyhorsepublishing.com,500+,Some,Medium,"Large independent publisher"
Post Hill Press,Traditional,Nashville TN,USA,"Pop culture, business, self-help, health, Christian",contact@posthillpress.com,(615) 261-4646,Brentwood TN,posthillpress.com,contact@posthillpress.com,80-100,Some,High,"Distributed by S&S"
Turner Publishing,Traditional,Nashville TN,USA,"Business, history, wellness, fiction variety",Via website,(615) 255-2665,"4507 Charlotte Ave, Nashville TN 37209",turnerpublishing.com,Via website,50-75,Unknown,High,"Since 1984. 6000+ titles"
Hay House,Traditional,Carlsbad CA,USA,"Self-help, mind-body-spirit, business, finance",(800) 654-5126 ext 1,(760) 431-7695,"PO Box 5100, Carlsbad CA 92018",hayhouse.com,Agents or workshop attendees only,50,Yes,Low,"Acquired by PRH 2023"
New World Library,Traditional,Novato CA,USA,"Personal growth, spirituality, wellness, business",Via website,N/A,N/A,newworldlibrary.com,Submissions Editor,30-40,Some,High,"Email submissions preferred"
Sounds True,Traditional,Boulder CO,USA,"Spirituality, mind-body, psychology, self-help",acquisitions@soundstrue.com,N/A,N/A,soundstrue.com,acquisitions@soundstrue.com,40-50,Yes,Low,"Strong audio program"
Hierophant Publishing,Traditional,San Antonio TX,USA,"Personal and spiritual growth",submissions@hierophantpublishing.com,N/A,N/A,hierophantpublishing.com,submissions@hierophantpublishing.com,10-20,NO AUDIOBOOKS,TIER 1,"Prime target - no audio"
Morgan James Publishing,Hybrid,Brentwood TN,USA,"Business, entrepreneurship, personal development",Via Submittable,N/A,N/A,morgan-james-publishing.com,morganjamespublishing.submittable.com,50-75,Some,High,"Pioneer hybrid model"
ForbesBooks,Hybrid,Charleston SC,USA,"Business leaders, thought leadership",Via website,$125K-$250K,N/A,forbesbooks.com,Online form,30-50,Some,Medium,"High investment required"
Sound Wisdom,Traditional,Shippensburg PA,USA,"Personal development, business classics",Via website,N/A,N/A,soundwisdom.com,Via website,20-40,Some,High,"Napoleon Hill classics"
New Harbinger Publications,Traditional,Oakland CA,USA,"Evidence-based self-help, mental health",Via website,N/A,Oakland CA,newharbinger.com,Via website,40-60,Some,High,"Employee-owned"
TCK Publishing,Traditional,Phoenix AZ,USA,"Self-help, personal development, business, finance",Via website,N/A,N/A,tckpublishing.com,Via website,20-40,Unknown,High,"50% gross royalties"
Allworth Press,Traditional,New York NY,USA,"Business/self-help for creatives",allworthsubmissions@skyhorsepublishing.com,(212) 643-6816,"307 West 36th Street 11th Floor, NYC 10018",skyhorsepublishing.com/allworth-press,allworthsubmissions@skyhorsepublishing.com,20-25,Unknown,High,"400+ titles"
Business Expert Press,Traditional,Hampton NJ,USA,"Academic/professional business",Via website,N/A,"158 Perryville Road, Hampton NJ 08827",businessexpertpress.com,Via website,50-80,NO AUDIOBOOKS,TIER 1,"Academic focus - no audio"
Entrepreneur Press,Traditional,Irvine CA,USA,"Starting, running, growing businesses",submissions@entrepreneur.com,N/A,N/A,press.entrepreneur.com,submissions@entrepreneur.com,25-40,Some,High,"Entrepreneur Media"
Harriman House,Traditional,Hampshire,UK,"Finance, investing, economics, trading",Via website,N/A,UK,harriman-house.com,Via website,30-50,Some,High,"UK finance publisher"
Profile Books,Traditional,London,UK,"Business, economics, science, history",Via agent only,N/A,London,profilebooks.com,Agent submissions only,80-100,Yes,Low,"Agent required"
Hurst Publishers,Traditional,London,UK,"Politics, history, business, international affairs",Via email,N/A,London,hurstpublishers.com,Via email with synopsis,90,Unknown,High,"50+ years"
Nicholas Brealey,Traditional,London/Boston,UK/USA,"Business, finance, cross-cultural, psychology",Via website,N/A,London/Boston,nicholasbrealey.com,Via website,25-40,Some,Medium,"Hachette UK"
Icon Books,Traditional,London,UK,"Psychology, science, history, self-help",Via email,N/A,UK,iconbooks.com,Via email,N/A,Unknown,High,"Accepts unsolicited"
Panoma Press,Hybrid,UK,UK,"Business, entrepreneurship, self-help",Via website,N/A,UK,panomapress.com,Via website,30-50,Unknown,High,"UK hybrid model"
She Writes Press,Hybrid,Berkeley CA,USA,"Women authors - memoir, fiction, nonfiction",Via website,N/A,N/A,shewritespress.com,Via website,30-50,Unknown,High,"Women-focused"
The Collective Book Studio,Hybrid,San Francisco CA,USA,"Lifestyle, food, coaching/business",Via website,N/A,N/A,thecollectivebook.studio,Via website,15-25,Unknown,High,"Women-owned"
Wonderwell Press,Hybrid,Austin TX,USA,"Self-help, creative nonfiction, transformational",Via Greenleaf,N/A,N/A,wonderwell.press,Via Greenleaf,10-20,Unknown,High,"Greenleaf imprint"
Brown Books Publishing,Hybrid,Dallas TX,USA,"Fiction, nonfiction, business, children's",Via website,N/A,N/A,brownbooks.com,brownbooks.com/submit,40-60,Unknown,High,"Since 1994"
Koehler Books,Hybrid,Virginia Beach VA,USA,"Business, memoir, fiction",Via website,N/A,N/A,koehlerbooks.com,Via website,40-60,Unknown,High,"Traditional deals available"
Lioncrest Publishing,Hybrid,Austin TX,USA,"Entrepreneurs, business professionals",Via website,N/A,N/A,lioncrest.com,Via website,100+,Some,Medium,"Scribe Media"
MindStir Media,Hybrid,Portsmouth NH,USA,"Nonfiction, business, memoir",Via website,N/A,N/A,mindstirmedia.com,Via website,50-80,Unknown,High,"Top Hybrid Publisher"
Authority Publishing,Hybrid,Gold River CA,USA,"Business, self-development, memoir",Via website,$8997+,N/A,authoritypublishing.com,Via website,20-30,Unknown,High,"Since 2008"
Publish Your Purpose,Hybrid,USA,USA,"Thought leaders, diverse voices, nonfiction",Via website,N/A,N/A,publishyourpurpose.com,Via website,20-30,NO AUDIOBOOKS,TIER 1,"Certified B Corp"
Ballast Books,Hybrid,USA,USA,"Business, leadership, memoir",Via website,N/A,N/A,ballastbooks.com,Via website,30-50,Unknown,High,"Authors keep rights"
Hybrid Global Publishing,Hybrid,USA/UK/Australia,Global,"Nonfiction, business, self-help",Via website,N/A,N/A,hybridglobalpublishing.com,Via website,30-50,Unknown,High,"International offices"
Addicus Books,Traditional,Omaha NE,USA,"Health, self-help, psychology, business, investing",Via website,N/A,Omaha NE,addicusbooks.com,Via website,10-20,NO AUDIOBOOKS,TIER 1,"Since 1994 - no audio"
Chicago Review Press,Traditional,Chicago IL,USA,"Nonfiction, history, music, business",Via editor email,N/A,Chicago IL,chicagoreviewpress.com,Via editor email,50,Unknown,High,"Since 1973"
Hatherleigh Press,Traditional,USA,USA,"Health, wellness, fitness, self-help",Via website,N/A,N/A,hatherleighpress.com,Via website,15-25,NO AUDIOBOOKS,TIER 1,"Nonfiction focused"
Graywolf Press,Nonprofit,Minneapolis MN,USA,"Fiction, nonfiction, poetry",Via open periods,N/A,Minneapolis MN,graywolfpress.org,Periodic open submissions,35,Some,Medium,"Pulitzer winners"
Coffee House Press,Nonprofit,Minneapolis MN,USA,"Poetry, fiction, nonfiction, translation",Via open periods,N/A,Minneapolis MN,coffeehousepress.org,Short submission periods,N/A,Unknown,High,"Minneapolis nonprofit"
Akashic Books,Traditional,Brooklyn NY,USA,"Urban literary fiction, political nonfiction",Via website,N/A,Brooklyn NY,akashicbooks.com,Via website,N/A,Unknown,High,"Brooklyn-based"
Deep Vellum,Nonprofit,Dallas TX,USA,"Fiction, nonfiction, poetry, translations",Via website,N/A,Dallas TX,deepvellum.org,Via website,N/A,NO AUDIOBOOKS,TIER 1,"Since 2013"
Bellevue Literary Press,Nonprofit,NYC,USA,"Narrative nonfiction, literary fiction",Via website,N/A,NYC,blpress.org,Via website,N/A,Some,Medium,"Arts/science"
Chronicle Books,Traditional,San Francisco CA,USA,"Cooking, design, pop culture, home decor",Via website,N/A,San Francisco CA,chroniclebooks.com,Via website,N/A,Some,Medium,"Open submissions"
Page Street Publishing,Traditional,Salem MA,USA,"Wide range including nonfiction",Via website,N/A,Salem MA,pagestreetpublishing.com,Via website,N/A,Unknown,High,"Good distribution"
Schaffner Press,Traditional,Tucson AZ,USA,"Literary fiction, nonfiction, memoir, true crime",tim@schaffnerpress.com,N/A,Tucson AZ,schaffnerpress.com,tim@schaffnerpress.com,N/A,NO AUDIOBOOKS,TIER 1,"50+ titles - no audio"
Quirk Books,Traditional,Philadelphia PA,USA,"How-to, humor, sci-fi, YA",Via website,N/A,Philadelphia PA,quirkbooks.com,Proposals and manuscripts,N/A,Some,Medium,"Philadelphia indie"
Blue Dot Kids Press,Traditional,USA,USA,"Children's picture books, middle grade",Via website,N/A,N/A,bluedotkidspress.com,Via website,10,NO AUDIOBOOKS,TIER 1,"Small children's press"
Chicken Scratch Books,Traditional,USA,USA,"Middle grade fiction",Via website,N/A,N/A,chickenscratchbooks.com,Via website,5-10,NO AUDIOBOOKS,TIER 1,"MG only"
Flashlight Press,Traditional,NYC,USA,"Children's picture books ages 4-8",Via website,N/A,NYC,flashlightpress.com,Via website,2-4,NO AUDIOBOOKS,TIER 1,"Award-winning small press"
Cicada Books,Traditional,UK,UK,"Children's illustrated books",Via website,N/A,UK,cicadabooks.co.uk,Via website,10-12,NO AUDIOBOOKS,TIER 1,"Now Lerner owned"
Spinning Wheel Stories,Traditional,USA,USA,"Children's picture books, early readers, MG",Via website,N/A,N/A,spinningwheelstories.com,Via website,N/A,NO AUDIOBOOKS,TIER 1,"New small press"
Curiosity House Books,Traditional,USA,USA,"Children's nonfiction, picture books",Via website,N/A,N/A,curiosityhousebooks.com,Via website,N/A,NO AUDIOBOOKS,TIER 1,"Since 2014"
Dancing Lemur Press,Traditional,North Carolina,USA,"Middle grade fiction",Via website,N/A,NC,dancinglemurpress.com,Via website,N/A,NO AUDIOBOOKS,TIER 1,"NC-based"
Sleeping Bear Press,Traditional,Michigan,USA,"Children's board books, picture books, MG, YA",Via website,N/A,MI,sleepingbearpress.com,Via website,N/A,Some,Medium,"Well-regarded"
Sky Pony Press,Traditional,New York NY,USA,"Children's PB, CB, MG, YA",Via website,N/A,NYC,skyponypress.com,Via website,20-30,Unknown,High,"Skyhorse imprint"
Charlesbridge,Traditional,Watertown MA,USA,"Children's board books, picture books, readers",Via website,N/A,MA,charlesbridge.com,Via website,N/A,NO AUDIOBOOKS,TIER 1,"Education focus"
Holiday House,Traditional,NYC,USA,"Children's picture books, grades 1-7+",Via website,N/A,NYC,holidayhouse.com,Via website,N/A,Unknown,High,"Since 1935"
Annick Press,Traditional,Toronto,Canada,"Children's picture books, MG, YA",Via website,N/A,Toronto,annickpress.com,Via website,N/A,Unknown,High,"Canadian children's"
Pajama Press,Traditional,Toronto,Canada,"Children's picture books, MG, YA",Via website,N/A,Toronto,pajamapress.ca,Via website,N/A,NO AUDIOBOOKS,TIER 1,"Canadian literary"
OnStage Publishing,Traditional,USA,USA,"Children's chapter books, MG, YA",Via website,N/A,N/A,onstagepublishing.com,Via website,N/A,NO AUDIOBOOKS,TIER 1,"Ages 8-18"
Enchanted Lion,Traditional,Brooklyn NY,USA,"Children's picture books, illustrated",Via website,N/A,Brooklyn NY,enchantedlion.com,Via website,N/A,NO AUDIOBOOKS,TIER 1,"Award-winning design"
Jolly Fish Press,Traditional,USA,USA,"MG, YA fiction all genres",Via website,N/A,N/A,jollyfishpress.com,Via website,N/A,Unknown,High,"Since 2012"
Sourcebooks,Traditional,Naperville IL,USA,"Self-help, parenting, romance, nonfiction",Via website,N/A,Naperville IL,sourcebooks.com,Via website,300+,Some,Medium,"Fastest-growing indie"
Tell-Tale Publishing,Traditional,USA,USA,"Romance, fiction, ebooks",Via website,N/A,N/A,telltalepublishing.com,Via website,N/A,NO AUDIOBOOKS,TIER 1,"Since 2009"
Literary Wanderlust,Traditional,Denver CO,USA,"Romance, fiction",Via website,N/A,Denver CO,literarywanderlust.com,Via website,N/A,NO AUDIOBOOKS,TIER 1,"Since 2014"
Inkspell Publishing,Traditional,USA,USA,"Romance, ebooks",Via website,N/A,N/A,inkspellpublishing.com,Via website,N/A,NO AUDIOBOOKS,TIER 1,"Since 2011"
Black Lyon Publishing,Traditional,Oregon,USA,"Romance novels",Via website,N/A,OR,blacklyonpublishing.com,Via website,N/A,NO AUDIOBOOKS,TIER 1,"Established romance"
Page & Vine,Traditional,USA,USA,"Romance, BookTok trending",Via website,N/A,N/A,pageandvine.com,Via website,N/A,Unknown,High,"Founded 2022"
City Owl Press,Traditional,USA,USA,"Romance, speculative fiction",Via website,N/A,N/A,cityowlpress.com,Via website,N/A,NO AUDIOBOOKS,TIER 1,"Indie romance/SFF"
Hera Books,Traditional,UK,UK,"Romance, commercial fiction, digital",Via website,N/A,UK,herabooks.com,Via website,N/A,NO AUDIOBOOKS,TIER 1,"Female-led digital"
NineStar Press,Traditional,New Mexico,USA,"LGBTQ+ romance, erotica",Via website,N/A,NM,ninestarpress.com,Via website,N/A,NO AUDIOBOOKS,TIER 1,"Since 2015"
Bold Strokes Books,Traditional,USA,USA,"LGBTQ+ fiction, romance",Via website,N/A,N/A,boldstrokesbooks.com,Via website,N/A,Some,Medium,"Good print distribution"
Dreamspinner Press,Traditional,USA,USA,"Gay male romance",Via website,N/A,N/A,dreamspinnerpress.com,Via website,N/A,Some,Medium,"Multiple categories"
Blind Eye Books,Traditional,USA,USA,"LGBTQ+ mystery, fantasy, romance",Via website,N/A,N/A,blindeyebooks.com,Via website,N/A,NO AUDIOBOOKS,TIER 1,"LGBTQ+ focus"
Bella Books,Traditional,USA,USA,"Lesbian romance, fiction",Via website,N/A,N/A,bellabooks.com,Via website,N/A,Some,Medium,"Women-loving-women"
JMS Books,Traditional,USA,USA,"LGBTQ+ romance, YA",Via website,N/A,N/A,jms-books.com,Via website,N/A,NO AUDIOBOOKS,TIER 1,"Small electronic press"
Bookouture,Traditional,UK,UK,"Commercial fiction, romance, thrillers",Via website,N/A,UK,bookouture.com,Via website,N/A,Yes,Low,"Hachette digital"
Decadent Publishing,Traditional,USA,USA,"Romance fiction all heat levels",Via website,N/A,N/A,decadentpublishing.com,Via website,N/A,NO AUDIOBOOKS,TIER 1,"Romance only"
Boroughs Publishing,Traditional,USA,USA,"Romance novels, novellas",Via website,N/A,N/A,boroughspublishinggroup.com,Via website,N/A,NO AUDIOBOOKS,TIER 1,"E-publisher"
Evernight Publishing,Traditional,Canada,Canada,"Romance, erotica ebooks",Via website,N/A,Canada,evernightpublishing.com,Via website,N/A,NO AUDIOBOOKS,TIER 1,"Digital focus"
Entangled Publishing,Traditional,USA,USA,"Adult and YA romantic fiction",Via website,N/A,N/A,entangledpublishing.com,Via website,N/A,Some,Medium,"Large indie romance"
Small Beer Press,Traditional,Massachusetts,USA,"Sci-fi, fantasy, speculative",Via website,N/A,MA,smallbeerpress.com,Via website,6-10,NO AUDIOBOOKS,TIER 1,"Hot indie SFF"
Subterranean Press,Traditional,Michigan,USA,"Sci-fi, fantasy, horror, dark mystery",Via website,N/A,MI,subterraneanpress.com,Via website,30-50,Some,Medium,"Limited editions"
Angry Robot,Traditional,UK,UK,"Sci-fi, fantasy, urban fantasy",Via website,N/A,UK,angryrobotbooks.com,Via website,N/A,Some,Medium,"Watkins Media"
Baen Books,Traditional,USA,USA,"Sci-fi, fantasy",Via website,N/A,N/A,baen.com,Via website,N/A,Yes,Low,"Established SFF"
Second Sky,Traditional,UK,UK,"SFF digital imprint",Via website,N/A,UK,bookouture.com,Via Bookouture,N/A,NO AUDIOBOOKS,TIER 1,"Bookouture SFF"
Storm Publishing,Traditional,UK,UK,"Commercial fiction, SFF",Via website,N/A,UK,stormpublishing.co,Via website,N/A,NO AUDIOBOOKS,TIER 1,"Digital-first"
Solaris Nova,Traditional,UK,UK,"SFF, horror digital",Via website,N/A,UK,solarisbooks.com,Via website,N/A,Unknown,High,"Rebellion digital"
Rosarium Publishing,Traditional,USA,USA,"Diverse speculative fiction, comics",Via website,N/A,N/A,rosariumpublishing.com,Via website,N/A,NO AUDIOBOOKS,TIER 1,"Since 2013"
Montag Press,Traditional,USA,USA,"Experimental, weird, speculative fiction",Via website,N/A,N/A,montagpress.com,Via website,N/A,NO AUDIOBOOKS,TIER 1,"Subversive fiction"
Apex Publications,Traditional,USA,USA,"Horror, dark fantasy, speculative",Via website,N/A,N/A,apexbookcompany.com,Via website,N/A,NO AUDIOBOOKS,TIER 1,"Since 2004"
Eraserhead Press,Traditional,USA,USA,"Bizarro fiction, speculative",Via website,N/A,N/A,eraserheadpress.com,Via website,N/A,NO AUDIOBOOKS,TIER 1,"Bizarro specialist"
Tartarus Press,Traditional,UK,UK,"Supernatural, strange, horror fiction",Via website,N/A,UK,tartaruspress.com,Via website,N/A,NO AUDIOBOOKS,TIER 1,"Limited editions"
World Weaver Press,Traditional,New Mexico,USA,"Fantasy, paranormal, sci-fi",Via website,N/A,NM,worldweaverpress.com,Via website,N/A,NO AUDIOBOOKS,TIER 1,"All-female team"
The Parliament House,Traditional,USA,USA,"Fantasy, paranormal, urban fantasy",Via website,N/A,N/A,theparliamenthouse.com,Via website,N/A,NO AUDIOBOOKS,TIER 1,"Since 2016"
Aethon Books,Traditional,USA,USA,"Sci-fi, fantasy all subgenres",Via website,N/A,N/A,aethonbooks.com,Via website,N/A,Some,Medium,"Print and ebook"
Rebellion Publishing,Traditional,UK,UK,"Sci-fi, fantasy (Solaris, Abaddon)",Via website,N/A,UK,rebellion.co.uk,Via website,N/A,Unknown,High,"Multiple imprints"
Hydra House,Traditional,USA,USA,"SF, fantasy, horror",Via website,N/A,N/A,hydrahousebooks.com,Via website,N/A,NO AUDIOBOOKS,TIER 1,"Since 2008"
Hellbender Press,Traditional,Pennsylvania,USA,"Fantasy, sci-fi, horror",Via website,N/A,PA,sunburypress.com,Sunbury imprint,N/A,NO AUDIOBOOKS,TIER 1,"Sunbury imprint"
Hard Case Crime,Traditional,USA,USA,"Hard-boiled crime, noir",Via website,N/A,N/A,hardcasecrime.com,Via website,N/A,Some,Medium,"Stephen King publisher"
Brash Books,Traditional,USA,USA,"Thrillers, mysteries, crime",Via website,N/A,N/A,brash-books.com,Via website,N/A,NO AUDIOBOOKS,TIER 1,"Mystery novelists run"
Crooked Lane Books,Traditional,USA,USA,"Crime, mysteries, cozies",Via website,N/A,N/A,crookedlanebooks.com,Via website,N/A,Some,Medium,"PRH distribution"
Joffe Books,Traditional,UK,UK,"Thrillers, mysteries, detective",Via website,N/A,UK,joffebooks.com,Via website,N/A,Some,Medium,"UK e-publisher"
Fahrenheit Press,Traditional,UK,UK,"Thrillers, crime novels",Via website,N/A,UK,fahrenheit-press.com,Via website,N/A,NO AUDIOBOOKS,TIER 1,"Thrillers only"
Bitter Lemon Press,Traditional,London,UK,"Thrillers, crime fiction",Via website,N/A,London,bitterlemonpress.com,Via website,N/A,NO AUDIOBOOKS,TIER 1,"International crime"
Legend Press Crime,Traditional,UK,UK,"Crime fiction, psychological thrillers",Via website,N/A,UK,legendpress.co.uk,Via website,N/A,Unknown,High,"UK crime imprint"
Carina Press,Traditional,USA,USA,"Mysteries, thrillers, romance",Via website,N/A,N/A,carinapress.com,Via website,N/A,Unknown,High,"Harlequin digital"
Verve Books,Traditional,UK,UK,"Mystery, crime, thriller",Via website,N/A,UK,vervebooks.co.uk,Via website,N/A,NO AUDIOBOOKS,TIER 1,"No Exit digital"
Camel Press,Traditional,USA,USA,"Mystery, suspense, cozy",Via website,N/A,N/A,camelpress.com,Epicenter imprint,N/A,NO AUDIOBOOKS,TIER 1,"Coffeetown/Epicenter"
Encircle Publications,Traditional,USA,USA,"Mainstream fiction, mystery",Via website,N/A,N/A,encirclepub.com,Via website,N/A,NO AUDIOBOOKS,TIER 1,"Small press"
Felony & Mayhem,Traditional,USA,USA,"Mystery, crime reprints and originals",Via website,N/A,N/A,felonyandmayhem.com,Via website,N/A,NO AUDIOBOOKS,TIER 1,"Since 2005"
Level Best Books,Traditional,USA,USA,"Crime fiction, mystery, suspense",Via website,N/A,N/A,levelbestbooks.us,Via website,N/A,NO AUDIOBOOKS,TIER 1,"Various crime"
Black Beacon Books,Traditional,France,Australia/France,"Mysteries, suspense, horror",Via website,N/A,France,blackbeaconbooks.com,Via website,N/A,NO AUDIOBOOKS,TIER 1,"Since 2013"
Turtle Press,Traditional,USA,USA,"Fitness, martial arts, mind-body",Via website,N/A,N/A,turtlepress.com,Via website,N/A,NO AUDIOBOOKS,TIER 1,"Niche fitness"
Ulysses Press,Traditional,USA,USA,"Health, fitness, niche topics",Via website,N/A,N/A,ulyssespress.com,Via website,N/A,Unknown,High,"Fast-growing"
Fair Winds Press,Traditional,Beverly MA,USA,"Nutrition, fitness, health, beauty",Via Quarto,N/A,MA,quartoknows.com,Via Quarto,N/A,Unknown,Medium,"Quarto Group"
Findhorn Press,Traditional,Scotland,UK,"Mind-body-spirit, alternative health",Via website,N/A,Scotland,findhornpress.com,Via website,N/A,NO AUDIOBOOKS,TIER 1,"Scottish indie"
Cooper Publishing,Traditional,USA,USA,"Exercise physiology, sports medicine",Via website,N/A,N/A,cooperpublishing.com,Via website,N/A,NO AUDIOBOOKS,TIER 1,"Academic sports"
Human Kinetics,Traditional,USA,USA,"Sports, fitness, health, nutrition",Via website,N/A,N/A,humankinetics.com,Via website,N/A,Some,Medium,"Academic/consumer"
Bull Publishing,Traditional,Boulder CO,USA,"Health, nutrition, chronic disease",Via website,N/A,CO,bullpub.com,Via website,N/A,NO AUDIOBOOKS,TIER 1,"Family-owned"
Crown House Publishing,Traditional,UK,UK,"NLP, hypnosis, learning, health",Via email,N/A,UK,crownhouse.co.uk,Via email,N/A,NO AUDIOBOOKS,TIER 1,"2014 Education POY"
Hohm Press,Traditional,USA,USA,"Religious studies, natural health, arts",Via website,N/A,N/A,hohmpress.com,Via website,N/A,NO AUDIOBOOKS,TIER 1,"Alternative culture"
Book Publishing Company,Traditional,Tennessee,USA,"Natural medicine, vegan diets, sustainability",Via website,N/A,TN,bookpubco.com,Via website,N/A,NO AUDIOBOOKS,TIER 1,"Since 1974"
Chelsea Green Publishing,Traditional,Vermont,USA,"Sustainability, food, politics, nature",Via website,N/A,VT,chelseagreen.com,Via website,N/A,Unknown,High,"Employee-owned"
Exisle Publishing,Traditional,Australia/NZ,Australia,"Health, wellbeing, nutrition, mindfulness",Via website,N/A,AU/NZ,exislepublishing.com,Via website,N/A,NO AUDIOBOOKS,TIER 1,"Since 1991"
Hammersmith Books,Traditional,London,UK,"Health professionals and public",Via website,N/A,London,hammersmithbooks.co.uk,Via website,N/A,NO AUDIOBOOKS,TIER 1,"Since 2009"
The Experiment,Traditional,NYC,USA,"Food, health, psychology, personal development",Via website,N/A,NYC,theexperimentpublishing.com,Via website,N/A,Unknown,High,"Workman imprint"
Copper Canyon Press,Traditional,Washington,USA,"Poetry",Via website,N/A,WA,coppercanyonpress.org,Via website,N/A,Unknown,High,"Top poetry press"
BOA Editions,Traditional,Rochester NY,USA,"Poetry",Via website,N/A,NY,boaeditions.org,Via website,20,NO AUDIOBOOKS,TIER 1,"Nonprofit poetry"
Wave Books,Traditional,Seattle WA,USA,"Innovative poetry",Via website,N/A,WA,wavepoetry.com,Via website,N/A,NO AUDIOBOOKS,TIER 1,"Distinctive design"
Milkweed Editions,Nonprofit,Minneapolis MN,USA,"Fiction, poetry, essays, nature",Via website,N/A,MN,milkweed.org,Via open periods,N/A,Unknown,High,"Nonprofit literary"
Nightboat Books,Nonprofit,NYC,USA,"Poetry, experimental writing",Via website,N/A,NYC,nightboat.org,Via website,N/A,NO AUDIOBOOKS,TIER 1,"Since 2004"
Sibling Rivalry Press,Traditional,Arkansas,USA,"LGBTQ+ poetry",Via website,N/A,AR,siblingrivalrypress.com,Via website,N/A,NO AUDIOBOOKS,TIER 1,"Since 2010"
Autumn House Press,Nonprofit,Pittsburgh PA,USA,"Poetry, fiction, nonfiction",Via website,N/A,PA,autumnhouse.org,Via website,N/A,NO AUDIOBOOKS,TIER 1,"Pittsburgh nonprofit"
City Lights Books,Traditional,San Francisco CA,USA,"Poetry, fiction, political nonfiction",Via website,N/A,SF,citylights.com,Via website,12,Some,Medium,"Ginsberg publisher"
Four Way Books,Nonprofit,NYC,USA,"Poetry, short fiction",Via website,N/A,NYC,fourwaybooks.com,Via website,20,NO AUDIOBOOKS,TIER 1,"Emerging writers"
Coach House Books,Traditional,Toronto,Canada,"Poetry, fiction, drama",Via website,N/A,Toronto,chbooks.com,Via website,10,NO AUDIOBOOKS,TIER 1,"Canadian literary"
Santa Monica Press,Traditional,California,USA,"Biography, memoir, pop culture, regional",Via website,N/A,CA,santamonicapress.com,Via website,N/A,NO AUDIOBOOKS,TIER 1,"Since 1993"
Apollo Publishers,Traditional,NYC,USA,"Narrative nonfiction, memoir, topical",Via website,N/A,NYC,apollopublishers.com,Via website,N/A,NO AUDIOBOOKS,TIER 1,"Since 2016"
Mad Creek Books,Academic,Ohio,USA,"Literary nonfiction, fiction, poetry",Via website,N/A,OH,ohiostatepress.org,OSU Press imprint,N/A,NO AUDIOBOOKS,TIER 1,"OSU literary trade"
University of Texas Press,Academic,Austin TX,USA,"Nonfiction, memoir, Texas topics",Via website,N/A,TX,utpress.utexas.edu,Via website,N/A,Unknown,High,"Academic with trade"
Soft Skull Press,Traditional,Brooklyn NY,USA,"Fiction, nonfiction, memoir, biography",Via website,N/A,NY,softskull.com,Via website,N/A,NO AUDIOBOOKS,TIER 1,"Counterpoint imprint"
Outpost19 Books,Traditional,San Francisco CA,USA,"Novels, memoirs, essays, reportage",Via website,N/A,SF,outpost19.com,Via website,N/A,NO AUDIOBOOKS,TIER 1,"Since 2011"
Three Rooms Press,Traditional,NYC,USA,"Fiction, nonfiction, memoir, YA",Via website,N/A,NYC,threeroomspress.com,Via website,N/A,NO AUDIOBOOKS,TIER 1,"Dada, Punk, Passion"
Asabi Publishing,Traditional,USA,USA,"Biography, memoir, travel guides",Via website,N/A,N/A,asabipublishing.com,Via website,N/A,NO AUDIOBOOKS,TIER 1,"Diverse nonfiction"
Amble Press,Traditional,USA,USA,"POC and queer writers, memoir, biography",Via website,N/A,N/A,amblepress.com,Via website,N/A,NO AUDIOBOOKS,TIER 1,"Diverse voices"
Agate Publishing,Traditional,Chicago IL,USA,"Fiction, nonfiction, memoirs",Via website,N/A,IL,agatepublishing.com,Via website,N/A,Unknown,High,"Chicago indie"
Belt Publishing,Traditional,Cleveland OH,USA,"Rust Belt perspectives",Via website,N/A,OH,beltpublishing.com,Via website,N/A,NO AUDIOBOOKS,TIER 1,"Since 2013"
Two Dollar Radio,Traditional,Columbus OH,USA,"Literary fiction, diverse voices",Via website,N/A,OH,twodollarradio.com,Via website,N/A,NO AUDIOBOOKS,TIER 1,"Columbus indie"
University of Nebraska Press,Academic,Lincoln NE,USA,"History, Native American, regional",Via website,N/A,NE,nebraskapress.unl.edu,Via website,150,Unknown,High,"5 imprints"
Kregel Publications,Traditional,Grand Rapids MI,USA,"Christian living, biblical studies, fiction",Via website,N/A,MI,kregel.com,Via website,N/A,Unknown,High,"Since 1949"
Holy Cow! Press,Traditional,Duluth MN,USA,"Poetry, Native American, Midwest",Via website,N/A,MN,holycowpress.org,Via website,N/A,NO AUDIOBOOKS,TIER 1,"Since 1977"
BelleBooks,Traditional,Atlanta GA,USA,"Southern fiction",Via website,N/A,GA,bellebooks.com,Via website,N/A,NO AUDIOBOOKS,TIER 1,"Southern focus"
Sandlapper Publishing,Traditional,South Carolina,USA,"Southern nonfiction, history, travel",Via website,N/A,SC,sandlapperpublishing.com,Via website,N/A,NO AUDIOBOOKS,TIER 1,"Since 1983"
Hub City Press,Traditional,Spartanburg SC,USA,"Southern voices, literary",Via website,N/A,SC,hubcity.org,Via website,N/A,NO AUDIOBOOKS,TIER 1,"Since 1995"
University of South Carolina Press,Academic,Columbia SC,USA,"Southern studies, history, scholarly",Via website,N/A,SC,sc.edu/uscpress,Via website,N/A,Unknown,High,"Since 1944"
Arcadia Publishing,Traditional,Charleston SC,USA,"Local history, Images of America",Via website,N/A,SC,arcadiapublishing.com,Via website,N/A,NO AUDIOBOOKS,TIER 1,"Since 1993"
John F. Blair Publisher,Traditional,Winston-Salem NC,USA,"Regional nonfiction, history, travel",Via website,N/A,NC,blairpub.com,Via website,5-10,NO AUDIOBOOKS,TIER 1,"Southeast focus"
Warbranch Press,Traditional,Clemson SC,USA,"Children's and adult books",Via website,N/A,SC,warbranchpress.com,Via website,N/A,NO AUDIOBOOKS,TIER 1,"Since 1998"
Cemetery Dance,Traditional,USA,USA,"Horror, dark fantasy",Via website,N/A,N/A,cemeterydance.com,Via website,N/A,Some,Medium,"Top horror press"
Crystal Lake Publishing,Traditional,USA,USA,"Dark fiction, horror, suspense",Via website,N/A,N/A,crystallakepub.com,Via website,N/A,NO AUDIOBOOKS,TIER 1,"Bram Stoker Awards"
Dark Regions Press,Traditional,USA,USA,"Horror, dark fiction, sci-fi, fantasy",Via website,N/A,N/A,darkregions.com,Via website,N/A,NO AUDIOBOOKS,TIER 1,"Since 1985"
Cemetery Gates Media,Traditional,USA,USA,"Horror, supernatural fiction",Via website,N/A,N/A,cemeterygatesmedia.com,Via website,N/A,NO AUDIOBOOKS,TIER 1,"Since 2015"
Ghost Orchid Press,Traditional,UK,UK,"Horror, Gothic, supernatural",Via website,N/A,UK,ghostorchidpress.com,Via website,N/A,NO AUDIOBOOKS,TIER 1,"Since 2021"
Hellbound Books Publishing,Traditional,USA,USA,"Horror, bizarro, dark fantasy",Via website,N/A,N/A,hellboundbookspublishing.com,Via website,N/A,NO AUDIOBOOKS,TIER 1,"First-time friendly"
Flame Tree Press,Traditional,UK,UK,"Horror, anthologies, illustrated",Via website,N/A,UK,flametreepublishing.com,Via website,N/A,Unknown,High,"Unique horror books"
Grindhouse Press,Traditional,USA,USA,"Horror, extreme horror, bizarro",Via website,N/A,N/A,grindhousepress.com,Via website,10-12,NO AUDIOBOOKS,TIER 1,"Since 2010"
JournalStone Publishing,Traditional,USA,USA,"Horror, mystery, suspense",Via website,N/A,N/A,journalstone.com,Via website,N/A,NO AUDIOBOOKS,TIER 1,"New author support"
Thunderstorm Books,Traditional,USA,USA,"Horror all subgenres",Via website,N/A,N/A,thunderstormbooks.com,Via website,N/A,NO AUDIOBOOKS,TIER 1,"Limited editions"
Quill & Crow Publishing,Traditional,USA,USA,"Gothic fiction, horror, poetry",Via website,N/A,N/A,quillandcrowpublishinghouse.com,Via website,N/A,NO AUDIOBOOKS,TIER 1,"Indie literary horror"
Haunt Publishing,Traditional,UK,UK,"Gothic, horror, dark fiction",Via website,N/A,UK,hauntpublishing.com,Via website,N/A,NO AUDIOBOOKS,TIER 1,"UK horror indie"
Arkham House,Traditional,Wisconsin,USA,"Weird fiction, Lovecraftian",Via website,N/A,WI,arkhamhouse.com,Via website,N/A,NO AUDIOBOOKS,TIER 1,"Since 1939"
Bag of Bones Press,Traditional,UK,UK,"Horror, dark fiction",Via website,N/A,UK,bagofbonespress.com,Via website,N/A,NO AUDIOBOOKS,TIER 1,"Since 2021"
Dead Sky Publishing,Traditional,USA,USA,"Literary horror, noir, thriller",Via website,N/A,N/A,deadskypublishing.com,Via website,N/A,NO AUDIOBOOKS,TIER 1,"Death's Head imprint"
Creature Horror,Traditional,Virginia,USA,"Feminist horror, dark speculative",Via website,N/A,VA,creaturehorror.com,Via website,N/A,NO AUDIOBOOKS,TIER 1,"VA-based"
Sinister Grin Press,Traditional,USA,USA,"Edgy, dark horror",Via website,N/A,N/A,sinistergrinpress.com,Via website,N/A,NO AUDIOBOOKS,TIER 1,"Shock and suspense"
Tor Teen,Traditional,NYC,USA,"YA sci-fi, fantasy, general fiction",Via website,N/A,NYC,tor.com,Via website,N/A,Some,Medium,"Macmillan imprint"
Dancing Cat Books,Traditional,Toronto,Canada,"Children's, YA literary fiction/nonfiction/poetry",Via website,N/A,Toronto,cormorantbooks.com,Cormorant imprint,N/A,NO AUDIOBOOKS,TIER 1,"Canadian YA"
Entangled Teen,Traditional,USA,USA,"YA romance all genres",Via website,N/A,N/A,entangledpublishing.com,Via website,N/A,Some,Medium,"Teen Crush/Crave"
Flux Books,Traditional,USA,USA,"YA fiction exclusively",Via website,N/A,N/A,fluxbooks.com,Via website,N/A,NO AUDIOBOOKS,TIER 1,"North Star Editions"
CamCat Books,Traditional,USA,USA,"YA fiction (16+), adult fiction",Via website,N/A,N/A,camcatbooks.com,Via website,N/A,NO AUDIOBOOKS,TIER 1,"Since 2019"
Cranachan Publishing,Traditional,Isle of Lewis,UK,"Scottish children's and YA",Via website,N/A,Scotland,cranachanpublishing.co.uk,Via website,N/A,NO AUDIOBOOKS,TIER 1,"Scottish flavour"
Abingdon Press,Traditional,Nashville TN,USA,"Methodist, Christian living",Via website,N/A,TN,abingdonpress.com,Via website,N/A,Unknown,High,"United Methodist"
Zondervan,Traditional,Grand Rapids MI,USA,"Christian books, bibles",Via agent,N/A,MI,zondervan.com,Agent required,N/A,Yes,Low,"HarperCollins"
B&H Publishing,Traditional,Nashville TN,USA,"Christian books, CSB Bible",Via website,N/A,TN,bhpublishinggroup.com,Via website,N/A,Unknown,High,"Lifeway Resources"
Bethany House,Traditional,Minneapolis MN,USA,"Christian fiction and nonfiction",Via website,N/A,MN,bethanyhouse.com,Via website,75+,Unknown,High,"50+ years"
Gilead Books,Nonprofit,UK,UK,"Christian fiction, first-time authors",Via website,N/A,UK,gileadbooks.co.uk,Via website,N/A,NO AUDIOBOOKS,TIER 1,"Since 2007"
Flyaway Books,Traditional,USA,USA,"Christian children's picture books",Via website,N/A,N/A,flyawaybooks.com,Via website,N/A,NO AUDIOBOOKS,TIER 1,"WJK affiliate"
Spirit Media,Traditional,USA,USA,"Christian books, global authors",Via website,N/A,N/A,spiritmediabooks.com,Via website,N/A,NO AUDIOBOOKS,TIER 1,"Since 2022"
Wipf and Stock,Traditional,Oregon,USA,"Christian theology, academic",Via website,N/A,OR,wipfandstock.com,Via website,N/A,NO AUDIOBOOKS,TIER 1,"Content excellence"
Paulist Press,Traditional,USA,USA,"Catholic books, Paulist Fathers",Via website,N/A,N/A,paulistpress.com,Via website,N/A,NO AUDIOBOOKS,TIER 1,"Since 1858"
Ignatius Press,Traditional,San Francisco CA,USA,"Catholic fiction, nonfiction, children's",Via website,N/A,SF,ignatius.com,Via website,N/A,Unknown,High,"Since 1970s"
Ave Maria Press,Traditional,Indiana,USA,"Catholic textbooks, spirituality",Via website,N/A,IN,avemariapress.com,Via website,N/A,Unknown,High,"Holy Cross"
Baylor University Press,Academic,Waco TX,USA,"Academic faith-based, religion",Via website,N/A,TX,baylorpress.com,Via website,N/A,NO AUDIOBOOKS,TIER 1,"Since 1897"
SVS Press,Traditional,New York,USA,"Orthodox Christian, theology",Via website,N/A,NY,svspress.com,Via website,N/A,NO AUDIOBOOKS,TIER 1,"Since 1968"
Herald Press,Traditional,USA,USA,"Anabaptist, Mennonite, Amish",Via website,N/A,N/A,heraldpress.com,Via website,N/A,NO AUDIOBOOKS,TIER 1,"Denominational"
InterVarsity Press,Traditional,Illinois,USA,"Christian, academic, ministry",Via website,N/A,IL,ivpress.com,Via website,N/A,Some,Medium,"70+ years"
Crossway,Nonprofit,Illinois,USA,"Christian gospel, ministry",Via website,N/A,IL,crossway.org,Via website,N/A,Some,Medium,"Nonprofit ministry"
Gibbs Smith,Traditional,Utah,USA,"Cookbooks, lifestyle, home, children's",Via website,N/A,UT,gibbs-smith.com,Via website,N/A,Unknown,High,"Accepts unagented"
Hardie Grant Books,Traditional,Australia/UK,Australia/UK,"Food, lifestyle, gift books",Via website,N/A,AU/UK,hardiegrant.com,Via website,N/A,Unknown,High,"Unagented OK"
Cider Mill Press,Traditional,Maine,USA,"Cookbooks, cocktails, gifts",Via website,N/A,ME,cidermillpress.com,Via website,N/A,NO AUDIOBOOKS,TIER 1,"Since 2005"
Tuttle Publishing,Traditional,USA,USA,"Asian culture, cookbooks, language",Via website,N/A,N/A,tuttlepublishing.com,Via website,150,NO AUDIOBOOKS,TIER 1,"6000+ titles"
Phaidon Press,Traditional,UK/USA,UK/USA,"Arts, design, food, culture",Via website,N/A,UK/USA,phaidon.com,Priority to agents,N/A,Unknown,Medium,"High design"
Quail Ridge Press,Traditional,USA,USA,"Regional cookbooks, nonfiction",Via website,N/A,N/A,quailridge.com,Via website,N/A,NO AUDIOBOOKS,TIER 1,"Regional specialty"
Sasquatch Books,Traditional,Seattle WA,USA,"Food, wine, travel, gardening",Via website,N/A,WA,sasquatchbooks.com,Via website,N/A,Unknown,High,"Leading indie"
Burford Books,Traditional,Ithaca NY,USA,"Outdoors, food, wine, travel",Via website,N/A,NY,burfordbooks.com,Via website,N/A,NO AUDIOBOOKS,TIER 1,"Outdoor specialty"
Camino Books,Traditional,Philadelphia PA,USA,"Mid-Atlantic nonfiction, cookbooks",Via website,N/A,PA,caminobooks.com,Via website,6-10,NO AUDIOBOOKS,TIER 1,"Regional focus"
Burgess Lea Press,Traditional,USA,USA,"Chef cookbooks, food philanthropy",Via website,N/A,N/A,burgessleapress.com,Via website,N/A,NO AUDIOBOOKS,TIER 1,"Restaurant books"
Storey Publishing,Traditional,Massachusetts,USA,"Gardening, cooking, DIY, homesteading",Via website,N/A,MA,storey.com,Via website,N/A,Unknown,High,"Workman imprint"
Whitecap Books,Traditional,Vancouver BC,Canada,"Food, wine, health, regional",Via website,N/A,BC,whitecap.ca,Via website,N/A,NO AUDIOBOOKS,TIER 1,"Canadian publisher"
Academica Press,Academic,London/DC,USA/UK,"Humanities, social sciences, law",Via website,N/A,London/DC,academicapress.com,Via website,N/A,NO AUDIOBOOKS,TIER 1,"Independent scholarly"
John Benjamins,Academic,Netherlands,Netherlands,"Linguistics, academic",Via website,N/A,NL,benjamins.com,Via website,N/A,NO AUDIOBOOKS,TIER 1,"Family-owned"
Fordham University Press,Academic,NYC,USA,"Humanities, social sciences, Catholic",Via website,N/A,NYC,fordhampress.com,Via website,90,NO AUDIOBOOKS,TIER 1,"Since 1907"
Edinburgh University Press,Academic,Edinburgh,UK,"Humanities, social sciences",Via website,N/A,Edinburgh,edinburghuniversitypress.com,Via website,N/A,Unknown,High,"Scottish academic"
Edward Elgar Publishing,Academic,UK/USA,UK/USA,"Social sciences, legal, business",Via website,N/A,UK/USA,e-elgar.com,Via website,350,NO AUDIOBOOKS,TIER 1,"Leading academic"
Palgrave Macmillan,Academic,UK,UK,"Academic across disciplines",Via website,N/A,UK,palgrave.com,Via website,N/A,Unknown,Medium,"Springer Nature"
Bristol University Press,Academic,Bristol,UK,"Social sciences, politics",Via website,N/A,UK,bristoluniversitypress.co.uk,Via website,N/A,NO AUDIOBOOKS,TIER 1,"UK academic"
Liverpool University Press,Academic,Liverpool,UK,"Humanities, social sciences",Via website,N/A,UK,liverpooluniversitypress.co.uk,Via website,N/A,NO AUDIOBOOKS,TIER 1,"UK academic"
Manchester University Press,Academic,Manchester,UK,"Humanities, social sciences",Via website,N/A,UK,manchesteruniversitypress.co.uk,Via website,N/A,Unknown,High,"UK academic"
Cornell University Press,Academic,Ithaca NY,USA,"Academic across disciplines",Via website,N/A,NY,cornellpress.cornell.edu,Via website,N/A,Unknown,Medium,"Ivy League press"
Duke University Press,Academic,Durham NC,USA,"Academic across disciplines",Via website,N/A,NC,dukeupress.edu,Via website,N/A,Unknown,Medium,"Academic leader"
Johns Hopkins University Press,Academic,Baltimore MD,USA,"Academic across disciplines",Via website,N/A,MD,press.jhu.edu,Via website,N/A,Unknown,Medium,"Leading academic"
University of Chicago Press,Academic,Chicago IL,USA,"Academic across disciplines",Via website,N/A,IL,press.uchicago.edu,Via website,N/A,Some,Medium,"Major academic"
Yale University Press,Academic,New Haven CT,USA,"Academic, art, history",Via website,N/A,CT,yalebooks.yale.edu,Via website,N/A,Some,Medium,"Ivy League press"
Princeton University Press,Academic,Princeton NJ,USA,"Academic across disciplines",Via website,N/A,NJ,press.princeton.edu,Via website,N/A,Some,Medium,"Ivy League press"
MIT Press,Academic,Cambridge MA,USA,"Science, technology, arts",Via website,N/A,MA,mitpress.mit.edu,Via website,N/A,Unknown,High,"Tech/science focus"
Stanford University Press,Academic,Stanford CA,USA,"Academic across disciplines",Via website,N/A,CA,sup.org,Via website,N/A,Unknown,High,"Selective academic"
Columbia University Press,Academic,NYC,USA,"Academic across disciplines",Via website,N/A,NYC,cup.columbia.edu,Via website,N/A,Some,Medium,"Ivy League press"
Harvard University Press,Academic,Cambridge MA,USA,"Academic across disciplines",Via website,N/A,MA,hup.harvard.edu,Via website,N/A,Some,Medium,"Ivy League press"
Oxford University Press,Academic,Oxford/NYC,UK/USA,"Academic across disciplines",Via website,N/A,UK/USA,oup.com,Via website,N/A,Yes,Low,"Major academic"
Cambridge University Press,Academic,Cambridge,UK,"Academic across disciplines",Via website,N/A,UK,cambridge.org,Via website,N/A,Yes,Low,"Major academic"
Beacon Press,Nonprofit,Boston MA,USA,"Social issues, religion, history",Via website,N/A,MA,beacon.org,Via website,N/A,Some,Medium,"UUA nonprofit"
Island Press,Nonprofit,Washington DC,USA,"Environment, sustainability",Via website,N/A,DC,islandpress.org,Via website,N/A,NO AUDIOBOOKS,TIER 1,"Environmental"
New Society Publishers,Traditional,Canada,Canada,"Sustainability, social justice",Via website,N/A,BC,newsociety.com,Via website,N/A,NO AUDIOBOOKS,TIER 1,"Environmental"
Haymarket Books,Nonprofit,Chicago IL,USA,"Radical politics, social movements",Via website,N/A,IL,haymarketbooks.org,Via website,N/A,NO AUDIOBOOKS,TIER 1,"Nonprofit political"
Verso Books,Traditional,London/NYC,UK/USA,"Left politics, theory, culture",Via website,N/A,UK/USA,versobooks.com,Via website,N/A,Unknown,High,"Since 1970"
The New Press,Nonprofit,NYC,USA,"Social issues, politics, education",Via website,N/A,NYC,thenewpress.com,Via website,N/A,Unknown,High,"Public interest"
Seven Stories Press,Traditional,NYC,USA,"Politics, social issues, progressive",Via website,N/A,NYC,sevenstories.com,Via website,N/A,NO AUDIOBOOKS,TIER 1,"Independent"
OR Books,Traditional,NYC,USA,"Politics, current affairs",Via website,N/A,NYC,orbooks.com,Via website,N/A,NO AUDIOBOOKS,TIER 1,"Direct sales"
Melville House,Traditional,Brooklyn NY,USA,"Literary fiction, nonfiction, politics",Via website,N/A,NY,mhpbooks.com,Via website,N/A,Unknown,High,"Last Interview series"
Europa Editions,Traditional,NYC,USA,"Literary fiction, translations, noir",Via website,N/A,NYC,europaeditions.com,Via website,N/A,Unknown,High,"Ferrante publisher"
Catapult,Traditional,NYC,USA,"Literary fiction, memoir, essays",Via website,N/A,NYC,catapult.co,Via website,N/A,Unknown,High,"Counterpoint imprint"
Counterpoint Press,Traditional,Berkeley CA,USA,"Literary fiction, nonfiction, nature",Via website,N/A,CA,counterpointpress.com,Via website,N/A,Unknown,High,"Multiple imprints"
Pushkin Press,Traditional,London,UK,"Literary fiction, translations, classics",Via website,N/A,UK,pushkinpress.com,Via website,N/A,NO AUDIOBOOKS,TIER 1,"UK literary"
Canongate Books,Traditional,Edinburgh,UK,"Literary fiction, nonfiction, narrative",Via website,N/A,UK,canongate.co.uk,Via website,N/A,Some,Medium,"Scottish indie"
Granta Books,Traditional,London,UK,"Literary fiction, memoir, reportage",Via website,N/A,UK,granta.com,Via website,N/A,NO AUDIOBOOKS,TIER 1,"Granta magazine"
Atlantic Books,Traditional,London,UK,"Literary fiction, narrative nonfiction",Via website,N/A,UK,atlantic-books.co.uk,Via website,N/A,Some,Medium,"UK independent"
Oneworld Publications,Traditional,London,UK,"Literary fiction, nonfiction, translations",Via website,N/A,UK,oneworld-publications.com,Via website,N/A,NO AUDIOBOOKS,TIER 1,"Booker winners"
Legend Press,Traditional,London,UK,"Literary fiction, crime, commercial",Via website,N/A,UK,legendpress.co.uk,Via website,N/A,Unknown,High,"UK independent"
Unbound,Hybrid,London,UK,"Crowdfunded all genres",Via website,Crowdfunded,UK,unbound.com,Via website,N/A,NO AUDIOBOOKS,TIER 1,"Crowdfunding"
Eye Books,Traditional,London,UK,"Travel, adventure, memoir",Via website,N/A,UK,eye-books.com,Via website,N/A,NO AUDIOBOOKS,TIER 1,"Adventure travel"
Bradt Travel Guides,Traditional,UK,UK,"Travel guides",Via website,N/A,UK,bradtguides.com,Via website,N/A,NO AUDIOBOOKS,TIER 1,"Travel publisher"
Biteback Publishing,Traditional,London,UK,"Politics, current affairs, biography",Via website,N/A,UK,bitebackpublishing.com,Via website,N/A,NO AUDIOBOOKS,TIER 1,"UK political"
Duckworth Books,Traditional,London,UK,"Literary fiction, nonfiction, classics",Via website,N/A,UK,duckworthbooks.co.uk,Via website,N/A,NO AUDIOBOOKS,TIER 1,"Since 1898"
Michael O'Mara Books,Traditional,London,UK,"Nonfiction, puzzles, humor, biography",Via website,N/A,UK,mombooks.com,Via website,N/A,NO AUDIOBOOKS,TIER 1,"UK independent"
Quadrille,Traditional,London,UK,"Cooking, lifestyle, craft, illustrated",Via website,N/A,UK,quadrille.com,Via website,N/A,NO AUDIOBOOKS,TIER 1,"Hardie Grant"
Affirm Press,Traditional,Melbourne,Australia,"Literary fiction, nonfiction",Via website,N/A,AU,affirmpress.com.au,Via website,N/A,NO AUDIOBOOKS,TIER 1,"Australian indie"
Text Publishing,Traditional,Melbourne,Australia,"Literary fiction, nonfiction",Via website,N/A,AU,textpublishing.com.au,Via website,N/A,Some,Medium,"Australian literary"
Scribe Publications,Traditional,Melbourne,Australia,"Literary nonfiction, current affairs",Via website,N/A,AU,scribepublications.com.au,Via website,N/A,NO AUDIOBOOKS,TIER 1,"Australian indie"
Black Inc,Traditional,Melbourne,Australia,"Essays, politics, current affairs",Via website,N/A,AU,blackincbooks.com.au,Via website,N/A,NO AUDIOBOOKS,TIER 1,"Australian nonfiction"
Fremantle Press,Traditional,Fremantle WA,Australia,"Literary fiction, nonfiction, poetry",Via website,N/A,WA,fremantlepress.com.au,Via website,N/A,NO AUDIOBOOKS,TIER 1,"Western Australia"
Greystone Books,Traditional,Vancouver BC,Canada,"Nature, science, sustainability",Via website,N/A,BC,greystonebooks.com,Via website,N/A,NO AUDIOBOOKS,TIER 1,"Canadian environmental"
Douglas & McIntyre,Traditional,Vancouver BC,Canada,"BC/Canadian interest, First Nations",Via website,N/A,BC,douglas-mcintyre.com,Via website,N/A,NO AUDIOBOOKS,TIER 1,"Canadian regional"
Arsenal Pulp Press,Traditional,Vancouver BC,Canada,"LGBTQ+, cultural studies, cooking",Via website,N/A,BC,arsenalpulp.com,Via website,N/A,NO AUDIOBOOKS,TIER 1,"Canadian alternative"
Biblioasis,Traditional,Windsor ON,Canada,"Literary fiction, nonfiction, poetry",Via website,N/A,ON,biblioasis.com,Via website,N/A,NO AUDIOBOOKS,TIER 1,"Canadian literary"
Wolsak and Wynn,Traditional,Hamilton ON,Canada,"Literary fiction, poetry, essays",Via website,N/A,ON,wolsakandwynn.ca,Via website,N/A,NO AUDIOBOOKS,TIER 1,"Canadian indie"
Freehand Books,Traditional,Calgary AB,Canada,"Literary fiction",Via website,N/A,AB,freehand-books.com,Via website,N/A,NO AUDIOBOOKS,TIER 1,"Canadian literary"
NeWest Press,Traditional,Edmonton AB,Canada,"Western Canadian, literary",Via website,N/A,AB,newestpress.com,Via website,N/A,NO AUDIOBOOKS,TIER 1,"Western Canadian"
Turnstone Press,Traditional,Winnipeg MB,Canada,"Literary fiction, poetry, Manitoba",Via website,N/A,MB,turnstonepress.com,Via website,N/A,NO AUDIOBOOKS,TIER 1,"Manitoba focus"
Great Plains Publications,Traditional,Winnipeg MB,Canada,"Regional, literary, nonfiction",Via website,N/A,MB,greatplains.mb.ca,Via website,N/A,NO AUDIOBOOKS,TIER 1,"Prairies focus"
Thistledown Press,Traditional,Saskatoon SK,Canada,"Literary fiction, poetry, YA",Via website,N/A,SK,thistledownpress.com,Via website,N/A,NO AUDIOBOOKS,TIER 1,"Saskatchewan"
Goose Lane Editions,Traditional,Fredericton NB,Canada,"Literary fiction, nonfiction, poetry",Via website,N/A,NB,gooselane.com,Via website,N/A,NO AUDIOBOOKS,TIER 1,"Atlantic Canada"
Nimbus Publishing,Traditional,Halifax NS,Canada,"Atlantic Canada, children's",Via website,N/A,NS,nimbus.ca,Via website,N/A,NO AUDIOBOOKS,TIER 1,"Nova Scotia"
Breakwater Books,Traditional,St. John's NL,Canada,"Newfoundland interest",Via website,N/A,NL,breakwaterbooks.com,Via website,N/A,NO AUDIOBOOKS,TIER 1,"Newfoundland"
Second Story Press,Traditional,Toronto,Canada,"Women's issues, children's, LGBTQ+",Via website,N/A,ON,secondstorypress.ca,Via website,N/A,NO AUDIOBOOKS,TIER 1,"Women's/children's"
Orca Book Publishers,Traditional,Victoria BC,Canada,"Children's, YA, educational",Via website,N/A,BC,orcabook.com,Via website,N/A,NO AUDIOBOOKS,TIER 1,"Canadian children's"
Groundwood Books,Traditional,Toronto,Canada,"Children's, YA, literary",Via website,N/A,ON,groundwoodbooks.com,Via website,N/A,NO AUDIOBOOKS,TIER 1,"Anansi imprint"
Black Rose Writing,Traditional,Texas,USA,"Biography, memoir, business, history",Via website,N/A,TX,blackrosewriting.com,Via website,N/A,NO AUDIOBOOKS,TIER 1,"Texas indie"
Unsolicited Press,Traditional,Portland OR,USA,"Literary novels, memoirs, nonfiction",Via website,$5 fee,OR,unsolicitedpress.com,Via website,N/A,NO AUDIOBOOKS,TIER 1,"No-frills"
Blackwater Press,Traditional,West Virginia,USA,"Fiction, nonfiction, essay, memoir",Via website,N/A,WV,blackwaterpress.com,Via website,N/A,NO AUDIOBOOKS,TIER 1,"International team"
Homebound Publications,Traditional,Connecticut,USA,"Creative nonfiction, literary fiction",Via website,N/A,CT,homeboundpublications.com,Via website,N/A,NO AUDIOBOOKS,TIER 1,"Award-winning"
Amber Allen Publishing,Traditional,San Rafael CA,USA,"Personal development, inspirational",Via website,N/A,CA,amberallen.com,Via website,N/A,NO AUDIOBOOKS,TIER 1,"General audience"
Llewellyn Worldwide,Traditional,Woodbury MN,USA,"Body, mind, spirit, self-development",Via website,N/A,MN,llewellyn.com,Via website,N/A,Some,Medium,"Since 1901"
Conari Press,Traditional,Miami FL,USA,"Relationships, spirituality, self-help",Via Mango,N/A,FL,conari.com,Via Mango,N/A,NO AUDIOBOOKS,TIER 1,"Mango imprint"
Hampton Roads Publishing,Traditional,Virginia,USA,"Metaphysics, spirituality, health",Via Red Wheel,N/A,VA,redwheelweiser.com,Via Red Wheel,N/A,NO AUDIOBOOKS,TIER 1,"Red Wheel family"
New Page Books,Traditional,USA,USA,"Alternative history, unexplained, pop culture",Via Red Wheel,N/A,N/A,newpagebooks.com,Via Red Wheel,N/A,NO AUDIOBOOKS,TIER 1,"Red Wheel family"
Weiser Books,Traditional,San Francisco CA,USA,"Esoteric, occult, spirituality",Via Red Wheel,N/A,CA,redwheelweiser.com,Via Red Wheel,N/A,NO AUDIOBOOKS,TIER 1,"Red Wheel family"
Shambhala Publications,Traditional,Boulder CO,USA,"Buddhism, meditation, mindfulness",Via website,N/A,CO,shambhala.com,Via website,N/A,Some,Medium,"Eastern philosophy"
Wisdom Publications,Traditional,Somerville MA,USA,"Buddhism, meditation, spiritual",Via website,N/A,MA,wisdompubs.org,Via website,N/A,NO AUDIOBOOKS,TIER 1,"Buddhist nonprofit"
Parallax Press,Traditional,Berkeley CA,USA,"Mindfulness, Buddhism",Via website,N/A,CA,parallax.org,Via website,N/A,NO AUDIOBOOKS,TIER 1,"Thich Nhat Hanh"
Quest Books,Traditional,Wheaton IL,USA,"Spirituality, philosophy, world religions",Via website,N/A,IL,questbooks.com,Via website,N/A,NO AUDIOBOOKS,TIER 1,"Theosophical"
Monkfish Book Publishing,Traditional,Rhinebeck NY,USA,"Spirituality, psychology, wisdom",Via website,N/A,NY,monkfishpublishing.com,Via website,N/A,NO AUDIOBOOKS,TIER 1,"Independent spiritual"
Lantern Publishing & Media,Traditional,NYC,USA,"Social justice, animal rights, ethics",Via website,N/A,NYC,lanternpublishing.com,Via website,N/A,NO AUDIOBOOKS,TIER 1,"Social justice"
Inner Ocean Publishing,Traditional,Hawaii,USA,"Personal growth, spirituality",Via website,N/A,HI,innerocean.com,Via website,N/A,NO AUDIOBOOKS,TIER 1,"Hawaiian indie"
Beyond Words Publishing,Traditional,Oregon,USA,"Self-help, spirituality, children's",Via website,N/A,OR,beyondword.com,Via website,N/A,Some,Medium,"Simon & Schuster partner"
North Atlantic Books,Traditional,Berkeley CA,USA,"Alternative health, spirituality, martial arts",Via website,N/A,CA,northatlanticbooks.com,Via website,N/A,NO AUDIOBOOKS,TIER 1,"Since 1974"
Blue Star Press,Traditional,Oregon,USA,"Wellness, creativity, personal development",Via website,N/A,OR,bluestarpress.com,Via website,N/A,NO AUDIOBOOKS,TIER 1,"PRH distribution"
Microcosm Publishing,Traditional,Portland OR,USA,"DIY, zines, radical politics",Via website,N/A,OR,microcosmpublishing.com,Via website,N/A,NO AUDIOBOOKS,TIER 1,"Alternative culture"
Seal Press,Traditional,NYC,USA,"Women's issues, feminism, memoir",Via Hachette,N/A,NYC,sealpress.com,Via website,N/A,NO AUDIOBOOKS,TIER 1,"Hachette imprint"
Girl Friday Productions,Traditional,Seattle WA,USA,"Book production services, some publishing",Via website,N/A,WA,girlfridayproductions.com,Via website,N/A,NO AUDIOBOOKS,TIER 1,"Seattle indie"
Girl Friday Books,Traditional,Seattle WA,USA,"Fiction and nonfiction, diverse",Via website,N/A,WA,girlfridaybooks.com,Via website,N/A,NO AUDIOBOOKS,TIER 1,"Seattle imprint"
SparkPress,Hybrid,USA,USA,"Women's fiction, memoir",Via website,N/A,N/A,gosparkpress.com,Via website,N/A,NO AUDIOBOOKS,TIER 1,"She Writes sister"
Mandala Publishing,Traditional,San Rafael CA,USA,"Illustrated books, mindfulness, children's",Via website,N/A,CA,mandalapublishing.com,Via website,N/A,NO AUDIOBOOKS,TIER 1,"Insight Editions sister"
Redleaf Press,Traditional,St. Paul MN,USA,"Early childhood education",Via website,N/A,MN,redleafpress.org,Via website,N/A,NO AUDIOBOOKS,TIER 1,"ECE specialist"
Gryphon House,Traditional,USA,USA,"Early childhood education",Via website,N/A,N/A,gryphonhouse.com,Via website,N/A,NO AUDIOBOOKS,TIER 1,"ECE publisher"
Free Spirit Publishing,Traditional,Minneapolis MN,USA,"Children's self-help, education",Via website,N/A,MN,freespirit.com,Via website,N/A,NO AUDIOBOOKS,TIER 1,"Kids self-help"
Magination Press,Traditional,Washington DC,USA,"Children's mental health",Via website,N/A,DC,maginationpress.org,Via website,N/A,NO AUDIOBOOKS,TIER 1,"APA imprint"
Albert Whitman,Traditional,Park Ridge IL,USA,"Children's picture books, chapter books",Via website,N/A,IL,albertwhitman.com,Via website,N/A,NO AUDIOBOOKS,TIER 1,"Since 1919"
Peachtree Publishing,Traditional,Atlanta GA,USA,"Children's and YA",Via website,N/A,GA,peachtreebooks.com,Via website,N/A,NO AUDIOBOOKS,TIER 1,"SE regional"
Familius,Traditional,USA,USA,"Family, parenting, children's",Via website,N/A,N/A,familius.com,Via website,N/A,NO AUDIOBOOKS,TIER 1,"Family focus"
Page Turner Press and Media,Traditional,USA,USA,"Fiction and nonfiction",Via website,N/A,N/A,pageturnerpresspublishing.com,Via website,N/A,NO AUDIOBOOKS,TIER 1,"Diverse genres"
Palmetto Publishing,Hybrid,South Carolina,USA,"All genres",Via website,N/A,SC,palmettopublishing.com,Via website,N/A,NO AUDIOBOOKS,TIER 1,"Southern hybrid"
Mascot Books,Hybrid,Herndon VA,USA,"Children's, sports, memoir",Via website,N/A,VA,mascotbooks.com,Via website,N/A,NO AUDIOBOOKS,TIER 1,"Amplify imprint"
BookBaby,Self-Publishing,USA,USA,"All genres",Via website,N/A,N/A,bookbaby.com,Via website,Unlimited,Author choice,Medium,"Self-pub services"
IngramSpark,Self-Publishing,USA,USA,"All genres",Via website,N/A,N/A,ingramspark.com,Via website,Unlimited,Author choice,Medium,"Self-pub distribution"
Regal House Publishing,Traditional,North Carolina,USA,"Literary fiction, narrative nonfiction",Via website,N/A,NC,regalhousepublishing.com,Via website,N/A,NO AUDIOBOOKS,TIER 1,"NC literary"
Regal Publishing,Traditional,USA,USA,"Fiction and nonfiction",Via website,N/A,N/A,regalpublishing.com,Via website,N/A,NO AUDIOBOOKS,TIER 1,"Independent"
Atmosphere Press,Hybrid,USA,USA,"Fiction and nonfiction",Via website,N/A,N/A,atmospherepress.com,Via website,N/A,NO AUDIOBOOKS,TIER 1,"Hybrid model"
Adelaide Books,Traditional,NYC,USA,"Literary fiction, memoirs, creative nonfiction",Via website,N/A,NYC,adelaidebooks.org,Via website,N/A,NO AUDIOBOOKS,TIER 1,"NYC literary"
Alternative Book Press,Traditional,USA,USA,"Fiction and nonfiction",Via website,N/A,N/A,alternativebookpress.com,Via website,N/A,NO AUDIOBOOKS,TIER 1,"Alternative culture"
Assure Press,Traditional,USA,USA,"Poetry, fiction, nonfiction",Via website,N/A,N/A,assurepress.com,Via website,N/A,NO AUDIOBOOKS,TIER 1,"Literary indie"
The 87 Press,Traditional,USA,USA,"Poetry, fiction, nonfiction, underrepresented",Via website,N/A,N/A,the87press.com,Via website,N/A,NO AUDIOBOOKS,TIER 1,"Diverse voices"
11:11 Press,Traditional,Minneapolis MN,USA,"Innovative literature",Via website,N/A,MN,1111press.com,Via website,N/A,NO AUDIOBOOKS,TIER 1,"Since 2018"
Jaded Ibis Press,Traditional,USA,USA,"Social justice fiction and nonfiction",Via website,N/A,N/A,jadedibispress.com,Via website,N/A,NO AUDIOBOOKS,TIER 1,"Social justice"
Clash Books,Traditional,USA,USA,"Fiction, nonfiction, poetry",Via website,N/A,N/A,clashbooks.com,Via website,N/A,NO AUDIOBOOKS,TIER 1,"Since 2015"
Dalkey Archive Press,Nonprofit,USA,USA,"Avant-garde literature, translations",Via website,N/A,N/A,dalkeyarchive.com,Via website,N/A,NO AUDIOBOOKS,TIER 1,"Nonprofit literary"
Creative Texts Publishers,Traditional,USA,USA,"History, biography, nonfiction",Via website,N/A,N/A,creativetexts.com,Via website,N/A,NO AUDIOBOOKS,TIER 1,"History focus"
Texas Review Press,Academic,Texas,USA,"Poetry, fiction",Via website,N/A,TX,texasreviewpress.org,Via website,N/A,NO AUDIOBOOKS,TIER 1,"Sam Houston State"
Wesleyan University Press,Academic,Connecticut,USA,"Poetry, music, dance",Via website,N/A,CT,wesleyan.edu/wespress,Via website,N/A,NO AUDIOBOOKS,TIER 1,"Since 1957"
Woodhall Press,Traditional,Connecticut,USA,"Poetry, fiction, nonfiction",Via website,N/A,CT,woodhallpress.com,Via website,N/A,NO AUDIOBOOKS,TIER 1,"Women/underrepresented"
Tiny Ghost Press,Traditional,USA,USA,"YA LGBTQIA+ fiction",Via website,N/A,N/A,tinyghostpress.com,Via website,N/A,NO AUDIOBOOKS,TIER 1,"LGBTQ+ YA"
Dzanc Books,Nonprofit,Michigan,USA,"Literary fiction and nonfiction",Via website,N/A,MI,dzancbooks.org,Via website,N/A,NO AUDIOBOOKS,TIER 1,"Since 2006"
Ugly Duckling Presse,Nonprofit,Brooklyn NY,USA,"Poetry, translation, experimental",Via website,N/A,NY,uglyducklingpresse.org,Via website,N/A,NO AUDIOBOOKS,TIER 1,"Nonprofit press"
Akashic Books Noir Series,Traditional,Brooklyn NY,USA,"Noir anthologies, crime fiction",Via website,N/A,NY,akashicbooks.com,Via website,N/A,NO AUDIOBOOKS,TIER 1,"City noir series"
Soho Crime,Traditional,NYC,USA,"International crime fiction",Via website,N/A,NYC,sohopress.com,Via website,N/A,Some,Medium,"Soho imprint"
Poisoned Pen Press,Traditional,USA,USA,"Mystery, crime fiction",Via website,N/A,N/A,poisonedpenpress.com,Via website,N/A,Some,Medium,"Sourcebooks imprint"
Midnight Ink,Traditional,Minnesota,USA,"Mystery, crime fiction",Via website,N/A,MN,midnightinkbooks.com,Via website,N/A,NO AUDIOBOOKS,TIER 1,"Llewellyn imprint"
Oceanview Publishing,Traditional,Florida,USA,"Mystery, thriller",Via website,N/A,FL,oceanviewpub.com,Via website,N/A,Some,Medium,"Mystery specialist"
Seventh Street Books,Traditional,USA,USA,"Crime fiction",Via website,N/A,N/A,seventhstreetbooks.com,Via website,N/A,NO AUDIOBOOKS,TIER 1,"Start Media"
Down & Out Books,Traditional,USA,USA,"Crime fiction, noir",Via website,N/A,N/A,downandoutbooks.com,Via website,N/A,NO AUDIOBOOKS,TIER 1,"Crime specialist"
Polis Books,Traditional,USA,USA,"Crime, thriller, mystery",Via website,N/A,N/A,polisbooks.com,Via website,N/A,NO AUDIOBOOKS,TIER 1,"Crime/thriller"
Shotgun Honey,Traditional,USA,USA,"Crime fiction, noir",Via website,N/A,N/A,shotgunhoney.com,Via website,N/A,NO AUDIOBOOKS,TIER 1,"Noir specialist"
All Due Respect Books,Traditional,USA,USA,"Noir, crime fiction",Via website,N/A,N/A,allduerespecthbooks.com,Via website,N/A,NO AUDIOBOOKS,TIER 1,"Down & Out imprint"
Dark House Press,Traditional,USA,USA,"Horror, crime, dark fiction",Via website,N/A,N/A,darkhousepress.com,Via website,N/A,NO AUDIOBOOKS,TIER 1,"Dark fiction"
Pandamoon Publishing,Traditional,USA,USA,"Fiction and nonfiction",Via website,N/A,N/A,pandamoonpublishing.com,Via website,N/A,NO AUDIOBOOKS,TIER 1,"Indie publisher"
Vesuvian Books,Traditional,USA,USA,"Fiction and nonfiction",Via website,N/A,N/A,vesuvianmedia.com,Via website,N/A,NO AUDIOBOOKS,TIER 1,"Vesuvian Media"
Snowy Owl Press,Traditional,USA,USA,"Fiction and nonfiction",Via website,N/A,N/A,snowyowlpress.com,Via website,N/A,NO AUDIOBOOKS,TIER 1,"Indie publisher"
Owl Hollow Press,Traditional,USA,USA,"MG and YA fiction",Via website,N/A,N/A,owlhollowpress.com,Via website,N/A,NO AUDIOBOOKS,TIER 1,"Children's/YA"
Wise Ink Creative Publishing,Hybrid,Minneapolis MN,USA,"Fiction and nonfiction",Via website,N/A,MN,wiseink.com,Via website,N/A,NO AUDIOBOOKS,TIER 1,"MN hybrid"
Black Lawrence Press,Traditional,Pittsburgh PA,USA,"Poetry, fiction, nonfiction",Via website,N/A,PA,blacklawrencepress.com,Via website,N/A,NO AUDIOBOOKS,TIER 1,"Literary indie"
Tupelo Press,Nonprofit,Massachusetts,USA,"Poetry, fiction",Via website,N/A,MA,tupelopress.org,Via website,N/A,NO AUDIOBOOKS,TIER 1,"Nonprofit poetry"
Sarabande Books,Nonprofit,Louisville KY,USA,"Poetry, fiction, essays",Via website,N/A,KY,sarabandebooks.org,Via website,N/A,NO AUDIOBOOKS,TIER 1,"Since 1994"
Persea Books,Traditional,NYC,USA,"Poetry, literary fiction, essays",Via website,N/A,NYC,perseabooks.com,Via website,N/A,NO AUDIOBOOKS,TIER 1,"Literary indie"
Alice James Books,Nonprofit,Maine,USA,"Poetry",Via website,N/A,ME,alicejamesbooks.org,Via website,N/A,NO AUDIOBOOKS,TIER 1,"Poetry cooperative"
Red Hen Press,Traditional,Pasadena CA,USA,"Poetry, fiction, nonfiction",Via website,N/A,CA,redhen.org,Via website,N/A,NO AUDIOBOOKS,TIER 1,"Since 1994"
Omnidawn,Traditional,California,USA,"Poetry, fiction",Via website,N/A,CA,omnidawn.com,Via website,N/A,NO AUDIOBOOKS,TIER 1,"Innovative writing"
Action Books,Traditional,Indiana,USA,"Poetry, translation",Via website,N/A,IN,actionbooks.org,Via website,N/A,NO AUDIOBOOKS,TIER 1,"Poetry in translation"
Ahsahta Press,Academic,Idaho,USA,"Poetry",Via website,N/A,ID,ahsahtapress.org,Via website,N/A,NO AUDIOBOOKS,TIER 1,"Boise State"
Anhinga Press,Traditional,Florida,USA,"Poetry",Via website,N/A,FL,anhingapress.org,Via website,N/A,NO AUDIOBOOKS,TIER 1,"Since 1974"
Barrow Street Press,Traditional,NYC,USA,"Poetry",Via website,N/A,NYC,barrowstreet.org,Via website,N/A,NO AUDIOBOOKS,TIER 1,"Poetry press"
Belle Point Press,Traditional,Arkansas,USA,"Poetry, fiction, literary",Via website,N/A,AR,bellepointpress.com,Via website,N/A,NO AUDIOBOOKS,TIER 1,"Arkansas indie"
BkMk Press,Academic,Missouri,USA,"Poetry, fiction",Via website,N/A,MO,newletters.org/bkmkpress,Via website,N/A,NO AUDIOBOOKS,TIER 1,"UMKC press"
Broadstone Books,Traditional,Kentucky,USA,"Poetry",Via website,N/A,KY,broadstonebooks.com,Via website,N/A,NO AUDIOBOOKS,TIER 1,"Poetry press"
C&R Press,Traditional,USA,USA,"Poetry, fiction, nonfiction",Via website,N/A,N/A,crpress.org,Via website,N/A,NO AUDIOBOOKS,TIER 1,"Literary indie"
Carnegie Mellon University Press,Academic,Pittsburgh PA,USA,"Poetry, fiction",Via website,N/A,PA,cmu.edu/universitypress,Via website,N/A,NO AUDIOBOOKS,TIER 1,"Academic poetry"
Curbstone Books,Traditional,Illinois,USA,"Poetry, fiction, nonfiction",Via website,N/A,IL,curbstone.org,Via website,N/A,NO AUDIOBOOKS,TIER 1,"Northwestern imprint"
Diode Editions,Traditional,USA,USA,"Poetry",Via website,N/A,N/A,diodeeditions.com,Via website,N/A,NO AUDIOBOOKS,TIER 1,"Poetry press"
Etruscan Press,Traditional,Ohio,USA,"Poetry, fiction, nonfiction",Via website,N/A,OH,etruscanpress.org,Via website,N/A,NO AUDIOBOOKS,TIER 1,"Literary indie"
Eyewear Publishing,Traditional,UK,UK,"Poetry, fiction",Via website,N/A,UK,eyewearpublishing.com,Via website,N/A,NO AUDIOBOOKS,TIER 1,"UK poetry"
Finishing Line Press,Traditional,Kentucky,USA,"Poetry chapbooks and full-length",Via website,N/A,KY,finishinglinepress.com,Via website,N/A,NO AUDIOBOOKS,TIER 1,"Poetry chapbooks"
Graywolf Poetry,Nonprofit,Minneapolis MN,USA,"Poetry",Via Graywolf,N/A,MN,graywolfpress.org,Via Graywolf,N/A,NO AUDIOBOOKS,TIER 1,"Graywolf imprint"
Kaya Press,Traditional,Los Angeles CA,USA,"Asian diaspora literature",Via website,N/A,CA,kaya.com,Via website,N/A,NO AUDIOBOOKS,TIER 1,"Asian diasporic"
Kelsey Street Press,Nonprofit,California,USA,"Women's innovative writing",Via website,N/A,CA,kelseystreetpress.org,Via website,N/A,NO AUDIOBOOKS,TIER 1,"Women's press"
Les Figues Press,Nonprofit,Los Angeles CA,USA,"Experimental literature",Via website,N/A,CA,lesfigues.com,Via website,N/A,NO AUDIOBOOKS,TIER 1,"Experimental"
Litmus Press,Nonprofit,Brooklyn NY,USA,"Poetry, translations",Via website,N/A,NY,litmuspress.org,Via website,N/A,NO AUDIOBOOKS,TIER 1,"Poetry translations"
LSU Press,Academic,Louisiana,USA,"Poetry, fiction, Southern",Via website,N/A,LA,lsupress.org,Via website,N/A,NO AUDIOBOOKS,TIER 1,"Louisiana State"
Lynx House Press,Traditional,Washington,USA,"Poetry",Via website,N/A,WA,lynxhousepress.com,Via website,N/A,NO AUDIOBOOKS,TIER 1,"Poetry press"
Marick Press,Traditional,Michigan,USA,"Poetry",Via website,N/A,MI,marickpress.com,Via website,N/A,NO AUDIOBOOKS,TIER 1,"Poetry press"
Measure Press,Traditional,USA,USA,"Poetry",Via website,N/A,N/A,measurepress.com,Via website,N/A,NO AUDIOBOOKS,TIER 1,"Poetry press"
Milkweed Poetry,Nonprofit,Minneapolis MN,USA,"Poetry",Via Milkweed,N/A,MN,milkweed.org,Via Milkweed,N/A,NO AUDIOBOOKS,TIER 1,"Milkweed imprint"
New Directions,Traditional,NYC,USA,"Poetry, fiction, translations",Via website,N/A,NYC,ndbooks.com,Via website,N/A,Some,Medium,"Classic indie"
Nightwood Editions,Traditional,Canada,Canada,"Poetry, fiction",Via website,N/A,BC,nightwoodeditions.com,Via website,N/A,NO AUDIOBOOKS,TIER 1,"Canadian poetry"
Penguin Poets,Traditional,NYC,USA,"Poetry",Via agent,N/A,NYC,penguinrandomhouse.com,Agent required,N/A,Some,Low,"PRH imprint"
Persea Poetry,Traditional,NYC,USA,"Poetry",Via website,N/A,NYC,perseabooks.com,Via website,N/A,NO AUDIOBOOKS,TIER 1,"Persea imprint"
Sixteen Rivers Press,Traditional,California,USA,"Poetry",Via website,N/A,CA,sixteenrivers.org,Via website,N/A,NO AUDIOBOOKS,TIER 1,"Poetry collective"
Spuyten Duyvil,Traditional,NYC,USA,"Poetry, fiction, essays",Via website,N/A,NYC,spuytenduyvil.net,Via website,N/A,NO AUDIOBOOKS,TIER 1,"NYC indie"
Tavern Books,Traditional,Oregon,USA,"Poetry, translations",Via website,N/A,OR,tavernbooks.org,Via website,N/A,NO AUDIOBOOKS,TIER 1,"Poetry press"
Tinderbox Editions,Traditional,USA,USA,"Poetry",Via website,N/A,N/A,tinderboxeditions.org,Via website,N/A,NO AUDIOBOOKS,TIER 1,"Poetry press"
Two Lines Press,Nonprofit,San Francisco CA,USA,"Literary translations",Via website,N/A,CA,twolinespress.com,Via website,N/A,NO AUDIOBOOKS,TIER 1,"Translations"
Word Works,Nonprofit,Washington DC,USA,"Poetry",Via website,N/A,DC,wordworksbooks.org,Via website,N/A,NO AUDIOBOOKS,TIER 1,"Since 1974"
Zephyr Press,Traditional,Massachusetts,USA,"Poetry, translations",Via website,N/A,MA,zephyrpress.org,Via website,N/A,NO AUDIOBOOKS,TIER 1,"Poetry translations"
Zone 3 Press,Academic,Tennessee,USA,"Poetry, fiction",Via website,N/A,TN,zone3press.com,Via website,N/A,NO AUDIOBOOKS,TIER 1,"Austin Peay State"
Blue River Press,Traditional,Indianapolis IN,USA,"Sports, health, fitness, education, travel",Via website,N/A,IN,blueriverpress.com,Via website,100+,NO AUDIOBOOKS,TIER 1,"Cardinal distribution"
Mountaineers Books,Traditional,Seattle WA,USA,"Outdoor adventure, climbing, hiking",Via website,N/A,WA,mountaineers.org/books,Via website,N/A,NO AUDIOBOOKS,TIER 1,"Environmental sustainability"
Lyons Press,Traditional,Connecticut,USA,"Outdoor sports, recreation",Via website,N/A,CT,lyonspress.com,Via website,N/A,Unknown,High,"40+ years experience"
Stackpole Books,Traditional,Pennsylvania,USA,"Outdoor sports, fishing, hunting",Via website,N/A,PA,stackpolebooks.com,Via website,N/A,NO AUDIOBOOKS,TIER 1,"Outdoor literature"
Wilderness Press,Traditional,Alabama,USA,"Hiking guides, outdoor enthusiasts",Via website,N/A,AL,wildernesspress.com,Via website,N/A,NO AUDIOBOOKS,TIER 1,"50+ years"
Triumph Books,Traditional,Chicago IL,USA,"Sports, NFL, NBA, MLB, NHL",Via website,N/A,IL,triumphbooks.com,Via website,N/A,Some,Medium,"Since 1989"
Fox Chapel Publishing,Traditional,Pennsylvania,USA,"Sports, outdoor, crafts, woodworking",Via website,N/A,PA,foxchapelpublishing.com,Via website,N/A,NO AUDIOBOOKS,TIER 1,"Outdoor enthusiasts"
Coaches Choice,Traditional,California,USA,"Sports coaching, athletics",Via website,N/A,CA,coacheschoice.com,Via website,N/A,NO AUDIOBOOKS,TIER 1,"Since 1997"
Phaidon Press,Traditional,UK/USA,UK/USA,"Art, design, architecture, food, photography",Via website,N/A,UK/USA,phaidon.com,Via website,N/A,Unknown,High,"Global creative arts"
TASCHEN,Traditional,Germany,Germany,"Art, architecture, design, photography",Via website,N/A,Germany,taschen.com,Via website,N/A,Unknown,High,"World's leading fine art"
Rizzoli New York,Traditional,NYC,USA,"Fashion, design, art, architecture",Via website,N/A,NYC,rizzoliusa.com,Via website,N/A,Unknown,High,"Since 1974"
Hatje Cantz,Traditional,Germany,Germany,"Photography, art, architecture, design",Via website,N/A,Germany,hatjecantz.de,Via website,N/A,NO AUDIOBOOKS,TIER 1,"Since 1945"
Prestel Publishing,Traditional,Germany/USA,Germany/USA,"Art, design, architecture, photography",Via website,N/A,Germany/USA,prestel.com,Via website,N/A,NO AUDIOBOOKS,TIER 1,"Random House since 2008"
ORO Editions,Traditional,California,USA,"Architecture, urbanism, art photography",Via website,N/A,CA,oroeditions.com,Via website,N/A,NO AUDIOBOOKS,TIER 1,"Award-winning illustrated"
Art / Books,Traditional,London,UK,"Design, photography, art, architecture",Via website,N/A,UK,artbooks.co.uk,Via website,N/A,NO AUDIOBOOKS,TIER 1,"UK independent"
Smallworks Press,Traditional,Las Vegas NV,USA,"Art, photography, design, architecture",Via website,N/A,NV,smallworkspress.com,Via website,N/A,NO AUDIOBOOKS,TIER 1,"Las Vegas indie"
Actar Publishers,Traditional,Barcelona,Spain,"Architecture, graphic design, contemporary art",Via website,N/A,Spain,actar.com,Via website,N/A,NO AUDIOBOOKS,TIER 1,"Barcelona-based"
Mrel Books,Traditional,London,UK,"Art, photography books",Via website,N/A,UK,morelbooks.com,Via website,N/A,NO AUDIOBOOKS,TIER 1,"Innovative books"
powerHouse Books,Traditional,Brooklyn NY,USA,"Art, photography, illustrated",Via website,N/A,NY,powerhousebooks.com,Via website,N/A,NO AUDIOBOOKS,TIER 1,"High-end illustrated"
Monacelli Press,Traditional,NYC,USA,"Architecture, art, design, photography",Via website,N/A,NYC,monacellipress.com,Via website,N/A,NO AUDIOBOOKS,TIER 1,"Since 1994"
ACC Art Books,Traditional,UK,UK,"Visual culture, fashion, architecture",Via website,N/A,UK,accartbooks.com,Via website,N/A,NO AUDIOBOOKS,TIER 1,"Since 1966"
Counter Print Books,Traditional,UK,UK,"Art, design books",Via website,N/A,UK,counter-print.co.uk,Via website,N/A,NO AUDIOBOOKS,TIER 1,"Indie bookshop/publisher"
Gestalten,Traditional,Berlin,Germany,"Visual culture, design, lifestyle",Via website,N/A,Germany,gestalten.com,Via website,N/A,NO AUDIOBOOKS,TIER 1,"Cutting-edge visual"
D.A.P./Artbook,Distributor,NYC,USA,"Art books distributor and publisher",Via website,N/A,NYC,artbook.com,Via website,N/A,NO AUDIOBOOKS,TIER 1,"Distributed Art Publishers"
Pendragon Press,Academic,Massachusetts,USA,"Music, musicology",Via website,N/A,MA,pendragonpress.com,Physical submissions,N/A,NO AUDIOBOOKS,TIER 1,"Music specialist"
Interlink Publishing,Traditional,Massachusetts,USA,"World culture, music, children's",Via website,N/A,MA,interlinkbooks.com,Via website,N/A,NO AUDIOBOOKS,TIER 1,"1000+ books"
Moon Travel Guides,Traditional,USA,USA,"Travel guides comprehensive",Via website,N/A,N/A,moon.com,Via website,N/A,Unknown,High,"Comprehensive guides"
Old Harbour Press,Traditional,North Carolina,USA,"Travel, cross-cultural literature",Via website,N/A,NC,oldharbourpress.com,Via website,N/A,NO AUDIOBOOKS,TIER 1,"Newly established"
Homestead Publishing,Traditional,Wyoming,USA,"Travel, hiking guides, natural history",Via website,N/A,WY,homesteadpublishing.net,Via website,N/A,NO AUDIOBOOKS,TIER 1,"Wyoming-based"
Torrey House Press,Traditional,Utah,USA,"Nature, environment, fiction/nonfiction",Via website,N/A,UT,torreyhouse.com,Via website,8-10,NO AUDIOBOOKS,TIER 1,"Salt Lake City"
TravelBrains,Traditional,New Hampshire,USA,"Self-guided audio tours, guidebooks",Via website,N/A,NH,travelbrains.com,Via website,N/A,NO AUDIOBOOKS,TIER 1,"Since 1999"
WildBlue Press,Traditional,USA,USA,"True crime, thrillers, mysteries, memoir",Via website,N/A,N/A,wildbluepress.com,Via website,250+,Yes,Medium,"NYTimes/Pulitzer authors"
Steerforth Press,Traditional,USA,USA,"Narrative nonfiction, true crime, journalism",Via website,N/A,N/A,steerforth.com,Via website,N/A,NO AUDIOBOOKS,TIER 1,"Investigative journalism"
Genius Book Publishing,Traditional,USA,USA,"True crime, dark fiction, sci-fi, thriller",Via website,N/A,N/A,geniusbookpublishing.com,Via website,N/A,NO AUDIOBOOKS,TIER 1,"Expanding press"
New Horizon Press,Traditional,USA,USA,"True crime, battles for justice, social issues",Via website,N/A,N/A,newhorizonpressbooks.com,Via website,12-14,NO AUDIOBOOKS,TIER 1,"Nonfiction focus"
Durvile Publications,Traditional,Calgary AB,Canada,"True crime, Indigenous stories, memoir",Via website,N/A,AB,durvile.com,Via website,N/A,NO AUDIOBOOKS,TIER 1,"Canadian indie"
J. Gordon Shillingford,Traditional,Winnipeg MB,Canada,"Poetry, politics, true crime, biography",Via website,N/A,MB,jgshillingford.com,Via website,10,NO AUDIOBOOKS,TIER 1,"Since 1992"
Forest Avenue Press,Traditional,Portland OR,USA,"Literary fiction, diverse voices",Via website,N/A,OR,forestavenuepress.com,Via website,N/A,NO AUDIOBOOKS,TIER 1,"BIPOC, queer focus"
Dove Christian Publishers,Traditional,USA,USA,"Christian fiction, self-help, devotionals",Via website,N/A,N/A,dovechristianpublishers.com,Via website,N/A,NO AUDIOBOOKS,TIER 1,"Christian focus"
Running Press,Traditional,Philadelphia PA,USA,"Pop culture, lifestyle, gift books",Via Hachette,N/A,PA,runningpress.com,Via Hachette,N/A,Some,Medium,"Hachette imprint"
Globe Pequot Press,Traditional,Connecticut,USA,"Travel, outdoor, regional",Via website,N/A,CT,globepequot.com,Via website,N/A,Unknown,High,"Regional specialty"
Fulcrum Publishing,Traditional,Colorado,USA,"Western culture, Native American, nature",Via website,N/A,CO,fulcrum.bookstore.ipgbook.com,Via website,N/A,NO AUDIOBOOKS,TIER 1,"Golden CO"
Johnson Books,Traditional,Colorado,USA,"Western US, outdoor, nature",Via website,N/A,CO,johnsonbooks.com,Via website,N/A,NO AUDIOBOOKS,TIER 1,"Big Earth imprint"
High Plains Press,Traditional,Wyoming,USA,"Western history, nature, cowboy poetry",Via website,N/A,WY,highplainspress.com,Via website,N/A,NO AUDIOBOOKS,TIER 1,"Wyoming focus"
Filter Press,Traditional,Colorado,USA,"Western Americana, Colorado history",Via website,N/A,CO,filterpressbooks.com,Via website,N/A,NO AUDIOBOOKS,TIER 1,"Since 1955"
Two Dot (Globe Pequot),Traditional,Connecticut,USA,"Western history, true tales",Via website,N/A,CT,rowman.com/twodot,Via website,N/A,NO AUDIOBOOKS,TIER 1,"Western Americana"
Mountain Press Publishing,Traditional,Montana,USA,"Natural history, geology, outdoors",Via website,N/A,MT,mountain-press.com,Via website,N/A,NO AUDIOBOOKS,TIER 1,"Since 1948"
Farcountry Press,Traditional,Montana,USA,"Regional photo books, nature, history",Via website,N/A,MT,farcountrypress.com,Via website,N/A,NO AUDIOBOOKS,TIER 1,"Montana focus"
Riverbend Publishing,Traditional,Montana,USA,"Montana history, outdoor, nature",Via website,N/A,MT,riverbendpublishing.com,Via website,N/A,NO AUDIOBOOKS,TIER 1,"Helena MT"
Hancock House Publishers,Traditional,Washington/Canada,USA/Canada,"Natural history, Pacific Northwest, birds",Via website,N/A,WA/BC,hancockhouse.com,Via website,N/A,NO AUDIOBOOKS,TIER 1,"1971 established"
Ooligan Press,Academic,Portland OR,USA,"Pacific NW interest, literary",Via website,N/A,OR,ooliganpress.pdx.edu,Via website,N/A,NO AUDIOBOOKS,TIER 1,"PSU student-run"
Caxton Press,Traditional,Idaho,USA,"Western history, outdoor, regional",Via website,N/A,ID,caxtonpress.com,Via website,N/A,NO AUDIOBOOKS,TIER 1,"Idaho's oldest"
University of New Mexico Press,Academic,Albuquerque NM,USA,"Southwest, Native American, Western",Via website,N/A,NM,unmpress.com,Via website,N/A,NO AUDIOBOOKS,TIER 1,"Southwest specialty"
University of Arizona Press,Academic,Tucson AZ,USA,"Southwest, Latin American, Indigenous",Via website,N/A,AZ,uapress.arizona.edu,Via website,N/A,Unknown,High,"Regional academic"
University of Oklahoma Press,Academic,Norman OK,USA,"Western history, Native American",Via website,N/A,OK,oupress.com,Via website,N/A,Unknown,High,"Native American specialty"
Texas Tech University Press,Academic,Lubbock TX,USA,"Western history, natural history, Texas",Via website,N/A,TX,ttupress.org,Via website,N/A,NO AUDIOBOOKS,TIER 1,"Texas focus"
University of North Texas Press,Academic,Denton TX,USA,"Texas, Western, military history",Via website,N/A,TX,untpress.unt.edu,Via website,N/A,NO AUDIOBOOKS,TIER 1,"Texas regional"
Texas A&M University Press,Academic,College Station TX,USA,"Texas, Southern, military, agriculture",Via website,N/A,TX,tamupress.com,Via website,N/A,Unknown,High,"Texas scholarly"
Southern Methodist University Press,Academic,Dallas TX,USA,"Texas, Southwest, ethics, religion",Via website,N/A,TX,smupress.com,Via website,N/A,NO AUDIOBOOKS,TIER 1,"Dallas academic"
TCU Press,Academic,Fort Worth TX,USA,"Texas, Western, biography",Via website,N/A,TX,prs.tcu.edu,Via website,N/A,NO AUDIOBOOKS,TIER 1,"Texas Christian"
University of Nevada Press,Academic,Reno NV,USA,"Western history, Basque studies",Via website,N/A,NV,unpress.nevada.edu,Via website,N/A,NO AUDIOBOOKS,TIER 1,"Nevada/Basque"
University of Utah Press,Academic,Salt Lake City UT,USA,"Western history, anthropology, archaeology",Via website,N/A,UT,uofupress.com,Via website,N/A,NO AUDIOBOOKS,TIER 1,"Utah regional"
Utah State University Press,Academic,Logan UT,USA,"Western, folklore, composition studies",Via website,N/A,UT,usupressacademic.com,Via website,N/A,NO AUDIOBOOKS,TIER 1,"Utah scholarly"
University Press of Colorado,Academic,Louisville CO,USA,"Western history, archaeology, Native American",Via website,N/A,CO,upcolorado.com,Via website,N/A,NO AUDIOBOOKS,TIER 1,"Colorado academic"
Washington State University Press,Academic,Pullman WA,USA,"Pacific NW, Western history",Via website,N/A,WA,wsupress.wsu.edu,Via website,N/A,NO AUDIOBOOKS,TIER 1,"Pacific NW focus"
Oregon State University Press,Academic,Corvallis OR,USA,"Pacific NW, natural history, science",Via website,N/A,OR,osupress.oregonstate.edu,Via website,N/A,NO AUDIOBOOKS,TIER 1,"Oregon scholarly"
University of Idaho Press,Academic,Moscow ID,USA,"Idaho, Pacific NW, Western",Via website,N/A,ID,uidahopress.org,Via website,N/A,NO AUDIOBOOKS,TIER 1,"Idaho regional"
Boise State University Press,Academic,Boise ID,USA,"Idaho, Western, literary",Via website,N/A,ID,boisestate.edu/english/ahsahta,Via website,N/A,NO AUDIOBOOKS,TIER 1,"Idaho literary"
University of Montana Press,Academic,Missoula MT,USA,"Montana, Western, Native American",Via website,N/A,MT,umt.edu/mansfield/umpress,Via website,N/A,NO AUDIOBOOKS,TIER 1,"Montana regional"
Montana Historical Society Press,Traditional,Helena MT,USA,"Montana history",Via website,N/A,MT,mhs.mt.gov/Press,Via website,N/A,NO AUDIOBOOKS,TIER 1,"State history"
South Dakota State Historical Society,Traditional,Pierre SD,USA,"South Dakota history",Via website,N/A,SD,sdhspress.com,Via website,N/A,NO AUDIOBOOKS,TIER 1,"State history"
State Historical Society of North Dakota,Traditional,Bismarck ND,USA,"North Dakota history",Via website,N/A,ND,history.nd.gov/publications,Via website,N/A,NO AUDIOBOOKS,TIER 1,"State history"
Kansas Historical Society,Traditional,Topeka KS,USA,"Kansas history",Via website,N/A,KS,kshs.org/publications,Via website,N/A,NO AUDIOBOOKS,TIER 1,"State history"
University Press of Kansas,Academic,Lawrence KS,USA,"American history, politics, military",Via website,N/A,KS,kansaspress.ku.edu,Via website,N/A,Unknown,High,"Kansas scholarly"
University of Iowa Press,Academic,Iowa City IA,USA,"Creative nonfiction, literary, regional",Via website,N/A,IA,uipress.uiowa.edu,Via website,N/A,NO AUDIOBOOKS,TIER 1,"Iowa literary"
University of Minnesota Press,Academic,Minneapolis MN,USA,"Cultural studies, politics, literary",Via website,N/A,MN,upress.umn.edu,Via website,N/A,Unknown,High,"Minnesota scholarly"
University of Wisconsin Press,Academic,Madison WI,USA,"Humanities, social sciences, regional",Via website,N/A,WI,uwpress.wisc.edu,Via website,N/A,Unknown,High,"Wisconsin scholarly"
Northwestern University Press,Academic,Evanston IL,USA,"Literary studies, philosophy, theater",Via website,N/A,IL,nupress.northwestern.edu,Via website,N/A,Unknown,High,"Chicago area"
Southern Illinois University Press,Academic,Carbondale IL,USA,"Rhetoric, Lincoln studies, regional",Via website,N/A,IL,siupress.com,Via website,N/A,NO AUDIOBOOKS,TIER 1,"Illinois scholarly"
University of Illinois Press,Academic,Urbana IL,USA,"American history, music, labor studies",Via website,N/A,IL,press.uillinois.edu,Via website,N/A,Unknown,High,"Illinois scholarly"
Indiana University Press,Academic,Bloomington IN,USA,"Humanities, social sciences, Middle East",Via website,N/A,IN,iupress.org,Via website,N/A,Unknown,High,"Indiana scholarly"
Purdue University Press,Academic,West Lafayette IN,USA,"Engineering, technology, Jewish studies",Via website,N/A,IN,press.purdue.edu,Via website,N/A,NO AUDIOBOOKS,TIER 1,"Purdue scholarly"
Wayne State University Press,Academic,Detroit MI,USA,"Detroit, labor, fairy tales, Jewish studies",Via website,N/A,MI,wsupress.wayne.edu,Via website,N/A,NO AUDIOBOOKS,TIER 1,"Detroit focus"
Michigan State University Press,Academic,East Lansing MI,USA,"Rhetoric, Great Lakes, Native American",Via website,N/A,MI,msupress.org,Via website,N/A,NO AUDIOBOOKS,TIER 1,"MSU scholarly"
Kent State University Press,Academic,Kent OH,USA,"Civil War, Ohio, fashion studies",Via website,N/A,OH,kentstateuniversitypress.com,Via website,N/A,NO AUDIOBOOKS,TIER 1,"Ohio scholarly"
Ohio University Press,Academic,Athens OH,USA,"Appalachia, Southeast Asian studies",Via website,N/A,OH,ohioswallow.com,Via website,N/A,NO AUDIOBOOKS,TIER 1,"Ohio/Appalachia"
University of Akron Press,Academic,Akron OH,USA,"Poetry, Ohio history, technology",Via website,N/A,OH,uakron.edu/uapress,Via website,N/A,NO AUDIOBOOKS,TIER 1,"Akron scholarly"
University of Pittsburgh Press,Academic,Pittsburgh PA,USA,"History of science, Latin American, poetry",Via website,N/A,PA,upress.pitt.edu,Via website,N/A,Unknown,High,"Pittsburgh scholarly"
Penn State University Press,Academic,University Park PA,USA,"Art history, philosophy, regional",Via website,N/A,PA,psupress.org,Via website,N/A,Unknown,High,"Penn State scholarly"
Temple University Press,Academic,Philadelphia PA,USA,"Urban studies, labor, African American",Via website,N/A,PA,tupress.temple.edu,Via website,N/A,NO AUDIOBOOKS,TIER 1,"Philadelphia focus"
Bucknell University Press,Academic,Lewisburg PA,USA,"Literary studies, Latin American",Via website,N/A,PA,bucknelluniversitypress.org,Via website,N/A,NO AUDIOBOOKS,TIER 1,"Literary scholarly"
Lehigh University Press,Academic,Bethlehem PA,USA,"Literary criticism, history of ideas",Via website,N/A,PA,lupress.cas.lehigh.edu,Via website,N/A,NO AUDIOBOOKS,TIER 1,"Lehigh scholarly"
University of Delaware Press,Academic,Newark DE,USA,"Early modern studies, literary",Via website,N/A,DE,udpress.udel.edu,Via website,N/A,NO AUDIOBOOKS,TIER 1,"Delaware scholarly"
Rutgers University Press,Academic,New Brunswick NJ,USA,"American studies, media, health",Via website,N/A,NJ,rutgersuniversitypress.org,Via website,N/A,Unknown,High,"New Jersey scholarly"
State University of New York Press,Academic,Albany NY,USA,"Philosophy, Asian studies, political theory",Via website,N/A,NY,sunypress.edu,Via website,N/A,Unknown,High,"SUNY scholarly"
Syracuse University Press,Academic,Syracuse NY,USA,"Middle East, Irish studies, television",Via website,N/A,NY,syracuseuniversitypress.syr.edu,Via website,N/A,NO AUDIOBOOKS,TIER 1,"Syracuse scholarly"
University at Buffalo Press,Academic,Buffalo NY,USA,"Regional interest, Great Lakes",Via website,N/A,NY,ubpress.buffalo.edu,Via website,N/A,NO AUDIOBOOKS,TIER 1,"Buffalo regional"
State University of New York Brockport,Academic,Brockport NY,USA,"Poetry",Via website,N/A,NY,boa.brockport.edu,Via website,N/A,NO AUDIOBOOKS,TIER 1,"Poetry press"
University Press of New England,Academic,Lebanon NH,USA,"New England regional, literary",Via website,N/A,NH,upne.com,Via website,N/A,NO AUDIOBOOKS,TIER 1,"New England focus"
University of Massachusetts Press,Academic,Amherst MA,USA,"American studies, regional, architecture",Via website,N/A,MA,umass.edu/umpress,Via website,N/A,NO AUDIOBOOKS,TIER 1,"Massachusetts scholarly"
University of Connecticut Press,Academic,Storrs CT,USA,"Connecticut history, regional",Via website,N/A,CT,uconn.edu/press,Via website,N/A,NO AUDIOBOOKS,TIER 1,"Connecticut regional"
University of Vermont Press,Academic,Burlington VT,USA,"Vermont history, regional",Via website,N/A,VT,uvm.edu/press,Via website,N/A,NO AUDIOBOOKS,TIER 1,"Vermont regional"
University of Maine Press,Academic,Orono ME,USA,"Maine, New England, Canadian border",Via website,N/A,ME,umaine.edu/umpress,Via website,N/A,NO AUDIOBOOKS,TIER 1,"Maine regional"
University Press of Florida,Academic,Gainesville FL,USA,"Florida, Caribbean, Latin American",Via website,N/A,FL,upf.com,Via website,N/A,Unknown,High,"Florida scholarly"
University of Georgia Press,Academic,Athens GA,USA,"Southern history, literature, nature",Via website,N/A,GA,ugapress.org,Via website,N/A,Unknown,High,"Georgia scholarly"
University Press of Mississippi,Academic,Jackson MS,USA,"Southern culture, American studies, film",Via website,N/A,MS,upress.state.ms.us,Via website,N/A,NO AUDIOBOOKS,TIER 1,"Mississippi scholarly"
Louisiana State University Press,Academic,Baton Rouge LA,USA,"Southern history, literature, Civil War",Via website,N/A,LA,lsupress.org,Via website,N/A,Unknown,High,"Louisiana scholarly"
University of Alabama Press,Academic,Tuscaloosa AL,USA,"Southern history, military, rhetoric",Via website,N/A,AL,uapress.ua.edu,Via website,N/A,Unknown,High,"Alabama scholarly"
University of Tennessee Press,Academic,Knoxville TN,USA,"Appalachia, Civil War, material culture",Via website,N/A,TN,utpress.org,Via website,N/A,NO AUDIOBOOKS,TIER 1,"Tennessee scholarly"
Vanderbilt University Press,Academic,Nashville TN,USA,"Health policy, education, Latin American",Via website,N/A,TN,vanderbiltuniversitypress.com,Via website,N/A,NO AUDIOBOOKS,TIER 1,"Nashville scholarly"
University of Kentucky Press,Academic,Lexington KY,USA,"Appalachia, Civil War, military",Via website,N/A,KY,kentuckypress.com,Via website,N/A,Unknown,High,"Kentucky scholarly"
West Virginia University Press,Academic,Morgantown WV,USA,"Appalachia, Civil War, regional",Via website,N/A,WV,wvupress.com,Via website,N/A,NO AUDIOBOOKS,TIER 1,"Appalachian focus"
University of Virginia Press,Academic,Charlottesville VA,USA,"American history, architecture, literature",Via website,N/A,VA,upress.virginia.edu,Via website,N/A,Unknown,High,"Virginia scholarly"
University of North Carolina Press,Academic,Chapel Hill NC,USA,"Southern history, Latin American, nature",Via website,N/A,NC,uncpress.org,Via website,N/A,Unknown,High,"UNC scholarly"
University of South Carolina Press,Academic,Columbia SC,USA,"Southern history, military, regional",Via website,N/A,SC,sc.edu/uscpress,Via website,N/A,NO AUDIOBOOKS,TIER 1,"South Carolina scholarly"
Blair Publishing,Traditional,Durham NC,USA,"Southern literature, memoir, essays",Via website,N/A,NC,blairpublisher.com,Via website,N/A,NO AUDIOBOOKS,TIER 1,"Durham NC"
Lookout Books,Academic,Wilmington NC,USA,"Literary fiction, creative nonfiction",Via website,N/A,NC,lookoutbooks.com,Via website,N/A,NO AUDIOBOOKS,TIER 1,"UNCW Press"
Queen's Ferry Press,Traditional,USA,USA,"Short fiction, novellas",Via website,N/A,N/A,queensferrypress.com,Via website,N/A,NO AUDIOBOOKS,TIER 1,"Short fiction"
Press 53,Traditional,North Carolina,USA,"Poetry, short fiction",Via website,N/A,NC,press53.com,Via website,N/A,NO AUDIOBOOKS,TIER 1,"NC literary"
Main Street Rag,Traditional,North Carolina,USA,"Poetry",Via website,N/A,NC,mainstreetrag.com,Via website,N/A,NO AUDIOBOOKS,TIER 1,"NC poetry"
Mercer University Press,Academic,Macon GA,USA,"Southern history, religion, poetry",Via website,N/A,GA,mupress.org,Via website,N/A,NO AUDIOBOOKS,TIER 1,"Georgia scholarly"
NewSouth Books,Traditional,Montgomery AL,USA,"Southern history, civil rights, regional",Via website,N/A,AL,newsouthbooks.com,Via website,N/A,NO AUDIOBOOKS,TIER 1,"Alabama indie"
Pelican Publishing,Traditional,Gretna LA,USA,"Louisiana, Southern, travel, children's",Via website,N/A,LA,pelicanpub.com,Via website,N/A,NO AUDIOBOOKS,TIER 1,"Louisiana focus"
Pineapple Press,Traditional,Florida,USA,"Florida history, nature, children's",Via website,N/A,FL,pineapplepress.com,Via website,N/A,NO AUDIOBOOKS,TIER 1,"Florida specialty"
Sager Group,Traditional,USA,USA,"Fiction, nonfiction, memoir",Via website,N/A,N/A,thesagergroup.net,Via website,N/A,NO AUDIOBOOKS,TIER 1,"Indie publisher"
Open Road Media,Traditional,NYC,USA,"Digital publishing, backlist, literary",Via website,N/A,NYC,openroadmedia.com,Via website,N/A,Some,Medium,"Digital specialist"
Rosetta Books,Traditional,NYC,USA,"Digital publishing, backlist ebooks",Via website,N/A,NYC,rosettabooks.com,Via website,N/A,Unknown,High,"Digital backlist"
Diversion Books,Traditional,NYC,USA,"Commercial fiction, nonfiction",Via website,N/A,NYC,diversionbooks.com,Via website,N/A,Unknown,High,"Digital/print"
Lake Union Publishing,Traditional,Seattle WA,USA,"Fiction, memoir, women's",Via Amazon,N/A,WA,amazon.com/lakeunion,Amazon Publishing,N/A,Yes,Low,"Amazon imprint"
Thomas & Mercer,Traditional,Seattle WA,USA,"Mystery, thriller, suspense",Via Amazon,N/A,WA,amazon.com/thomasmercer,Amazon Publishing,N/A,Yes,Low,"Amazon imprint"
Montlake,Traditional,Seattle WA,USA,"Romance",Via Amazon,N/A,WA,amazon.com/montlake,Amazon Publishing,N/A,Yes,Low,"Amazon romance"
47North,Traditional,Seattle WA,USA,"Sci-fi, fantasy, horror",Via Amazon,N/A,WA,amazon.com/47north,Amazon Publishing,N/A,Yes,Low,"Amazon SFF"
Little A,Traditional,Seattle WA,USA,"Literary fiction",Via Amazon,N/A,WA,amazon.com/littlea,Amazon Publishing,N/A,Some,Medium,"Amazon literary"
Grand Harbor Press,Traditional,Seattle WA,USA,"Christian fiction",Via Amazon,N/A,WA,amazon.com/grandharbor,Amazon Publishing,N/A,Unknown,Medium,"Amazon Christian"
Waterfall Press,Traditional,Seattle WA,USA,"Christian nonfiction",Via Amazon,N/A,WA,amazon.com/waterfallpress,Amazon Publishing,N/A,Unknown,Medium,"Amazon Christian NF"
Skyscape,Traditional,Seattle WA,USA,"YA fiction",Via Amazon,N/A,WA,amazon.com/skyscape,Amazon Publishing,N/A,Some,Medium,"Amazon YA"
Two Lions,Traditional,Seattle WA,USA,"Children's books",Via Amazon,N/A,WA,amazon.com/twolions,Amazon Publishing,N/A,Unknown,Medium,"Amazon children's"
Kindle Press,Traditional,Seattle WA,USA,"Various genres, Kindle Scout",Via Amazon,N/A,WA,kindlepress.com,Amazon Publishing,N/A,Unknown,Medium,"Amazon digital"
Blackstone Publishing,Traditional,Oregon,USA,"Audio and print, all genres",Via website,N/A,OR,blackstonepublishing.com,Via website,N/A,Yes,Low,"Major audiobook producer"
Recorded Books,Traditional,Maryland,USA,"Audiobooks, educational",Via website,N/A,MD,recordedbooks.com,Via website,N/A,Yes - Producer,Competitor,"Major audio producer"
Tantor Media,Traditional,Connecticut,USA,"Audiobook production",Via website,N/A,CT,tantor.com,Via website,N/A,Yes - Producer,Competitor,"Audiobook specialist"
Dreamscape Media,Traditional,Ohio,USA,"Audiobook production",Via website,N/A,OH,dreamscapepublishing.com,Via website,N/A,Yes - Producer,Competitor,"Audio producer"
Graphic Audio,Traditional,Maryland,USA,"Dramatized audiobooks",Via website,N/A,MD,graphicaudio.net,Via website,N/A,Yes - Producer,Competitor,"Movie in your mind"
HighBridge Audio,Traditional,Minneapolis MN,USA,"Audiobook production",Via website,N/A,MN,highbridgeaudio.com,Via website,N/A,Yes - Producer,Competitor,"Audio specialist"
Oasis Audio,Traditional,Illinois,USA,"Christian audiobooks",Via website,N/A,IL,oasisaudio.com,Via website,N/A,Yes - Producer,Competitor,"Christian audio"
christianaudio,Traditional,USA,USA,"Christian audiobook retailer/producer",Via website,N/A,N/A,christianaudio.com,Via website,N/A,Yes - Producer,Competitor,"Christian audio"
Libro.fm,Traditional,Seattle WA,USA,"Audiobook retailer, indie bookstore partner",Via website,N/A,WA,libro.fm,Via website,N/A,Some - Partner,Info,"Indie bookstore partner"
Audible Originals,Traditional,Newark NJ,USA,"Amazon audiobook originals",Via Amazon,N/A,NJ,audible.com,Via Amazon,N/A,Yes - Producer,Competitor,"Amazon exclusive"
Brilliance Publishing,Traditional,Michigan,USA,"Audiobook production",Via Amazon,N/A,MI,brilliancepublishing.com,Amazon owned,N/A,Yes - Producer,Competitor,"Amazon audio"
Findaway Voices,Service,Ohio,USA,"Audiobook distribution platform",Via website,N/A,OH,findawayvoices.com,Via website,N/A,Distribution,Info,"Distribution platform"
Authors Republic,Service,USA,USA,"Audiobook distribution",Via website,N/A,N/A,authorsrepublic.com,Via website,N/A,Distribution,Info,"Distribution service"
Spoken Realms,Service,USA,USA,"Audiobook production for authors",Via website,N/A,N/A,spokenrealms.com,Via website,N/A,Production,Info,"Author services"
DeepVellum Dallas,Nonprofit,Dallas TX,USA,"World literature in translation",Via website,N/A,TX,deepvellum.org,Via website,N/A,NO AUDIOBOOKS,TIER 1,"Translations"
Restless Books,Traditional,Brooklyn NY,USA,"International literature, translations",Via website,N/A,NY,restlessbooks.org,Via website,N/A,NO AUDIOBOOKS,TIER 1,"World lit"
Open Letter Books,Academic,Rochester NY,USA,"Literature in translation",Via website,N/A,NY,openletterbooks.org,Via website,N/A,NO AUDIOBOOKS,TIER 1,"University of Rochester"
Archipelago Books,Nonprofit,Brooklyn NY,USA,"Literary translations",Via website,N/A,NY,archipelagobooks.org,Via website,N/A,NO AUDIOBOOKS,TIER 1,"Nonprofit translations"
New Vessel Press,Traditional,NYC,USA,"Literary fiction in translation",Via website,N/A,NYC,newvessel.com,Via website,N/A,NO AUDIOBOOKS,TIER 1,"Translations"
Transit Books,Nonprofit,Oakland CA,USA,"Fiction and nonfiction in translation",Via website,N/A,CA,transitbooks.org,Via website,N/A,NO AUDIOBOOKS,TIER 1,"Translation nonprofit"
World Editions,Traditional,Netherlands/USA,Netherlands/USA,"International literary fiction",Via website,N/A,NL/USA,worldeditions.org,Via website,N/A,NO AUDIOBOOKS,TIER 1,"Netherlands-based"
Sandstone Press,Traditional,Scotland,UK,"Fiction, nonfiction, translations",Via website,N/A,Scotland,sandstonepress.com,Via website,N/A,NO AUDIOBOOKS,TIER 1,"Scottish indie"
Saraband,Traditional,Scotland,UK,"Fiction, nature, memoir",Via website,N/A,Scotland,saraband.net,Via website,N/A,NO AUDIOBOOKS,TIER 1,"Scottish indie"
Polygon (Birlinn),Traditional,Edinburgh,UK,"Scottish interest",Via website,N/A,Edinburgh,polygonbooks.co.uk,Via website,N/A,NO AUDIOBOOKS,TIER 1,"Birlinn imprint"
Luath Press,Traditional,Edinburgh,UK,"Scottish interest, fiction, nonfiction",Via website,N/A,Edinburgh,luath.co.uk,Via website,N/A,NO AUDIOBOOKS,TIER 1,"Since 1981"
Freight Books,Traditional,Glasgow,UK,"Scottish literary fiction, poetry",Via website,N/A,Glasgow,freightbooks.co.uk,Via website,N/A,NO AUDIOBOOKS,TIER 1,"Glasgow indie"
404 Ink,Traditional,Scotland,UK,"Fiction, nonfiction, zines",Via website,N/A,Scotland,404ink.com,Via website,N/A,NO AUDIOBOOKS,TIER 1,"Scottish indie"
Seren,Traditional,Wales,UK,"Poetry, fiction, Welsh interest",Via website,N/A,Wales,serenbooks.com,Via website,N/A,NO AUDIOBOOKS,TIER 1,"Welsh publisher"
Parthian Books,Traditional,Wales,UK,"Welsh, literary fiction, translations",Via website,N/A,Wales,parthianbooks.com,Via website,N/A,NO AUDIOBOOKS,TIER 1,"Welsh indie"
Honno,Traditional,Wales,UK,"Women's writing, Welsh",Via website,N/A,Wales,honno.co.uk,Via website,N/A,NO AUDIOBOOKS,TIER 1,"Welsh women's"
Gomer Press,Traditional,Wales,UK,"Welsh language and interest",Via website,N/A,Wales,gomer.co.uk,Via website,N/A,NO AUDIOBOOKS,TIER 1,"Welsh publisher"
Y Lolfa,Traditional,Wales,UK,"Welsh language books",Via website,N/A,Wales,ylolfa.com,Via website,N/A,NO AUDIOBOOKS,TIER 1,"Welsh language"
Blackstaff Press,Traditional,Belfast,Northern Ireland,"Irish interest, fiction, nonfiction",Via website,N/A,Belfast,blackstaffpress.com,Via website,N/A,NO AUDIOBOOKS,TIER 1,"NI publisher"
The O'Brien Press,Traditional,Dublin,Ireland,"Irish interest, children's, adult",Via website,N/A,Dublin,obrien.ie,Via website,N/A,NO AUDIOBOOKS,TIER 1,"Irish indie"
Lilliput Press,Traditional,Dublin,Ireland,"Irish interest, literary",Via website,N/A,Dublin,lilliputpress.ie,Via website,N/A,NO AUDIOBOOKS,TIER 1,"Dublin indie"
New Island Books,Traditional,Dublin,Ireland,"Irish fiction, nonfiction",Via website,N/A,Dublin,newisland.ie,Via website,N/A,NO AUDIOBOOKS,TIER 1,"Dublin indie"
Merrion Press,Traditional,Dublin,Ireland,"Irish history, politics, memoir",Via website,N/A,Dublin,merrionpress.ie,Via website,N/A,NO AUDIOBOOKS,TIER 1,"Irish nonfiction"
Mercier Press,Traditional,Cork,Ireland,"Irish interest, history, folklore",Via website,N/A,Cork,mercierpress.ie,Via website,N/A,NO AUDIOBOOKS,TIER 1,"Cork publisher"
Salmon Poetry,Traditional,Ireland,Ireland,"Poetry",Via website,N/A,Ireland,salmonpoetry.com,Via website,N/A,NO AUDIOBOOKS,TIER 1,"Irish poetry"
Dedalus Press,Traditional,Dublin,Ireland,"Poetry",Via website,N/A,Dublin,dedaluspress.com,Via website,N/A,NO AUDIOBOOKS,TIER 1,"Irish poetry"
Gallery Press,Traditional,Ireland,Ireland,"Poetry, drama",Via website,N/A,Ireland,gallerypress.com,Via website,N/A,NO AUDIOBOOKS,TIER 1,"Irish poetry/drama"
Brandon Books (O'Brien),Traditional,Ireland,Ireland,"Literary fiction, Irish",Via website,N/A,Ireland,obrien.ie,Via O'Brien,N/A,NO AUDIOBOOKS,TIER 1,"O'Brien imprint"
Tramp Press,Traditional,Dublin,Ireland,"Literary fiction",Via website,N/A,Dublin,tramppress.com,Via website,N/A,NO AUDIOBOOKS,TIER 1,"Dublin literary"
Banshee Press,Traditional,Ireland,Ireland,"Literary fiction, short stories",Via website,N/A,Ireland,bansheelit.com,Via website,N/A,NO AUDIOBOOKS,TIER 1,"Irish literary"
Stinging Fly Press,Traditional,Dublin,Ireland,"Literary fiction, poetry",Via website,N/A,Dublin,stingingfly.org,Via website,N/A,NO AUDIOBOOKS,TIER 1,"Dublin literary"
Fantagraphics Books,Traditional,Seattle WA,USA,"Comics, graphic novels",Via website,N/A,WA,fantagraphics.com,Via website,N/A,NO AUDIOBOOKS,TIER 1,"Alt comics leader"
Drawn & Quarterly,Traditional,Montreal,Canada,"Comics, graphic novels",Via website,N/A,Montreal,drawnandquarterly.com,Via website,N/A,NO AUDIOBOOKS,TIER 1,"Canadian comics"
Top Shelf Productions,Traditional,USA,USA,"Graphic novels, indie comics",Via website,N/A,N/A,topshelfcomix.com,Via website,N/A,NO AUDIOBOOKS,TIER 1,"IDW imprint"
First Second Books,Traditional,NYC,USA,"Graphic novels, comics for all ages",Via website,N/A,NYC,firstsecondbooks.com,Via website,N/A,NO AUDIOBOOKS,TIER 1,"Macmillan imprint"
Oni Press,Traditional,Portland OR,USA,"Comics, graphic novels",Via website,N/A,OR,onipress.com,Via website,N/A,NO AUDIOBOOKS,TIER 1,"Indie comics"
Boom! Studios,Traditional,Los Angeles CA,USA,"Comics, graphic novels",Via website,N/A,CA,boom-studios.com,Via website,N/A,Unknown,High,"LA comics"
Viz Media,Traditional,San Francisco CA,USA,"Manga, anime",Via website,N/A,CA,viz.com,Via website,N/A,Unknown,High,"Japanese manga"
Yen Press,Traditional,NYC,USA,"Manga, light novels",Via website,N/A,NYC,yenpress.com,Via website,N/A,Unknown,High,"Hachette manga"
Seven Seas Entertainment,Traditional,Los Angeles CA,USA,"Manga, light novels",Via website,N/A,CA,sevenseasentertainment.com,Via website,N/A,NO AUDIOBOOKS,TIER 1,"Manga publisher"
Kodansha USA,Traditional,NYC,USA,"Manga, Japanese books",Via website,N/A,NYC,kodanshausa.com,Via website,N/A,NO AUDIOBOOKS,TIER 1,"Japanese publisher"
Dark Horse Comics,Traditional,Milwaukie OR,USA,"Comics, manga, graphic novels",Via website,N/A,OR,darkhorse.com,Via website,N/A,Unknown,High,"Major indie comics"
IDW Publishing,Traditional,San Diego CA,USA,"Comics, graphic novels, licensed",Via website,N/A,CA,idwpublishing.com,Via website,N/A,Unknown,High,"Licensed comics"
Image Comics,Traditional,Portland OR,USA,"Creator-owned comics",Via website,N/A,OR,imagecomics.com,Via website,N/A,Unknown,High,"Creator-owned"
Dynamite Entertainment,Traditional,New Jersey,USA,"Comics, licensed properties",Via website,N/A,NJ,dynamite.com,Via website,N/A,NO AUDIOBOOKS,TIER 1,"Licensed comics"
Aftershock Comics,Traditional,Los Angeles CA,USA,"Comics, sci-fi, horror",Via website,N/A,CA,aftershockcomics.com,Via website,N/A,NO AUDIOBOOKS,TIER 1,"2015 founded"
Valiant Entertainment,Traditional,NYC,USA,"Superhero comics",Via website,N/A,NYC,valiantentertainment.com,Via website,N/A,NO AUDIOBOOKS,TIER 1,"Superhero universe"
Mad Cave Studios,Traditional,Miami FL,USA,"Comics, graphic novels",Via website,N/A,FL,madcavestudios.com,Via website,N/A,NO AUDIOBOOKS,TIER 1,"Miami comics"
Scout Comics,Traditional,USA,USA,"Indie comics, diverse genres",Via website,N/A,N/A,scoutcomics.com,Via website,N/A,NO AUDIOBOOKS,TIER 1,"Indie comics"
AWA Studios,Traditional,NYC,USA,"Comics, graphic novels",Via website,N/A,NYC,awastudios.net,Via website,N/A,NO AUDIOBOOKS,TIER 1,"Artists Writers Artisans"
Black Mask Studios,Traditional,Los Angeles CA,USA,"Comics, indie",Via website,N/A,CA,blackmaskstudios.com,Via website,N/A,NO AUDIOBOOKS,TIER 1,"Indie comics"
Titan Comics,Traditional,London,UK,"Comics, graphic novels, licensed",Via website,N/A,UK,titan-comics.com,Via website,N/A,NO AUDIOBOOKS,TIER 1,"UK comics"
SelfMadeHero,Traditional,London,UK,"Graphic novels, literary adaptations",Via website,N/A,UK,selfmadehero.com,Via website,N/A,NO AUDIOBOOKS,TIER 1,"UK graphic novels"
Nobrow Press,Traditional,London,UK,"Illustrated books, graphic novels",Via website,N/A,UK,nobrow.net,Via website,N/A,NO AUDIOBOOKS,TIER 1,"UK illustrated"
Jonathan Cape Graphic Novels,Traditional,London,UK,"Graphic novels",Via Penguin,N/A,UK,vintage-books.co.uk,Via Penguin,N/A,Unknown,Medium,"PRH UK imprint"
Workman Publishing,Traditional,NYC,USA,"Nonfiction, calendars, journals, cookbooks",Via website,N/A,NYC,workman.com,Via website,N/A,Some,Medium,"Hachette imprint"
Adams Media,Traditional,Massachusetts,USA,"Self-help, business, pop culture",Via S&S,N/A,MA,simonandschuster.com,Via S&S,N/A,Yes,Low,"S&S imprint"
Parenting Press,Traditional,Seattle WA,USA,"Parenting, children's guidance",Via website,N/A,WA,parentingpress.com,Via website,N/A,NO AUDIOBOOKS,TIER 1,"Parenting specialist"
Da Capo Lifelong,Traditional,NYC,USA,"Parenting, health, food",Via Hachette,N/A,NYC,dacapolifelong.com,Via Hachette,N/A,Unknown,Medium,"Hachette imprint"
Alpha Books,Traditional,NYC,USA,"Complete Idiot's Guides",Via DK,N/A,NYC,dk.com,Via DK,N/A,Some,Medium,"PRH/DK imprint"
Callisto Media,Traditional,Oakland CA,USA,"Health, wellness, cooking",Via website,N/A,CA,callistomedia.com,Via website,N/A,Unknown,High,"Rockridge Press imprint"
Rockridge Press,Traditional,Oakland CA,USA,"Health, wellness, cookbooks, how-to",Via Callisto,N/A,CA,rockridgepress.com,Via Callisto,N/A,NO AUDIOBOOKS,TIER 1,"Callisto imprint"
Althea Press,Traditional,Oakland CA,USA,"Health, alternative medicine",Via Callisto,N/A,CA,callistomedia.com,Via Callisto,N/A,NO AUDIOBOOKS,TIER 1,"Callisto imprint"
Zeitgeist (Penguin),Traditional,NYC,USA,"Wellness, self-improvement",Via PRH,N/A,NYC,penguinrandomhouse.com,Via PRH,N/A,Unknown,Medium,"PRH imprint"
TarcherPerigee,Traditional,NYC,USA,"Personal growth, spirituality",Via PRH,N/A,NYC,penguinrandomhouse.com,Via PRH,N/A,Some,Medium,"PRH imprint"
Avery (PRH),Traditional,NYC,USA,"Health, wellness, nutrition",Via PRH,N/A,NYC,penguinrandomhouse.com,Via PRH,N/A,Yes,Low,"PRH imprint"
Plume (PRH),Traditional,NYC,USA,"Lifestyle, self-help, fiction",Via PRH,N/A,NYC,penguinrandomhouse.com,Via PRH,N/A,Yes,Low,"PRH imprint"
Harmony Books,Traditional,NYC,USA,"Wellness, lifestyle, self-help",Via PRH,N/A,NYC,penguinrandomhouse.com,Via PRH,N/A,Yes,Low,"PRH Crown imprint"
Rodale Books,Traditional,NYC,USA,"Health, wellness, gardening",Via PRH,N/A,NYC,penguinrandomhouse.com,Via PRH,N/A,Yes,Low,"PRH imprint"
Conundrum Press,Traditional,Canada,Canada,"Graphic novels, experimental",Via website,N/A,Canada,conundrumpress.com,Via website,N/A,NO AUDIOBOOKS,TIER 1,"Canadian comics"
Koyama Press,Traditional,Toronto,Canada,"Art books, comics",Via website,N/A,Toronto,koyamapress.com,Via website,N/A,NO AUDIOBOOKS,TIER 1,"Toronto art books"
Peow Studio,Traditional,Sweden,Sweden,"Comics, art books",Via website,N/A,Sweden,peowstudio.com,Via website,N/A,NO AUDIOBOOKS,TIER 1,"Swedish comics"
Retrofit Comics,Traditional,USA,USA,"Mini comics, zines",Via website,N/A,N/A,retrofitcomics.com,Via website,N/A,NO AUDIOBOOKS,TIER 1,"Mini comics"
Secret Acres,Traditional,Brooklyn NY,USA,"Comics, graphic novels",Via website,N/A,NY,secretacres.com,Via website,N/A,NO AUDIOBOOKS,TIER 1,"Brooklyn comics"
Uncivilized Books,Traditional,Minneapolis MN,USA,"Comics, art",Via website,N/A,MN,uncivilizedbooks.com,Via website,N/A,NO AUDIOBOOKS,TIER 1,"Minneapolis comics"
New York Review Comics,Traditional,NYC,USA,"Graphic novels, classic reprints",Via website,N/A,NYC,nyrb.com,Via website,N/A,NO AUDIOBOOKS,TIER 1,"NYRB comics"
Humanoids,Traditional,Los Angeles CA,USA,"European comics, graphic novels",Via website,N/A,CA,humanoids.com,Via website,N/A,NO AUDIOBOOKS,TIER 1,"European style"
Lion Forge,Traditional,St. Louis MO,USA,"Comics, diverse voices",Via website,N/A,MO,lionforge.com,Via website,N/A,NO AUDIOBOOKS,TIER 1,"Oni-Lion Forge"
Papercutz,Traditional,NYC,USA,"Children's graphic novels",Via website,N/A,NYC,papercutz.com,Via website,N/A,NO AUDIOBOOKS,TIER 1,"Kids comics"
Scholastic Graphix,Traditional,NYC,USA,"Children's graphic novels",Via Scholastic,N/A,NYC,graphixbooks.com,Via Scholastic,N/A,Unknown,High,"Scholastic imprint"
Amulet Books,Traditional,NYC,USA,"Children's, middle grade, YA",Via Abrams,N/A,NYC,abramsbooks.com,Via Abrams,N/A,Unknown,High,"Abrams imprint"
Abrams ComicArts,Traditional,NYC,USA,"Comics, graphic novels, pop culture",Via Abrams,N/A,NYC,abramsbooks.com,Via Abrams,N/A,NO AUDIOBOOKS,TIER 1,"Abrams comics"
Andrews McMeel Publishing,Traditional,Kansas City MO,USA,"Humor, gift books, calendars, comics",Via website,N/A,MO,andrewsmcmeel.com,Via website,N/A,Some,Medium,"Calvin & Hobbes"
Ulysses Press,Traditional,Berkeley CA,USA,"Health, fitness, pop culture, how-to",Via website,N/A,CA,ulyssespress.com,Via website,N/A,NO AUDIOBOOKS,TIER 1,"Fast-growing"
Adams Street Publishing,Traditional,USA,USA,"Gift books, humor",Via website,N/A,N/A,adamsstreetpublishing.com,Via website,N/A,NO AUDIOBOOKS,TIER 1,"Gift books"
Sellers Publishing,Traditional,Maine,USA,"Calendars, journals, gift books",Via website,N/A,ME,sellerspublishing.com,Via website,N/A,NO AUDIOBOOKS,TIER 1,"Calendars"
Amber Lotus Publishing,Traditional,Portland OR,USA,"Calendars, journals, mindfulness",Via website,N/A,OR,amberlotus.com,Via website,N/A,NO AUDIOBOOKS,TIER 1,"Calendars"
Brush Dance,Traditional,California,USA,"Calendars, greeting cards, journals",Via website,N/A,CA,brushdance.com,Via website,N/A,NO AUDIOBOOKS,TIER 1,"Mindfulness products"
Peter Pauper Press,Traditional,White Plains NY,USA,"Gift books, journals, stationery",Via website,N/A,NY,peterpauper.com,Via website,N/A,NO AUDIOBOOKS,TIER 1,"Since 1928"
Cider Mill Press,Traditional,Maine,USA,"Gift books, cookbooks, children's",Via website,N/A,ME,cidermillpress.com,Via website,N/A,NO AUDIOBOOKS,TIER 1,"Whalen Book Works"
Compendium,Traditional,Seattle WA,USA,"Gift books, inspiration, children's",Via website,N/A,WA,live-inspired.com,Via website,N/A,NO AUDIOBOOKS,TIER 1,"Inspirational gifts"
Running Press Miniature Editions,Traditional,Philadelphia PA,USA,"Mini books, gift books",Via Hachette,N/A,PA,runningpress.com,Via Hachette,N/A,NO AUDIOBOOKS,TIER 1,"Mini books"
Portable Press,Traditional,San Diego CA,USA,"Bathroom readers, trivia, humor",Via website,N/A,CA,portablepress.com,Via website,N/A,NO AUDIOBOOKS,TIER 1,"Uncle John's"
Willow Creek Press,Traditional,Wisconsin,USA,"Nature, wildlife, gift books",Via website,N/A,WI,willowcreekpress.com,Via website,N/A,NO AUDIOBOOKS,TIER 1,"Nature photography"
Pomegranate Communications,Traditional,California,USA,"Art books, calendars, puzzles",Via website,N/A,CA,pomegranate.com,Via website,N/A,NO AUDIOBOOKS,TIER 1,"Art products"
Galison,Traditional,NYC,USA,"Puzzles, games, stationery",Via website,N/A,NYC,galison.com,Via website,N/A,NO AUDIOBOOKS,TIER 1,"Puzzles/games"
Mudpuppy (Galison),Traditional,NYC,USA,"Children's puzzles, games",Via Galison,N/A,NYC,mudpuppy.com,Via Galison,N/A,NO AUDIOBOOKS,TIER 1,"Kids puzzles"
Ravensburger,Traditional,Germany/USA,Germany/USA,"Puzzles, games, children's books",Via website,N/A,Germany/USA,ravensburger.com,Via website,N/A,NO AUDIOBOOKS,TIER 1,"Puzzles/games"
Walter Foster Publishing,Traditional,California,USA,"Art instruction, how-to",Via Quarto,N/A,CA,quartoknows.com,Via Quarto,N/A,NO AUDIOBOOKS,TIER 1,"Art instruction"
Search Press,Traditional,UK,UK,"Art, craft, how-to",Via website,N/A,UK,searchpress.com,Via website,N/A,NO AUDIOBOOKS,TIER 1,"UK craft"
F+W Media,Traditional,Ohio,USA,"Craft, art, writing",Via website,N/A,OH,fwmedia.com,Via website,N/A,NO AUDIOBOOKS,TIER 1,"Penguin Craft since 2019"
Interweave Press,Traditional,Colorado,USA,"Fiber arts, crafts",Via website,N/A,CO,interweave.com,Via website,N/A,NO AUDIOBOOKS,TIER 1,"Fiber arts"
C&T Publishing,Traditional,California,USA,"Quilting, sewing, crafts",Via website,N/A,CA,ctpub.com,Via website,N/A,NO AUDIOBOOKS,TIER 1,"Quilting"
Martingale,Traditional,Washington,USA,"Quilting, crafts",Via website,N/A,WA,martingale-pub.com,Via website,N/A,NO AUDIOBOOKS,TIER 1,"Quilting"
Landauer Publishing,Traditional,Iowa,USA,"Quilting, sewing",Via website,N/A,IA,landauerpub.com,Via website,N/A,NO AUDIOBOOKS,TIER 1,"Quilting"
Kansas City Star Quilts,Traditional,Kansas City MO,USA,"Quilting patterns, books",Via website,N/A,MO,pickledish.com,Via website,N/A,NO AUDIOBOOKS,TIER 1,"Quilting"
Schiffer Publishing,Traditional,Pennsylvania,USA,"Antiques, crafts, regional, military",Via website,N/A,PA,schifferbooks.com,Via website,N/A,NO AUDIOBOOKS,TIER 1,"Since 1974"
Stackpole Craft,Traditional,Pennsylvania,USA,"Knitting, crochet, crafts",Via website,N/A,PA,stackpolebooks.com,Via website,N/A,NO AUDIOBOOKS,TIER 1,"Craft books"
Sixth & Spring Books,Traditional,NYC,USA,"Knitting, crochet, crafts",Via website,N/A,NYC,sixthandspring.com,Via website,N/A,NO AUDIOBOOKS,TIER 1,"Soho/Vogue Knitting"
Potter Craft,Traditional,NYC,USA,"Crafts, DIY, art",Via PRH,N/A,NYC,penguinrandomhouse.com,Via PRH,N/A,NO AUDIOBOOKS,TIER 1,"PRH Crown imprint"
Taunton Press,Traditional,Connecticut,USA,"Woodworking, home, garden, craft",Via website,N/A,CT,taunton.com,Via website,N/A,NO AUDIOBOOKS,TIER 1,"Fine Woodworking"
Lark Books,Traditional,North Carolina,USA,"Crafts, art, how-to",Via Sterling,N/A,NC,sterlingpublishing.com,Via Sterling,N/A,NO AUDIOBOOKS,TIER 1,"Sterling imprint"
Creative Publishing International,Traditional,Minnesota,USA,"Home, garden, crafts",Via Quarto,N/A,MN,quartoknows.com,Via Quarto,N/A,NO AUDIOBOOKS,TIER 1,"Quarto imprint"
Cool Springs Press,Traditional,Minnesota,USA,"Gardening, home, outdoor",Via Quarto,N/A,MN,quartoknows.com,Via Quarto,N/A,NO AUDIOBOOKS,TIER 1,"Quarto gardening"
Timber Press,Traditional,Portland OR,USA,"Gardening, nature, ecology",Via Workman,N/A,OR,timberpress.com,Via Workman,N/A,NO AUDIOBOOKS,TIER 1,"Gardening expert"
DK (Dorling Kindersley),Traditional,London/NYC,UK/USA,"Reference, illustrated, how-to",Via PRH,N/A,UK/USA,dk.com,Via PRH,N/A,Yes,Low,"PRH reference"
National Geographic Books,Traditional,Washington DC,USA,"Nature, travel, photography, science",Via website,N/A,DC,natgeobooks.com,Via website,N/A,Some,Medium,"Nat Geo brand"
Lonely Planet,Traditional,UK/Australia,UK/Australia,"Travel guides",Via website,N/A,UK/AU,lonelyplanet.com,Via website,N/A,Some,Medium,"Travel leader"
Frommer's,Traditional,USA,USA,"Travel guides",Via website,N/A,N/A,frommers.com,Via website,N/A,Unknown,High,"Budget travel"
Fodor's Travel,Traditional,NYC,USA,"Travel guides",Via PRH,N/A,NYC,fodors.com,Via PRH,N/A,Unknown,High,"PRH travel"
Insight Guides,Traditional,UK,UK,"Travel guides, illustrated",Via website,N/A,UK,insightguides.com,Via website,N/A,NO AUDIOBOOKS,TIER 1,"Apa Publications"
Michelin Travel,Traditional,France,France,"Travel guides, maps",Via website,N/A,France,travel.michelin.com,Via website,N/A,NO AUDIOBOOKS,TIER 1,"French guides"
Cadogan Guides,Traditional,UK,UK,"Travel guides",Via website,N/A,UK,cadoganbooks.com,Via website,N/A,NO AUDIOBOOKS,TIER 1,"UK travel"
Trailblazer Publications,Traditional,UK,UK,"Hiking guides, rail guides",Via website,N/A,UK,trailblazer-guides.com,Via website,N/A,NO AUDIOBOOKS,TIER 1,"UK trail guides"
Cicerone,Traditional,UK,UK,"Walking, trekking guides",Via website,N/A,UK,cicerone.co.uk,Via website,N/A,NO AUDIOBOOKS,TIER 1,"UK hiking"
Vertebrate Publishing,Traditional,UK,UK,"Outdoor, adventure, cycling",Via website,N/A,UK,v-publishing.co.uk,Via website,N/A,NO AUDIOBOOKS,TIER 1,"UK outdoor"
Pesda Press,Traditional,Wales,UK,"Paddlesports, outdoor, adventure",Via website,N/A,Wales,pesdapress.com,Via website,N/A,NO AUDIOBOOKS,TIER 1,"Welsh outdoor"
Rocky Mountain Books,Traditional,Canada,Canada,"Outdoor, adventure, Canadian",Via website,N/A,Canada,rmbooks.com,Via website,N/A,NO AUDIOBOOKS,TIER 1,"Canadian outdoor"
Menasha Ridge Press,Traditional,Alabama,USA,"Outdoor guides, hiking, camping",Via website,N/A,AL,menasharidge.com,Via website,N/A,NO AUDIOBOOKS,TIER 1,"Outdoor recreation"
Falcon Guides,Traditional,Connecticut,USA,"Outdoor recreation, hiking, climbing",Via website,N/A,CT,falconguides.com,Via website,N/A,NO AUDIOBOOKS,TIER 1,"Rowman Littlefield"
Countryman Press,Traditional,Vermont,USA,"Outdoor, travel, food",Via Norton,N/A,VT,countrymanpress.com,Via Norton,N/A,NO AUDIOBOOKS,TIER 1,"Norton imprint"
Down the Shore Publishing,Traditional,New Jersey,USA,"New Jersey shore, regional",Via website,N/A,NJ,down-the-shore.com,Via website,N/A,NO AUDIOBOOKS,TIER 1,"NJ regional"
Schiffer Regional,Traditional,Pennsylvania,USA,"Regional history, local interest",Via website,N/A,PA,schifferbooks.com,Via website,N/A,NO AUDIOBOOKS,TIER 1,"Regional Schiffer"
History Press,Traditional,UK/USA,UK/USA,"Local history, regional",Via website,N/A,UK/USA,thehistorypress.co.uk,Via website,N/A,NO AUDIOBOOKS,TIER 1,"Local history"
Fonthill Media,Traditional,UK,UK,"History, transport, military",Via website,N/A,UK,fonthillmedia.com,Via website,N/A,NO AUDIOBOOKS,TIER 1,"UK history"
Pen and Sword,Traditional,UK,UK,"Military history, true crime, transport",Via website,N/A,UK,pen-and-sword.co.uk,Via website,N/A,NO AUDIOBOOKS,TIER 1,"UK military"
Casemate Publishers,Traditional,UK/USA,UK/USA,"Military history",Via website,N/A,UK/USA,casematepublishers.com,Via website,N/A,NO AUDIOBOOKS,TIER 1,"Military specialist"
Osprey Publishing,Traditional,UK,UK,"Military history, illustrated",Via website,N/A,UK,ospreypublishing.com,Via website,N/A,Some,Medium,"Bloomsbury imprint"
Stackpole Military,Traditional,Pennsylvania,USA,"Military history",Via website,N/A,PA,stackpolebooks.com,Via website,N/A,NO AUDIOBOOKS,TIER 1,"Military history"
Naval Institute Press,Academic,Maryland,USA,"Naval, military, maritime",Via website,N/A,MD,usni.org/press,Via website,N/A,NO AUDIOBOOKS,TIER 1,"Naval Academy"
Texas A&M Military History,Academic,Texas,USA,"Military history",Via website,N/A,TX,tamupress.com,Via website,N/A,NO AUDIOBOOKS,TIER 1,"TAMU military"
University Press of Kansas Military,Academic,Kansas,USA,"Military history, American",Via website,N/A,KS,kansaspress.ku.edu,Via website,N/A,NO AUDIOBOOKS,TIER 1,"Kansas military"
Potomac Books,Academic,Nebraska,USA,"Military, intelligence, foreign affairs",Via website,N/A,NE,potomacbooksinc.com,Via website,N/A,NO AUDIOBOOKS,TIER 1,"Nebraska imprint"
Zenith Press,Traditional,Minnesota,USA,"Military, aviation, automotive",Via Quarto,N/A,MN,quartoknows.com,Via Quarto,N/A,NO AUDIOBOOKS,TIER 1,"Quarto military"
Specialty Press,Traditional,Minnesota,USA,"Aviation, automotive history",Via website,N/A,MN,specialtypress.com,Via website,N/A,NO AUDIOBOOKS,TIER 1,"Aviation books"
Schiffer Military,Traditional,Pennsylvania,USA,"Military history, uniforms, weapons",Via website,N/A,PA,schifferbooks.com,Via website,N/A,NO AUDIOBOOKS,TIER 1,"Military Schiffer"
Helion & Company,Traditional,UK,UK,"Military history",Via website,N/A,UK,helion.co.uk,Via website,N/A,NO AUDIOBOOKS,TIER 1,"UK military"
Grub Street Publishing,Traditional,UK,UK,"Aviation, military, cookery",Via website,N/A,UK,grubstreet.co.uk,Via website,N/A,NO AUDIOBOOKS,TIER 1,"UK aviation"
Crcy Publishing,Traditional,UK,UK,"Aviation, transport",Via website,N/A,UK,crecy.co.uk,Via website,N/A,NO AUDIOBOOKS,TIER 1,"UK aviation"
Air World,Traditional,UK,UK,"Aviation history",Via website,N/A,UK,pen-and-sword.co.uk,Via website,N/A,NO AUDIOBOOKS,TIER 1,"Pen & Sword imprint"
Motorbooks,Traditional,Minnesota,USA,"Automotive, motorcycle, aviation",Via Quarto,N/A,MN,quartoknows.com,Via Quarto,N/A,NO AUDIOBOOKS,TIER 1,"Quarto automotive"
CarTech Books,Traditional,Minnesota,USA,"Automotive restoration, performance",Via website,N/A,MN,cartechbooks.com,Via website,N/A,NO AUDIOBOOKS,TIER 1,"Automotive"
Bentley Publishers,Traditional,Massachusetts,USA,"Automotive repair, service manuals",Via website,N/A,MA,bentleypublishers.com,Via website,N/A,NO AUDIOBOOKS,TIER 1,"Service manuals"
Haynes Publishing,Traditional,UK/USA,UK/USA,"Automotive repair manuals",Via website,N/A,UK/USA,haynes.com,Via website,N/A,NO AUDIOBOOKS,TIER 1,"Repair manuals"
Veloce Publishing,Traditional,UK,UK,"Automotive, transport",Via website,N/A,UK,veloce.co.uk,Via website,N/A,NO AUDIOBOOKS,TIER 1,"UK automotive"
Evro Publishing,Traditional,UK,UK,"Motorsport, automotive",Via website,N/A,UK,evropublishing.com,Via website,N/A,NO AUDIOBOOKS,TIER 1,"Motorsport"
Dalton Watson Fine Books,Traditional,UK,UK,"Automotive history, luxury",Via website,N/A,UK,daltonwatson.com,Via website,N/A,NO AUDIOBOOKS,TIER 1,"Collector books"
Herridge & Sons,Traditional,UK,UK,"Automotive, motorsport",Via website,N/A,UK,herridge.co.uk,Via website,N/A,NO AUDIOBOOKS,TIER 1,"UK automotive"
Publications International,Traditional,Illinois,USA,"Automotive, consumer guides",Via website,N/A,IL,pilbooks.com,Via website,N/A,NO AUDIOBOOKS,TIER 1,"Consumer guides"
Kalmbach Media,Traditional,Wisconsin,USA,"Model railroading, hobby, astronomy",Via website,N/A,WI,kalmbach.com,Via website,N/A,NO AUDIOBOOKS,TIER 1,"Hobby publishing"
FineScale Modeler (Kalmbach),Traditional,Wisconsin,USA,"Scale modeling, hobby",Via Kalmbach,N/A,WI,kalmbach.com,Via Kalmbach,N/A,NO AUDIOBOOKS,TIER 1,"Scale modeling"
Model Railroader (Kalmbach),Traditional,Wisconsin,USA,"Model trains, railroading",Via Kalmbach,N/A,WI,kalmbach.com,Via Kalmbach,N/A,NO AUDIOBOOKS,TIER 1,"Model trains"
White Owl (Pen & Sword),Traditional,UK,UK,"Lifestyle, crafts, history",Via website,N/A,UK,pen-and-sword.co.uk,Via website,N/A,NO AUDIOBOOKS,TIER 1,"P&S lifestyle"
Remember When,Traditional,UK,UK,"Nostalgia, local history",Via website,N/A,UK,pen-and-sword.co.uk,Via website,N/A,NO AUDIOBOOKS,TIER 1,"P&S nostalgia"
Amberley Publishing,Traditional,UK,UK,"History, transport, local interest",Via website,N/A,UK,amberley-books.com,Via website,N/A,NO AUDIOBOOKS,TIER 1,"UK history"
Pitkin Publishing,Traditional,UK,UK,"Heritage, guidebooks, history",Via website,N/A,UK,pitkin-publishing.co.uk,Via website,N/A,NO AUDIOBOOKS,TIER 1,"UK heritage"
Jarrold Publishing,Traditional,UK,UK,"Travel, heritage, regional",Via website,N/A,UK,jarrold.com,Via website,N/A,NO AUDIOBOOKS,TIER 1,"UK heritage"
Frances Lincoln,Traditional,London,UK,"Gardening, design, children's, gift",Via website,N/A,UK,franceslincoln.com,Via website,N/A,NO AUDIOBOOKS,TIER 1,"Quarto imprint"
Kyle Books,Traditional,London,UK,"Food, drink, health, home",Via website,N/A,UK,kylebooks.co.uk,Via website,N/A,NO AUDIOBOOKS,TIER 1,"Lifestyle UK"
Pavilion Books,Traditional,London,UK,"Lifestyle, gift, illustrated",Via website,N/A,UK,pavilionbooks.com,Via website,N/A,NO AUDIOBOOKS,TIER 1,"UK lifestyle"
Laurence King Publishing,Traditional,London,UK,"Design, art, architecture, gift",Via website,N/A,UK,laurenceking.com,Via website,N/A,NO AUDIOBOOKS,TIER 1,"Design/art"
Thames & Hudson,Traditional,London,UK,"Art, design, photography, architecture",Via website,N/A,UK,thamesandhudson.com,Via website,N/A,Unknown,High,"Art/design leader"
Yale University Press Art,Traditional,New Haven CT,USA,"Art history, museum catalogs",Via website,N/A,CT,yalebooks.yale.edu,Via website,N/A,NO AUDIOBOOKS,TIER 1,"Art history"
Skira,Traditional,Italy,Italy,"Art, architecture, photography",Via website,N/A,Italy,skira.net,Via website,N/A,NO AUDIOBOOKS,TIER 1,"Italian art"
Hirmer Verlag,Traditional,Germany,Germany,"Art, museum catalogs",Via website,N/A,Germany,hirmerverlag.de,Via website,N/A,NO AUDIOBOOKS,TIER 1,"German art"
Kerber Verlag,Traditional,Germany,Germany,"Art, photography",Via website,N/A,Germany,kerberverlag.com,Via website,N/A,NO AUDIOBOOKS,TIER 1,"German art"
Steidl,Traditional,Germany,Germany,"Photography, art books",Via website,N/A,Germany,steidl.de,Via website,N/A,NO AUDIOBOOKS,TIER 1,"Photo books"
Aperture Foundation,Nonprofit,NYC,USA,"Photography",Via website,N/A,NYC,aperture.org,Via website,N/A,NO AUDIOBOOKS,TIER 1,"Photography nonprofit"
MACK Books,Traditional,London,UK,"Photography, art",Via website,N/A,UK,mackbooks.co.uk,Via website,N/A,NO AUDIOBOOKS,TIER 1,"UK photography"
Nazraeli Press,Traditional,Oregon,USA,"Photography books",Via website,N/A,OR,nazraeli.com,Via website,N/A,NO AUDIOBOOKS,TIER 1,"Photo books"
Twin Palms Publishers,Traditional,New Mexico,USA,"Photography",Via website,N/A,NM,twinpalms.com,Via website,N/A,NO AUDIOBOOKS,TIER 1,"Photo specialist"
Damiani Editore,Traditional,Italy,Italy,"Photography, art",Via website,N/A,Italy,damianieditore.com,Via website,N/A,NO AUDIOBOOKS,TIER 1,"Italian photo"
La Fbrica,Traditional,Spain,Spain,"Photography, art",Via website,N/A,Spain,lafabrica.com,Via website,N/A,NO AUDIOBOOKS,TIER 1,"Spanish photo"
RM Verlag,Traditional,Spain/Mexico,Spain/Mexico,"Photography, art",Via website,N/A,Spain/Mexico,editorialrm.com,Via website,N/A,NO AUDIOBOOKS,TIER 1,"Spanish/Mexican"
Kehrer Verlag,Traditional,Germany,Germany,"Photography, art",Via website,N/A,Germany,kehrerverlag.com,Via website,N/A,NO AUDIOBOOKS,TIER 1,"German photo"
Edition Patrick Frey,Traditional,Switzerland,Switzerland,"Photography, art",Via website,N/A,Switzerland,editionpatrickfrey.com,Via website,N/A,NO AUDIOBOOKS,TIER 1,"Swiss photo"
Lars Mller Publishers,Traditional,Switzerland,Switzerland,"Architecture, design, photography",Via website,N/A,Switzerland,lars-mueller-publishers.com,Via website,N/A,NO AUDIOBOOKS,TIER 1,"Swiss design"
Verlag Niggli,Traditional,Switzerland,Switzerland,"Architecture, design",Via website,N/A,Switzerland,niggli.ch,Via website,N/A,NO AUDIOBOOKS,TIER 1,"Swiss architecture"
Park Books,Traditional,Switzerland,Switzerland,"Architecture",Via website,N/A,Switzerland,park-books.com,Via website,N/A,NO AUDIOBOOKS,TIER 1,"Swiss architecture"
DOM Publishers,Traditional,Germany,Germany,"Architecture",Via website,N/A,Germany,dom-publishers.com,Via website,N/A,NO AUDIOBOOKS,TIER 1,"German architecture"
Jovis Verlag,Traditional,Germany,Germany,"Architecture, urbanism",Via website,N/A,Germany,jovis.de,Via website,N/A,NO AUDIOBOOKS,TIER 1,"German architecture"
Birkhuser,Academic,Switzerland,Switzerland,"Architecture, design, mathematics",Via website,N/A,Switzerland,birkhauser.com,Via website,N/A,NO AUDIOBOOKS,TIER 1,"Academic architecture"
Applied Research + Design Publishing,Traditional,California,USA,"Architecture, design",Via website,N/A,CA,appliedresearchanddesign.com,Via website,N/A,NO AUDIOBOOKS,TIER 1,"Architecture"
Princeton Architectural Press,Traditional,NYC,USA,"Architecture, design, art",Via website,N/A,NYC,papress.com,Via website,N/A,NO AUDIOBOOKS,TIER 1,"Architecture leader"
Images Publishing,Traditional,Australia,Australia,"Architecture, design, interiors",Via website,N/A,Australia,imagespublishing.com,Via website,N/A,NO AUDIOBOOKS,TIER 1,"Australian architecture"
Oscar Riera Ojeda Publishers,Traditional,International,International,"Architecture",Via website,N/A,International,oscarrieraojeda.com,Via website,N/A,NO AUDIOBOOKS,TIER 1,"Architecture"
El Croquis,Traditional,Spain,Spain,"Architecture magazine/books",Via website,N/A,Spain,elcroquis.es,Via website,N/A,NO AUDIOBOOKS,TIER 1,"Architecture journal"
GA (Global Architecture),Traditional,Japan,Japan,"Architecture",Via website,N/A,Japan,ga-ada.co.jp,Via website,N/A,NO AUDIOBOOKS,TIER 1,"Japanese architecture"
TOTO Publishing,Traditional,Japan,Japan,"Architecture, design",Via website,N/A,Japan,toto.co.jp/publishing,Via website,N/A,NO AUDIOBOOKS,TIER 1,"Japanese architecture"
Loft Publications,Traditional,Spain,Spain,"Architecture, design, interiors",Via website,N/A,Spain,loftpublications.com,Via website,N/A,NO AUDIOBOOKS,TIER 1,"Spanish design"
Booq Publishing,Traditional,Spain,Spain,"Design, interiors, architecture",Via website,N/A,Spain,booqpublishing.com,Via website,N/A,NO AUDIOBOOKS,TIER 1,"Spanish design"
Braun Publishing,Traditional,Switzerland,Switzerland,"Architecture, design",Via website,N/A,Switzerland,braun-publishing.ch,Via website,N/A,NO AUDIOBOOKS,TIER 1,"Swiss design"
Ryland Peters & Small,Traditional,London,UK,"Lifestyle, home, food",Via website,N/A,UK,rylandpeters.com,Via website,N/A,NO AUDIOBOOKS,TIER 1,"Lifestyle publisher"
CICO Books,Traditional,London,UK,"Crafts, home, lifestyle",Via website,N/A,UK,cicobooks.com,Via website,N/A,NO AUDIOBOOKS,TIER 1,"RPS imprint"
Dog 'n' Bone Books,Traditional,London,UK,"Gift books, humor",Via website,N/A,UK,dogandbone.com,Via website,N/A,NO AUDIOBOOKS,TIER 1,"RPS imprint"
Nourish Books,Traditional,UK,UK,"Health, wellbeing, food",Via website,N/A,UK,nourishbooks.com,Via website,N/A,NO AUDIOBOOKS,TIER 1,"Watkins imprint"
Eddison Books,Traditional,UK,UK,"Mind body spirit, lifestyle",Via website,N/A,UK,eddisonbooks.com,Via website,N/A,NO AUDIOBOOKS,TIER 1,"UK packaging"
Ivy Press,Traditional,UK,UK,"Lifestyle, reference",Via website,N/A,UK,ivypress.co.uk,Via website,N/A,NO AUDIOBOOKS,TIER 1,"Quarto imprint"
White Lion Publishing,Traditional,UK,UK,"Lifestyle, nature, culture",Via website,N/A,UK,whitelionpublishing.com,Via website,N/A,NO AUDIOBOOKS,TIER 1,"Quarto imprint"
Wide Eyed Editions,Traditional,UK,UK,"Children's nonfiction",Via website,N/A,UK,wideeyededitions.com,Via website,N/A,NO AUDIOBOOKS,TIER 1,"Quarto children's"
becker&mayer!,Traditional,Washington,USA,"Gift books, kits, children's",Via website,N/A,WA,beckermayer.com,Via website,N/A,NO AUDIOBOOKS,TIER 1,"Quarto imprint"
Frances Lincoln Children's,Traditional,UK,UK,"Children's books",Via website,N/A,UK,franceslincoln.com,Via website,N/A,NO AUDIOBOOKS,TIER 1,"Children's books"
Lincoln Children's Books,Traditional,UK,UK,"Children's illustrated",Via website,N/A,UK,quartoknows.com,Via website,N/A,NO AUDIOBOOKS,TIER 1,"Quarto children's"
Boxer Books,Traditional,UK,UK,"Children's picture books",Via website,N/A,UK,boxerbooks.com,Via website,N/A,NO AUDIOBOOKS,TIER 1,"UK children's"
Templar Publishing,Traditional,UK,UK,"Children's, illustrated",Via website,N/A,UK,templarco.co.uk,Via website,N/A,NO AUDIOBOOKS,TIER 1,"Bonnier imprint"
Hot Key Books,Traditional,UK,UK,"Children's, YA",Via website,N/A,UK,hotkeybooks.com,Via website,N/A,NO AUDIOBOOKS,TIER 1,"Bonnier imprint"
Piccadilly Press,Traditional,UK,UK,"Children's, YA",Via website,N/A,UK,piccadillypress.co.uk,Via website,N/A,NO AUDIOBOOKS,TIER 1,"Bonnier imprint"
Nosy Crow,Traditional,UK,UK,"Children's, apps, digital",Via website,N/A,UK,nosycrow.com,Via website,N/A,NO AUDIOBOOKS,TIER 1,"UK children's"
Andersen Press,Traditional,UK,UK,"Children's picture books, fiction",Via website,N/A,UK,andersenpress.co.uk,Via website,N/A,NO AUDIOBOOKS,TIER 1,"Since 1976"
Walker Books,Traditional,UK,UK,"Children's books",Via website,N/A,UK,walker.co.uk,Via website,N/A,Some,Medium,"Major children's"
Hodder Children's Books,Traditional,UK,UK,"Children's, YA",Via Hachette,N/A,UK,hachettechildrens.co.uk,Via Hachette,N/A,Some,Medium,"Hachette imprint"
Simon & Schuster Children's UK,Traditional,UK,UK,"Children's, YA",Via S&S,N/A,UK,simonandschuster.co.uk,Via S&S,N/A,Some,Medium,"S&S UK"
Penguin Random House Children's UK,Traditional,UK,UK,"Children's, YA",Via PRH,N/A,UK,penguinrandomhouse.co.uk,Via PRH,N/A,Yes,Low,"PRH UK"
Usborne Publishing,Traditional,UK,UK,"Children's educational, fiction",Via website,N/A,UK,usborne.com,Via website,N/A,Unknown,High,"UK children's"
Egmont UK,Traditional,UK,UK,"Children's books, magazines",Via website,N/A,UK,egmont.co.uk,Via website,N/A,Unknown,High,"Nordic-owned"
Welbeck Publishing,Traditional,UK,UK,"Nonfiction, lifestyle, illustrated",Via website,N/A,UK,welbeckpublishing.com,Via website,N/A,Unknown,High,"UK independent"
Mortimer Children's,Traditional,UK,UK,"Children's nonfiction",Via website,N/A,UK,welbeckpublishing.com,Via website,N/A,NO AUDIOBOOKS,TIER 1,"Welbeck children's"
Flame Tree Publishing,Traditional,UK,UK,"Art, music, gift, illustrated",Via website,N/A,UK,flametreepublishing.com,Via website,N/A,NO AUDIOBOOKS,TIER 1,"UK illustrated"
Carlton Books,Traditional,UK,UK,"Illustrated, gift, sports",Via website,N/A,UK,carltonbooks.co.uk,Via website,N/A,NO AUDIOBOOKS,TIER 1,"Welbeck imprint"
Andre Deutsch,Traditional,UK,UK,"Illustrated, biography, sports",Via website,N/A,UK,carltonbooks.co.uk,Via website,N/A,NO AUDIOBOOKS,TIER 1,"Carlton imprint"
Prion Books,Traditional,UK,UK,"Humor, gift",Via website,N/A,UK,carltonbooks.co.uk,Via website,N/A,NO AUDIOBOOKS,TIER 1,"Carlton imprint"
Summersdale Publishers,Traditional,UK,UK,"Gift books, humor, health",Via website,N/A,UK,summersdale.com,Via website,N/A,NO AUDIOBOOKS,TIER 1,"Hachette UK"
Trigger Publishing,Traditional,UK,UK,"Mental health, wellbeing",Via website,N/A,UK,triggerpublishing.com,Via website,N/A,NO AUDIOBOOKS,TIER 1,"UK mental health"
SPCK Publishing,Traditional,UK,UK,"Christian, spirituality",Via website,N/A,UK,spckpublishing.co.uk,Via website,N/A,NO AUDIOBOOKS,TIER 1,"UK Christian"
Canterbury Press,Traditional,UK,UK,"Religion, spirituality",Via website,N/A,UK,canterburypress.co.uk,Via website,N/A,NO AUDIOBOOKS,TIER 1,"UK religion"
SCM Press,Academic,UK,UK,"Theology, biblical studies",Via website,N/A,UK,scmpress.co.uk,Via website,N/A,NO AUDIOBOOKS,TIER 1,"UK academic theology"
Darton Longman + Todd,Traditional,UK,UK,"Religion, spirituality, ethics",Via website,N/A,UK,dltbooks.com,Via website,N/A,NO AUDIOBOOKS,TIER 1,"UK religion"
Lion Hudson,Traditional,UK,UK,"Christian, children's, lifestyle",Via website,N/A,UK,lionhudson.com,Via website,N/A,NO AUDIOBOOKS,TIER 1,"UK Christian"
Authentic Media,Traditional,UK,UK,"Christian books",Via website,N/A,UK,authenticmedia.co.uk,Via website,N/A,NO AUDIOBOOKS,TIER 1,"UK Christian"
IVP UK,Traditional,UK,UK,"Christian, academic",Via website,N/A,UK,ivpbooks.com,Via website,N/A,NO AUDIOBOOKS,TIER 1,"UK Christian"
Monarch Books,Traditional,UK,UK,"Christian living, biography",Via website,N/A,UK,lionhudson.com,Via website,N/A,NO AUDIOBOOKS,TIER 1,"Lion Hudson imprint"
BRF (Bible Reading Fellowship),Traditional,UK,UK,"Christian, children's, devotional",Via website,N/A,UK,brf.org.uk,Via website,N/A,NO AUDIOBOOKS,TIER 1,"UK Christian"
Kevin Mayhew Publishers,Traditional,UK,UK,"Christian music, liturgy, books",Via website,N/A,UK,kevinmayhew.com,Via website,N/A,NO AUDIOBOOKS,TIER 1,"UK Christian music"
Wild Goose Publications,Traditional,Scotland,UK,"Spirituality, Celtic, Iona",Via website,N/A,Scotland,ionabooks.com,Via website,N/A,NO AUDIOBOOKS,TIER 1,"Iona Community"
Morehouse Publishing,Traditional,USA,USA,"Episcopal, Anglican books",Via website,N/A,N/A,morehousepublishing.com,Via website,N/A,NO AUDIOBOOKS,TIER 1,"Episcopal"
Church Publishing,Traditional,NYC,USA,"Episcopal, liturgy, theology",Via website,N/A,NYC,churchpublishing.org,Via website,N/A,NO AUDIOBOOKS,TIER 1,"Episcopal Church"
Fortress Press,Traditional,Minneapolis MN,USA,"Lutheran, theology, biblical",Via website,N/A,MN,fortresspress.com,Via website,N/A,NO AUDIOBOOKS,TIER 1,"Lutheran"
Westminster John Knox Press,Traditional,Louisville KY,USA,"Presbyterian, theology",Via website,N/A,KY,wjkbooks.com,Via website,N/A,NO AUDIOBOOKS,TIER 1,"Presbyterian"
Eerdmans Publishing,Traditional,Grand Rapids MI,USA,"Christian, theology, children's",Via website,N/A,MI,eerdmans.com,Via website,N/A,NO AUDIOBOOKS,TIER 1,"Since 1911"
Baker Publishing Group,Traditional,Grand Rapids MI,USA,"Christian, academic, trade",Via website,N/A,MI,bakerpublishinggroup.com,Via website,N/A,Some,Medium,"Multiple imprints"
Brazos Press,Traditional,Grand Rapids MI,USA,"Christian theology, culture",Via website,N/A,MI,bakerpublishinggroup.com,Via website,N/A,NO AUDIOBOOKS,TIER 1,"Baker imprint"
Revell,Traditional,Grand Rapids MI,USA,"Christian living, fiction",Via website,N/A,MI,bakerpublishinggroup.com,Via website,N/A,Some,Medium,"Baker imprint"
Chosen Books,Traditional,Grand Rapids MI,USA,"Charismatic Christian",Via website,N/A,MI,bakerpublishinggroup.com,Via website,N/A,NO AUDIOBOOKS,TIER 1,"Baker imprint"
Baker Academic,Academic,Grand Rapids MI,USA,"Christian academic, theology",Via website,N/A,MI,bakerpublishinggroup.com,Via website,N/A,NO AUDIOBOOKS,TIER 1,"Baker academic"
Moody Publishers,Traditional,Chicago IL,USA,"Christian living, Bible study",Via website,N/A,IL,moodypublishers.com,Via website,N/A,Some,Medium,"Moody Bible Institute"
NavPress,Traditional,Colorado Springs CO,USA,"Christian discipleship",Via website,N/A,CO,navpress.com,Via website,N/A,Some,Medium,"Navigators"
Multnomah (WaterBrook),Traditional,Colorado Springs CO,USA,"Christian living, fiction",Via PRH,N/A,CO,waterbrookmultnomah.com,Via PRH,N/A,Yes,Low,"PRH Christian"
WaterBrook,Traditional,Colorado Springs CO,USA,"Christian living",Via PRH,N/A,CO,waterbrookmultnomah.com,Via PRH,N/A,Yes,Low,"PRH Christian"
David C Cook,Traditional,Colorado Springs CO,USA,"Christian living, children's",Via website,N/A,CO,davidccook.org,Via website,N/A,Some,Medium,"Christian nonprofit"
Harvest House Publishers,Traditional,Oregon,USA,"Christian living, fiction",Via website,N/A,OR,harvesthousepublishers.com,Via website,N/A,Some,Medium,"Oregon Christian"
Barbour Publishing,Traditional,Ohio,USA,"Christian books, Bibles",Via website,N/A,OH,barbourbooks.com,Via website,N/A,NO AUDIOBOOKS,TIER 1,"Ohio Christian"
Whitaker House,Traditional,Pennsylvania,USA,"Christian, charismatic",Via website,N/A,PA,whitakerhouse.com,Via website,N/A,NO AUDIOBOOKS,TIER 1,"PA Christian"
Charisma House,Traditional,Florida,USA,"Charismatic Christian",Via website,N/A,FL,charismahouse.com,Via website,N/A,NO AUDIOBOOKS,TIER 1,"Charisma Media"
FaithWords,Traditional,NYC,USA,"Christian living",Via Hachette,N/A,NYC,faithwords.com,Via Hachette,N/A,Yes,Low,"Hachette Christian"
Howard Books,Traditional,NYC,USA,"Christian living, inspirational",Via S&S,N/A,NYC,simonandschuster.com,Via S&S,N/A,Yes,Low,"S&S Christian"
Love Inspired (Harlequin),Traditional,NYC,USA,"Christian romance",Via Harlequin,N/A,NYC,harlequin.com,Via Harlequin,N/A,Unknown,High,"Christian romance"
Bethany House Publishers,Traditional,Minneapolis MN,USA,"Christian fiction, nonfiction",Via Baker,N/A,MN,bethanyhouse.com,Via Baker,N/A,Unknown,High,"Baker imprint"
Revell Books,Traditional,Grand Rapids MI,USA,"Christian trade books",Via Baker,N/A,MI,revellbooks.com,Via Baker,N/A,Unknown,High,"Baker trade"
Tyndale House Publishers,Traditional,Carol Stream IL,USA,"Christian books, Bibles",Via website,N/A,IL,tyndale.com,Via website,N/A,Yes,Low,"NLT Bible publisher"
B&H Publishing,Traditional,Nashville TN,USA,"Christian, Bibles, reference",Via website,N/A,TN,bhpublishinggroup.com,Via website,N/A,Some,Medium,"LifeWay"
Thomas Nelson,Traditional,Nashville TN,USA,"Christian, Bibles, leadership",Via HarperCollins,N/A,TN,thomasnelson.com,Via HCC,N/A,Yes,Low,"HarperCollins Christian"
Zondervan,Traditional,Grand Rapids MI,USA,"Christian, Bibles, academic",Via HarperCollins,N/A,MI,zondervan.com,Via HCC,N/A,Yes,Low,"HarperCollins Christian"
Worthy Publishing,Traditional,Nashville TN,USA,"Christian inspirational",Via Hachette,N/A,TN,worthypublishing.com,Via Hachette,N/A,Unknown,High,"Hachette Nashville"
Abingdon Press,Traditional,Nashville TN,USA,"Methodist, Christian",Via website,N/A,TN,abingdonpress.com,Via website,N/A,NO AUDIOBOOKS,TIER 1,"United Methodist"
Upper Room Books,Traditional,Nashville TN,USA,"Christian devotional, spirituality",Via website,N/A,TN,upperroom.org/bookstore,Via website,N/A,NO AUDIOBOOKS,TIER 1,"Methodist spirituality"
Broadman & Holman,Traditional,Nashville TN,USA,"Southern Baptist Christian",Via B&H,N/A,TN,bhpublishinggroup.com,Via B&H,N/A,Some,Medium,"LifeWay imprint"
New Growth Press,Traditional,North Carolina,USA,"Gospel-centered Christian",Via website,N/A,NC,newgrowthpress.com,Via website,N/A,NO AUDIOBOOKS,TIER 1,"Reformed Christian"
P&R Publishing,Traditional,New Jersey,USA,"Reformed Christian",Via website,N/A,NJ,prpbooks.com,Via website,N/A,NO AUDIOBOOKS,TIER 1,"Reformed theology"
Banner of Truth Trust,Traditional,UK/USA,UK/USA,"Reformed Christian classics",Via website,N/A,UK/USA,banneroftruth.org,Via website,N/A,NO AUDIOBOOKS,TIER 1,"Reformed classics"
Crossway Books,Traditional,Illinois,USA,"Reformed Christian, ESV Bible",Via website,N/A,IL,crossway.org,Via website,N/A,Some,Medium,"Reformed"
Reformation Heritage Books,Traditional,Michigan,USA,"Reformed Christian, Puritan",Via website,N/A,MI,heritagebooks.org,Via website,N/A,NO AUDIOBOOKS,TIER 1,"Reformed heritage"
Christian Focus Publications,Traditional,Scotland,UK,"Reformed Christian, children's",Via website,N/A,Scotland,christianfocus.com,Via website,N/A,NO AUDIOBOOKS,TIER 1,"Scottish Reformed"
10Publishing,Traditional,UK,UK,"Reformed Christian",Via website,N/A,UK,10ofthose.com,Via website,N/A,NO AUDIOBOOKS,TIER 1,"UK Reformed"
Good Book Company,Traditional,UK,UK,"Evangelical Christian",Via website,N/A,UK,thegoodbook.com,Via website,N/A,NO AUDIOBOOKS,TIER 1,"UK evangelical"
Koorong,Traditional,Australia,Australia,"Christian books retailer/publisher",Via website,N/A,Australia,koorong.com,Via website,N/A,NO AUDIOBOOKS,TIER 1,"Australian Christian"
Word Publishing,Traditional,Australia,Australia,"Christian books",Via website,N/A,Australia,wordpublishing.com.au,Via website,N/A,NO AUDIOBOOKS,TIER 1,"Australian Christian"
Acorn Press,Traditional,Australia,Australia,"Christian books",Via website,N/A,Australia,acornpress.net.au,Via website,N/A,NO AUDIOBOOKS,TIER 1,"Australian Christian"
Sophia Institute Press,Traditional,New Hampshire,USA,"Catholic intellectual",Via website,N/A,NH,sophiainstitute.com,Via website,N/A,NO AUDIOBOOKS,TIER 1,"Catholic academic"
TAN Books,Traditional,North Carolina,USA,"Traditional Catholic",Via website,N/A,NC,tanbooks.com,Via website,N/A,NO AUDIOBOOKS,TIER 1,"Traditional Catholic"
Catholic Answers Press,Traditional,California,USA,"Catholic apologetics",Via website,N/A,CA,shop.catholic.com,Via website,N/A,NO AUDIOBOOKS,TIER 1,"Catholic apologetics"
Servant Books,Traditional,Ohio,USA,"Catholic charismatic",Via website,N/A,OH,servantbooks.org,Via website,N/A,NO AUDIOBOOKS,TIER 1,"Franciscan Media"
Franciscan Media,Traditional,Ohio,USA,"Catholic, Franciscan spirituality",Via website,N/A,OH,franciscanmedia.org,Via website,N/A,NO AUDIOBOOKS,TIER 1,"Franciscan"
Our Sunday Visitor,Traditional,Indiana,USA,"Catholic books, periodicals",Via website,N/A,IN,osv.com,Via website,N/A,NO AUDIOBOOKS,TIER 1,"Catholic media"
Loyola Press,Traditional,Chicago IL,USA,"Catholic, Jesuit, education",Via website,N/A,IL,loyolapress.com,Via website,N/A,NO AUDIOBOOKS,TIER 1,"Jesuit"
Catholic University of America Press,Academic,Washington DC,USA,"Catholic academic",Via website,N/A,DC,cuapress.org,Via website,N/A,NO AUDIOBOOKS,TIER 1,"CUA academic"
Liturgical Press,Traditional,Minnesota,USA,"Catholic liturgy, theology",Via website,N/A,MN,litpress.org,Via website,N/A,NO AUDIOBOOKS,TIER 1,"Benedictine"
Orbis Books,Traditional,New York,USA,"Catholic social justice, mission",Via website,N/A,NY,orbisbooks.com,Via website,N/A,NO AUDIOBOOKS,TIER 1,"Maryknoll"
Image Books (PRH),Traditional,NYC,USA,"Catholic books",Via PRH,N/A,NYC,penguinrandomhouse.com,Via PRH,N/A,Some,Medium,"PRH Catholic"
Sheed & Ward,Traditional,Kansas,USA,"Catholic intellectual",Via website,N/A,KS,rowman.com,Via website,N/A,NO AUDIOBOOKS,TIER 1,"R&L imprint"
Jewish Lights Publishing,Traditional,Vermont,USA,"Jewish spirituality, life cycle",Via website,N/A,VT,jewishlights.com,Via website,N/A,NO AUDIOBOOKS,TIER 1,"Jewish spirituality"
Jewish Publication Society,Traditional,Nebraska,USA,"Jewish books, Tanakh",Via website,N/A,NE,jps.org,Via website,N/A,NO AUDIOBOOKS,TIER 1,"JPS Tanakh"
Gefen Publishing House,Traditional,Israel/USA,Israel/USA,"Jewish, Israel, Hebrew",Via website,N/A,Israel/USA,gefenpublishing.com,Via website,N/A,NO AUDIOBOOKS,TIER 1,"Israeli publisher"
Urim Publications,Traditional,Israel,Israel,"Jewish Orthodox, academic",Via website,N/A,Israel,urimpublications.com,Via website,N/A,NO AUDIOBOOKS,TIER 1,"Israeli Orthodox"
Ktav Publishing,Traditional,New Jersey,USA,"Jewish academic, liturgy",Via website,N/A,NJ,ktav.com,Via website,N/A,NO AUDIOBOOKS,TIER 1,"Jewish academic"
Behrman House,Traditional,New Jersey,USA,"Jewish education, children's",Via website,N/A,NJ,behrmanhouse.com,Via website,N/A,NO AUDIOBOOKS,TIER 1,"Jewish education"
Kar-Ben Publishing,Traditional,Minnesota,USA,"Jewish children's books",Via website,N/A,MN,karben.com,Via website,N/A,NO AUDIOBOOKS,TIER 1,"Lerner Jewish"
Artscroll/Mesorah,Traditional,New York,USA,"Orthodox Jewish, Talmud",Via website,N/A,NY,artscroll.com,Via website,N/A,NO AUDIOBOOKS,TIER 1,"Orthodox Jewish"
Feldheim Publishers,Traditional,New York,USA,"Orthodox Jewish",Via website,N/A,NY,feldheim.com,Via website,N/A,NO AUDIOBOOKS,TIER 1,"Orthodox Jewish"
Koren Publishers,Traditional,Israel,Israel,"Jewish, Hebrew texts",Via website,N/A,Israel,korenpub.com,Via website,N/A,NO AUDIOBOOKS,TIER 1,"Israeli Jewish"
Maggid Books,Traditional,Israel,Israel,"Jewish thought, Torah",Via website,N/A,Israel,korenpub.com,Via website,N/A,NO AUDIOBOOKS,TIER 1,"Koren imprint"
Toby Press,Traditional,Connecticut/Israel,USA/Israel,"Jewish, Israeli literature",Via website,N/A,CT/Israel,tobypress.com,Via website,N/A,NO AUDIOBOOKS,TIER 1,"Jewish literature"
Schocken Books,Traditional,NYC,USA,"Jewish, literary",Via PRH,N/A,NYC,penguinrandomhouse.com,Via PRH,N/A,Some,Medium,"PRH Jewish"
Brandeis University Press,Academic,Massachusetts,USA,"Jewish studies, Judaic",Via website,N/A,MA,brandeisuniversitypress.com,Via website,N/A,NO AUDIOBOOKS,TIER 1,"Brandeis academic"
Wayne State Jewish,Academic,Michigan,USA,"Jewish studies",Via website,N/A,MI,wsupress.wayne.edu,Via website,N/A,NO AUDIOBOOKS,TIER 1,"WSU Jewish"
Indiana University Jewish,Academic,Indiana,USA,"Jewish studies",Via website,N/A,IN,iupress.org,Via website,N/A,NO AUDIOBOOKS,TIER 1,"IU Jewish"
Syracuse Jewish Studies,Academic,New York,USA,"Jewish studies",Via website,N/A,NY,syracuseuniversitypress.syr.edu,Via website,N/A,NO AUDIOBOOKS,TIER 1,"Syracuse Jewish"
Academic Studies Press,Academic,Massachusetts,USA,"Jewish, Slavic studies",Via website,N/A,MA,academicstudiespress.com,Via website,N/A,NO AUDIOBOOKS,TIER 1,"Scholarly"
Lexington Books,Academic,Maryland,USA,"Academic humanities, social sciences",Via website,N/A,MD,rowman.com,Via website,N/A,NO AUDIOBOOKS,TIER 1,"R&L academic"
Rowman & Littlefield,Academic,Maryland,USA,"Academic, trade nonfiction",Via website,N/A,MD,rowman.com,Via website,N/A,Unknown,High,"R&L publisher"
Prometheus Books,Traditional,New York,USA,"Science, skepticism, philosophy",Via website,N/A,NY,prometheusbooks.com,Via website,N/A,Unknown,High,"R&L imprint"
Humanity Books,Traditional,New York,USA,"Philosophy, humanities",Via website,N/A,NY,prometheusbooks.com,Via website,N/A,NO AUDIOBOOKS,TIER 1,"Prometheus imprint"
Open Court Publishing,Traditional,Illinois,USA,"Philosophy, popular culture",Via website,N/A,IL,opencourtbooks.com,Via website,N/A,NO AUDIOBOOKS,TIER 1,"Philosophy & Pop Culture"
Hackett Publishing,Academic,Indiana,USA,"Philosophy, classics, political theory",Via website,N/A,IN,hackettpublishing.com,Via website,N/A,NO AUDIOBOOKS,TIER 1,"Philosophy texts"
Broadview Press,Academic,Canada,Canada,"Philosophy, literature, history",Via website,N/A,Canada,broadviewpress.com,Via website,N/A,NO AUDIOBOOKS,TIER 1,"Canadian academic"
Paragon House,Traditional,Minnesota,USA,"Philosophy, religion, public policy",Via website,N/A,MN,paragonhouse.com,Via website,N/A,NO AUDIOBOOKS,TIER 1,"Philosophy"
SUNY Philosophy,Academic,New York,USA,"Philosophy",Via website,N/A,NY,sunypress.edu,Via website,N/A,NO AUDIOBOOKS,TIER 1,"SUNY philosophy"
Continuum (Bloomsbury),Academic,UK,UK,"Philosophy, religion, cultural studies",Via Bloomsbury,N/A,UK,bloomsbury.com,Via Bloomsbury,N/A,NO AUDIOBOOKS,TIER 1,"Bloomsbury academic"
Polity Press,Academic,UK,UK,"Social theory, politics",Via website,N/A,UK,politybooks.com,Via website,N/A,Unknown,High,"Social sciences"
Zed Books,Academic,UK,UK,"Development, global issues",Via website,N/A,UK,zedbooks.net,Via website,N/A,NO AUDIOBOOKS,TIER 1,"Bloomsbury"
Pluto Press,Academic,UK,UK,"Radical politics, social sciences",Via website,N/A,UK,plutobooks.com,Via website,N/A,NO AUDIOBOOKS,TIER 1,"UK radical"
Lawrence & Wishart,Traditional,UK,UK,"Left politics, labor",Via website,N/A,UK,lwbooks.co.uk,Via website,N/A,NO AUDIOBOOKS,TIER 1,"UK left"
Monthly Review Press,Traditional,NYC,USA,"Marxist, socialist",Via website,N/A,NYC,monthlyreview.org/press,Via website,N/A,NO AUDIOBOOKS,TIER 1,"Socialist"
AK Press,Traditional,California/UK,USA/UK,"Anarchist, radical",Via website,N/A,CA/UK,akpress.org,Via website,N/A,NO AUDIOBOOKS,TIER 1,"Anarchist"
PM Press,Traditional,California,USA,"Radical politics, counterculture",Via website,N/A,CA,pmpress.org,Via website,N/A,NO AUDIOBOOKS,TIER 1,"Oakland radical"
South End Press,Traditional,Massachusetts,USA,"Progressive politics",Via website,N/A,MA,southendpress.org,Via website,N/A,NO AUDIOBOOKS,TIER 1,"Progressive"
Common Courage Press,Traditional,Maine,USA,"Progressive politics",Via website,N/A,ME,commoncouragepress.com,Via website,N/A,NO AUDIOBOOKS,TIER 1,"Progressive"
Chelsea Green,Traditional,Vermont,USA,"Sustainability, politics, food",Via website,N/A,VT,chelseagreen.com,Via website,N/A,NO AUDIOBOOKS,TIER 1,"Employee-owned"
New Village Press,Traditional,California,USA,"Community development, planning",Via website,N/A,CA,newvillagepress.net,Via website,N/A,NO AUDIOBOOKS,TIER 1,"Urban planning"
Berrett-Koehler,Traditional,Oakland CA,USA,"Business, politics, personal growth",Via website,N/A,CA,bkconnection.com,Via website,N/A,Some via RBmedia,High,"Mission-driven"
Stanford Business Books,Academic,California,USA,"Business, management",Via website,N/A,CA,sup.org,Via website,N/A,NO AUDIOBOOKS,TIER 1,"Stanford academic"
MIT Sloan School,Academic,Massachusetts,USA,"Business, management",Via MIT Press,N/A,MA,mitpress.mit.edu,Via MIT Press,N/A,NO AUDIOBOOKS,TIER 1,"MIT business"
Columbia Business School,Academic,NYC,USA,"Business, finance",Via website,N/A,NYC,cup.columbia.edu,Via website,N/A,NO AUDIOBOOKS,TIER 1,"Columbia business"
University of Toronto Press,Academic,Toronto,Canada,"Canadian, academic across disciplines",Via website,N/A,Toronto,utpress.utoronto.ca,Via website,N/A,NO AUDIOBOOKS,TIER 1,"Canadian academic"
McGill-Queen's University Press,Academic,Montreal,Canada,"Canadian, academic humanities",Via website,N/A,Montreal,mqup.ca,Via website,N/A,NO AUDIOBOOKS,TIER 1,"Canadian academic"
UBC Press,Academic,Vancouver BC,Canada,"Canadian, Pacific Northwest",Via website,N/A,BC,ubcpress.ca,Via website,N/A,NO AUDIOBOOKS,TIER 1,"British Columbia"
University of Alberta Press,Academic,Edmonton AB,Canada,"Canadian, Western Canada",Via website,N/A,AB,uap.ualberta.ca,Via website,N/A,NO AUDIOBOOKS,TIER 1,"Alberta academic"
University of Manitoba Press,Academic,Winnipeg MB,Canada,"Canadian, Indigenous, Manitoba",Via website,N/A,MB,umanitoba.ca/uofmpress,Via website,N/A,NO AUDIOBOOKS,TIER 1,"Manitoba academic"
University of Regina Press,Academic,Regina SK,Canada,"Canadian, Indigenous, Prairies",Via website,N/A,SK,uofrpress.ca,Via website,N/A,NO AUDIOBOOKS,TIER 1,"Saskatchewan"
University of Calgary Press,Academic,Calgary AB,Canada,"Canadian, Alberta, Indigenous",Via website,N/A,AB,ucalgary.ca/ucpress,Via website,N/A,NO AUDIOBOOKS,TIER 1,"Calgary academic"
Wilfrid Laurier University Press,Academic,Waterloo ON,Canada,"Canadian, social sciences",Via website,N/A,ON,wlupress.wlu.ca,Via website,N/A,NO AUDIOBOOKS,TIER 1,"Ontario academic"
Carleton University Press,Academic,Ottawa ON,Canada,"Canadian, public policy",Via website,N/A,ON,carleton.ca/cupress,Via website,N/A,NO AUDIOBOOKS,TIER 1,"Ottawa academic"
Athabasca University Press,Academic,Alberta,Canada,"Open access, Canadian",Via website,N/A,AB,aupress.ca,Via website,N/A,NO AUDIOBOOKS,TIER 1,"Open access"
Heritage House Publishing,Traditional,Victoria BC,Canada,"Canadian, BC, Western",Via website,N/A,BC,heritagehouse.ca,Via website,N/A,NO AUDIOBOOKS,TIER 1,"BC regional"
Caitlin Press,Traditional,British Columbia,Canada,"BC interest, women, First Nations",Via website,N/A,BC,caitlin-press.com,Via website,N/A,NO AUDIOBOOKS,TIER 1,"BC regional"
Oolichan Books,Traditional,British Columbia,Canada,"Literary, BC interest",Via website,N/A,BC,oolichan.com,Via website,N/A,NO AUDIOBOOKS,TIER 1,"BC literary"
Sono Nis Press,Traditional,Victoria BC,Canada,"BC interest, children's, nature",Via website,N/A,BC,sononis.com,Via website,N/A,NO AUDIOBOOKS,TIER 1,"Victoria BC"
TouchWood Editions,Traditional,Victoria BC,Canada,"BC, fiction, nature, history",Via website,N/A,BC,touchwoodeditions.com,Via website,N/A,NO AUDIOBOOKS,TIER 1,"Victoria BC"
Harbour Publishing,Traditional,British Columbia,Canada,"BC interest, First Nations",Via website,N/A,BC,harbourpublishing.com,Via website,N/A,NO AUDIOBOOKS,TIER 1,"BC regional"
Figure 1 Publishing,Traditional,Vancouver BC,Canada,"Food, design, lifestyle",Via website,N/A,BC,figure1publishing.com,Via website,N/A,NO AUDIOBOOKS,TIER 1,"Vancouver lifestyle"
Tidewater Publishers,Traditional,Maryland,USA,"Chesapeake Bay, maritime, regional",Via website,N/A,MD,tidewaterpublishers.com,Via website,N/A,NO AUDIOBOOKS,TIER 1,"Chesapeake regional"
Stackpole Books,Traditional,Pennsylvania,USA,"Outdoor, military, history, crafts",Via website,N/A,PA,stackpolebooks.com,Via website,N/A,NO AUDIOBOOKS,TIER 1,"Outdoor specialty"
Globe Pequot,Traditional,Connecticut,USA,"Travel, outdoor, regional",Via website,N/A,CT,globepequot.com,Via website,N/A,Unknown,High,"Travel/outdoor"
Down East Books,Traditional,Maine,USA,"Maine, New England regional",Via website,N/A,ME,downeast.com,Via website,N/A,NO AUDIOBOOKS,TIER 1,"Maine regional"
Islandport Press,Traditional,Maine,USA,"Maine interest, children's, fiction",Via website,N/A,ME,islandportpress.com,Via website,N/A,NO AUDIOBOOKS,TIER 1,"Maine indie"
Tilbury House Publishers,Traditional,Maine,USA,"Children's, nature, Maine",Via website,N/A,ME,tilburyhouse.com,Via website,N/A,NO AUDIOBOOKS,TIER 1,"Maine children's"
University Press of New England,Academic,New Hampshire,USA,"New England regional",Via website,N/A,NH,upne.com,Via website,N/A,NO AUDIOBOOKS,TIER 1,"Regional academic"
Commonwealth Editions,Traditional,Massachusetts,USA,"Massachusetts, New England",Via website,N/A,MA,commonwealtheditions.com,Via website,N/A,NO AUDIOBOOKS,TIER 1,"MA regional"
Applewood Books,Traditional,Massachusetts,USA,"American classics, reprints",Via website,N/A,MA,awb.com,Via website,N/A,NO AUDIOBOOKS,TIER 1,"Classic reprints"
Black Dome Press,Traditional,New York,USA,"New York State history, Catskills",Via website,N/A,NY,blackdomepress.com,Via website,N/A,NO AUDIOBOOKS,TIER 1,"NY regional"
Excelsior Editions (SUNY),Academic,New York,USA,"New York State interest",Via SUNY,N/A,NY,sunypress.edu,Via SUNY,N/A,NO AUDIOBOOKS,TIER 1,"SUNY regional"
Syracuse University Press,Academic,New York,USA,"Middle East, Irish, media",Via website,N/A,NY,syracuseuniversitypress.syr.edu,Via website,N/A,NO AUDIOBOOKS,TIER 1,"Syracuse academic"
SUNY Press,Academic,New York,USA,"Philosophy, Asian, Jewish studies",Via website,N/A,NY,sunypress.edu,Via website,N/A,NO AUDIOBOOKS,TIER 1,"State University NY"
Fordham University Press,Academic,New York,USA,"Humanities, Jesuit, Catholic",Via website,N/A,NY,fordhampress.com,Via website,N/A,NO AUDIOBOOKS,TIER 1,"Jesuit academic"
New York University Press,Academic,NYC,USA,"American studies, media, law",Via website,N/A,NYC,nyupress.org,Via website,N/A,Unknown,High,"NYU academic"
Rutgers University Press,Academic,New Jersey,USA,"American, media, health",Via website,N/A,NJ,rutgersuniversitypress.org,Via website,N/A,Unknown,High,"NJ academic"
Temple University Press,Academic,Philadelphia PA,USA,"Urban, labor, African American",Via website,N/A,PA,tupress.temple.edu,Via website,N/A,NO AUDIOBOOKS,TIER 1,"Philadelphia"
University of Pennsylvania Press,Academic,Philadelphia PA,USA,"Humanities, social sciences",Via website,N/A,PA,pennpress.org,Via website,N/A,Unknown,High,"Penn academic"
Drexel University,Academic,Philadelphia PA,USA,"Engineering, business",Via website,N/A,PA,drexel.edu,Via website,N/A,NO AUDIOBOOKS,TIER 1,"Drexel"
Georgetown University Press,Academic,Washington DC,USA,"International affairs, ethics",Via website,N/A,DC,press.georgetown.edu,Via website,N/A,NO AUDIOBOOKS,TIER 1,"Jesuit"
Catholic University Press,Academic,Washington DC,USA,"Catholic, theology, philosophy",Via website,N/A,DC,cuapress.org,Via website,N/A,NO AUDIOBOOKS,TIER 1,"Catholic academic"
Howard University Press,Academic,Washington DC,USA,"African American studies",Via website,N/A,DC,hupress.howard.edu,Via website,N/A,NO AUDIOBOOKS,TIER 1,"HBCU"
University of Maryland Press,Academic,Maryland,USA,"Maryland, environmental",Via website,N/A,MD,umdpress.org,Via website,N/A,NO AUDIOBOOKS,TIER 1,"Maryland academic"
University of Delaware Press,Academic,Delaware,USA,"Literary studies, early modern",Via website,N/A,DE,udpress.udel.edu,Via website,N/A,NO AUDIOBOOKS,TIER 1,"Delaware"
Lehigh University Press,Academic,Pennsylvania,USA,"Literary criticism, history",Via website,N/A,PA,lupress.cas.lehigh.edu,Via website,N/A,NO AUDIOBOOKS,TIER 1,"Lehigh"
Bucknell University Press,Academic,Pennsylvania,USA,"Literary studies, Latin American",Via website,N/A,PA,bucknelluniversitypress.org,Via website,N/A,NO AUDIOBOOKS,TIER 1,"Bucknell"
University of Scranton Press,Academic,Pennsylvania,USA,"Catholic, Jesuit, ethics",Via website,N/A,PA,scranton.edu/uspress,Via website,N/A,NO AUDIOBOOKS,TIER 1,"Jesuit"
Duquesne University Press,Academic,Pittsburgh PA,USA,"Philosophy, literature, psychology",Via website,N/A,PA,dupress.duq.edu,Via website,N/A,NO AUDIOBOOKS,TIER 1,"Pittsburgh Catholic"
University of Pittsburgh Press,Academic,Pittsburgh PA,USA,"History of science, Latin American",Via website,N/A,PA,upress.pitt.edu,Via website,N/A,Unknown,High,"Pittsburgh"
Carnegie Mellon University Press,Academic,Pittsburgh PA,USA,"Poetry, literary",Via website,N/A,PA,cmu.edu/universitypress,Via website,N/A,NO AUDIOBOOKS,TIER 1,"Carnegie Mellon"
Case Western Reserve,Academic,Ohio,USA,"Medical, humanities",Via website,N/A,OH,case.edu/library/press,Via website,N/A,NO AUDIOBOOKS,TIER 1,"Cleveland"
Miami University Press,Academic,Ohio,USA,"Poetry",Via website,N/A,OH,miamioh.edu/press,Via website,N/A,NO AUDIOBOOKS,TIER 1,"Ohio poetry"
Bowling Green State University,Academic,Ohio,USA,"Popular culture",Via website,N/A,OH,bgsu.edu/popular-culture-press,Via website,N/A,NO AUDIOBOOKS,TIER 1,"Pop culture"
University of Akron Press,Academic,Ohio,USA,"Poetry, Ohio history",Via website,N/A,OH,uakron.edu/uapress,Via website,N/A,NO AUDIOBOOKS,TIER 1,"Akron"
Kent State University Press,Academic,Ohio,USA,"Civil War, Ohio, fashion",Via website,N/A,OH,kentstateuniversitypress.com,Via website,N/A,NO AUDIOBOOKS,TIER 1,"Kent State"
Ohio University Press,Academic,Ohio,USA,"Appalachia, Southeast Asian",Via website,N/A,OH,ohioswallow.com,Via website,N/A,NO AUDIOBOOKS,TIER 1,"Swallow Press"
Oberlin College Press,Academic,Ohio,USA,"Poetry (FIELD)",Via website,N/A,OH,oberlin.edu/press,Via website,N/A,NO AUDIOBOOKS,TIER 1,"FIELD poetry"
Trillium Press,Traditional,Ohio,USA,"Ohio interest",Via website,N/A,OH,trilliumpress.com,Via website,N/A,NO AUDIOBOOKS,TIER 1,"Ohio regional"
Gray & Company,Traditional,Ohio,USA,"Cleveland, Ohio interest",Via website,N/A,OH,grayco.com,Via website,N/A,NO AUDIOBOOKS,TIER 1,"Cleveland"
Orange Frazer Press,Traditional,Ohio,USA,"Ohio interest, sports",Via website,N/A,OH,orangefrazer.com,Via website,N/A,NO AUDIOBOOKS,TIER 1,"Ohio sports"
Bottom Dog Press,Traditional,Ohio,USA,"Working class literature",Via website,N/A,OH,bottomdogpress.net,Via website,N/A,NO AUDIOBOOKS,TIER 1,"Ohio literary"
Lake Effect (Penn State),Academic,Pennsylvania,USA,"Literary journal/press",Via website,N/A,PA,psu.edu/lakeeffect,Via website,N/A,NO AUDIOBOOKS,TIER 1,"Literary"
Autumn House Press,Nonprofit,Pittsburgh PA,USA,"Poetry, fiction, nonfiction",Via website,N/A,PA,autumnhouse.org,Via website,N/A,NO AUDIOBOOKS,TIER 1,"Pittsburgh"
Etruscan Press,Traditional,Ohio,USA,"Poetry, fiction, nonfiction",Via website,N/A,OH,etruscanpress.org,Via website,N/A,NO AUDIOBOOKS,TIER 1,"Literary"
University Press of Kentucky,Academic,Kentucky,USA,"Appalachia, Civil War, film",Via website,N/A,KY,kentuckypress.com,Via website,N/A,Unknown,High,"Kentucky"
Sarabande Books,Nonprofit,Kentucky,USA,"Poetry, fiction, essays",Via website,N/A,KY,sarabandebooks.org,Via website,N/A,NO AUDIOBOOKS,TIER 1,"Louisville"
University of Tennessee Press,Academic,Tennessee,USA,"Appalachia, Civil War, material culture",Via website,N/A,TN,utpress.org,Via website,N/A,NO AUDIOBOOKS,TIER 1,"Knoxville"
Vanderbilt University Press,Academic,Tennessee,USA,"Health policy, education",Via website,N/A,TN,vanderbiltuniversitypress.com,Via website,N/A,NO AUDIOBOOKS,TIER 1,"Nashville"
University of Georgia Press,Academic,Georgia,USA,"Southern, nature, literature",Via website,N/A,GA,ugapress.org,Via website,N/A,Unknown,High,"Athens GA"
Mercer University Press,Academic,Georgia,USA,"Southern, religion, poetry",Via website,N/A,GA,mupress.org,Via website,N/A,NO AUDIOBOOKS,TIER 1,"Macon GA"
University of South Carolina Press,Academic,South Carolina,USA,"Southern, military, Civil War",Via website,N/A,SC,sc.edu/uscpress,Via website,N/A,NO AUDIOBOOKS,TIER 1,"Columbia SC"
University of Alabama Press,Academic,Alabama,USA,"Southern, military, rhetoric",Via website,N/A,AL,uapress.ua.edu,Via website,N/A,Unknown,High,"Tuscaloosa"
University Press of Mississippi,Academic,Mississippi,USA,"Southern, film, American studies",Via website,N/A,MS,upress.state.ms.us,Via website,N/A,NO AUDIOBOOKS,TIER 1,"Jackson MS"
LSU Press,Academic,Louisiana,USA,"Southern, Civil War, literature",Via website,N/A,LA,lsupress.org,Via website,N/A,Unknown,High,"Baton Rouge"
Pelican Publishing Company,Traditional,Louisiana,USA,"Louisiana, Southern, children's",Via website,N/A,LA,pelicanpub.com,Via website,N/A,NO AUDIOBOOKS,TIER 1,"Louisiana"
University Press of Florida,Academic,Florida,USA,"Florida, Caribbean, Latin American",Via website,N/A,FL,upf.com,Via website,N/A,Unknown,High,"Gainesville"
Pineapple Press,Traditional,Florida,USA,"Florida interest, nature",Via website,N/A,FL,pineapplepress.com,Via website,N/A,NO AUDIOBOOKS,TIER 1,"Florida"
University of Texas Press,Academic,Texas,USA,"Texas, Latin American, film",Via website,N/A,TX,utpress.utexas.edu,Via website,N/A,Unknown,High,"Austin"
Texas A&M University Press,Academic,Texas,USA,"Texas, military, agriculture",Via website,N/A,TX,tamupress.com,Via website,N/A,Unknown,High,"College Station"
Texas Tech University Press,Academic,Texas,USA,"Texas, Western, natural history",Via website,N/A,TX,ttupress.org,Via website,N/A,NO AUDIOBOOKS,TIER 1,"Lubbock"
University of North Texas Press,Academic,Texas,USA,"Texas, Western, military",Via website,N/A,TX,untpress.unt.edu,Via website,N/A,NO AUDIOBOOKS,TIER 1,"Denton"
TCU Press,Academic,Texas,USA,"Texas, Western, biography",Via website,N/A,TX,prs.tcu.edu,Via website,N/A,NO AUDIOBOOKS,TIER 1,"Fort Worth"
SMU Press,Academic,Texas,USA,"Texas, Southwest, ethics",Via website,N/A,TX,smupress.com,Via website,N/A,NO AUDIOBOOKS,TIER 1,"Dallas"
Trinity University Press,Academic,Texas,USA,"Texas, Southwest, literary",Via website,N/A,TX,tupress.org,Via website,N/A,NO AUDIOBOOKS,TIER 1,"San Antonio"
Maverick Publishing,Traditional,Texas,USA,"Texas interest",Via website,N/A,TX,maverickpub.com,Via website,N/A,NO AUDIOBOOKS,TIER 1,"Texas regional"
State House Press,Traditional,Texas,USA,"Texas history",Via website,N/A,TX,statehousepress.com,Via website,N/A,NO AUDIOBOOKS,TIER 1,"Texas history"
Bright Sky Press,Traditional,Texas,USA,"Texas, regional, lifestyle",Via website,N/A,TX,brightskypress.com,Via website,N/A,NO AUDIOBOOKS,TIER 1,"Texas lifestyle"
Texas State Historical Association,Traditional,Texas,USA,"Texas history",Via website,N/A,TX,tshaonline.org,Via website,N/A,NO AUDIOBOOKS,TIER 1,"Texas history"
University of New Mexico Press,Academic,New Mexico,USA,"Southwest, Native American",Via website,N/A,NM,unmpress.com,Via website,N/A,NO AUDIOBOOKS,TIER 1,"Albuquerque"
Museum of New Mexico Press,Traditional,New Mexico,USA,"Southwest art, culture",Via website,N/A,NM,mnmpress.org,Via website,N/A,NO AUDIOBOOKS,TIER 1,"Santa Fe"
Clear Light Publishers,Traditional,New Mexico,USA,"Native American, Southwest",Via website,N/A,NM,clearlightbooks.com,Via website,N/A,NO AUDIOBOOKS,TIER 1,"Santa Fe"
University of Arizona Press,Academic,Arizona,USA,"Southwest, Indigenous, Latin American",Via website,N/A,AZ,uapress.arizona.edu,Via website,N/A,Unknown,High,"Tucson"
Rio Nuevo Publishers,Traditional,Arizona,USA,"Southwest, Arizona interest",Via website,N/A,AZ,rionuevo.com,Via website,N/A,NO AUDIOBOOKS,TIER 1,"Tucson"
University of Nevada Press,Academic,Nevada,USA,"Western, Basque studies",Via website,N/A,NV,unpress.nevada.edu,Via website,N/A,NO AUDIOBOOKS,TIER 1,"Reno"
University of Utah Press,Academic,Utah,USA,"Western, anthropology",Via website,N/A,UT,uofupress.com,Via website,N/A,NO AUDIOBOOKS,TIER 1,"Salt Lake City"
Utah State University Press,Academic,Utah,USA,"Western, folklore, composition",Via website,N/A,UT,usupressacademic.com,Via website,N/A,NO AUDIOBOOKS,TIER 1,"Logan"
Gibbs Smith Publisher,Traditional,Utah,USA,"Home, design, children's, Western",Via website,N/A,UT,gibbs-smith.com,Via website,N/A,Unknown,High,"Layton"
University Press of Colorado,Academic,Colorado,USA,"Western, archaeology, Native American",Via website,N/A,CO,upcolorado.com,Via website,N/A,NO AUDIOBOOKS,TIER 1,"Louisville CO"
Johnson Books,Traditional,Colorado,USA,"Western US, outdoor, nature",Via website,N/A,CO,johnsonbooks.com,Via website,N/A,NO AUDIOBOOKS,TIER 1,"Boulder"
Fulcrum Publishing,Traditional,Colorado,USA,"Western, Native American, nature",Via website,N/A,CO,fulcrum.bookstore.ipgbook.com,Via website,N/A,NO AUDIOBOOKS,TIER 1,"Golden"
Bower House,Traditional,Colorado,USA,"Western fiction",Via website,N/A,CO,bowerhousebooks.com,Via website,N/A,NO AUDIOBOOKS,TIER 1,"Denver"
Filter Press,Traditional,Colorado,USA,"Western Americana, Colorado",Via website,N/A,CO,filterpressbooks.com,Via website,N/A,NO AUDIOBOOKS,TIER 1,"Palmer Lake"
University of Wyoming,Academic,Wyoming,USA,"Wyoming, Western",Via website,N/A,WY,uwyo.edu,Via website,N/A,NO AUDIOBOOKS,TIER 1,"Laramie"
High Plains Press,Traditional,Wyoming,USA,"Western, cowboy poetry",Via website,N/A,WY,highplainspress.com,Via website,N/A,NO AUDIOBOOKS,TIER 1,"Glendo WY"
University of Montana Press,Academic,Montana,USA,"Montana, Western",Via website,N/A,MT,umt.edu/mansfield/umpress,Via website,N/A,NO AUDIOBOOKS,TIER 1,"Missoula"
Riverbend Publishing,Traditional,Montana,USA,"Montana interest, outdoor",Via website,N/A,MT,riverbendpublishing.com,Via website,N/A,NO AUDIOBOOKS,TIER 1,"Helena"
Farcountry Press,Traditional,Montana,USA,"Montana, photo books, nature",Via website,N/A,MT,farcountrypress.com,Via website,N/A,NO AUDIOBOOKS,TIER 1,"Helena"
University of Idaho Press,Academic,Idaho,USA,"Idaho, Pacific NW",Via website,N/A,ID,uidahopress.org,Via website,N/A,NO AUDIOBOOKS,TIER 1,"Moscow ID"
Caxton Press,Traditional,Idaho,USA,"Western, Idaho interest",Via website,N/A,ID,caxtonpress.com,Via website,N/A,NO AUDIOBOOKS,TIER 1,"Caldwell"
Washington State University Press,Academic,Washington,USA,"Pacific NW, Western",Via website,N/A,WA,wsupress.wsu.edu,Via website,N/A,NO AUDIOBOOKS,TIER 1,"Pullman"
University of Washington Press,Academic,Washington,USA,"Pacific NW, Asian, Native American",Via website,N/A,WA,uwapress.uw.edu,Via website,N/A,Unknown,High,"Seattle"
Sasquatch Books,Traditional,Washington,USA,"Pacific NW, food, travel, nature",Via website,N/A,WA,sasquatchbooks.com,Via website,N/A,Unknown,High,"Seattle"
Oregon State University Press,Academic,Oregon,USA,"Pacific NW, natural history",Via website,N/A,OR,osupress.oregonstate.edu,Via website,N/A,NO AUDIOBOOKS,TIER 1,"Corvallis"
University of Oregon Press,Academic,Oregon,USA,"Oregon interest",Via website,N/A,OR,uoregon.edu,Via website,N/A,NO AUDIOBOOKS,TIER 1,"Eugene"
Ooligan Press,Academic,Oregon,USA,"Pacific NW, literary",Via website,N/A,OR,ooliganpress.pdx.edu,Via website,N/A,NO AUDIOBOOKS,TIER 1,"Portland State"
Hawthorne Books,Traditional,Oregon,USA,"Literary fiction, nonfiction",Via website,N/A,OR,hawthornebooks.com,Via website,N/A,NO AUDIOBOOKS,TIER 1,"Portland"
Timber Press,Traditional,Oregon,USA,"Gardening, nature",Via website,N/A,OR,timberpress.com,Via Workman,N/A,NO AUDIOBOOKS,TIER 1,"Portland"
Graphic Arts Books,Traditional,Oregon,USA,"Pacific NW, outdoor, nature",Via website,N/A,OR,graphicartsbooks.com,Via website,N/A,NO AUDIOBOOKS,TIER 1,"Portland"
University of Hawai'i Press,Academic,Hawaii,USA,"Hawaii, Pacific, Asian studies",Via website,N/A,HI,uhpress.hawaii.edu,Via website,N/A,NO AUDIOBOOKS,TIER 1,"Honolulu"
Mutual Publishing,Traditional,Hawaii,USA,"Hawaii interest",Via website,N/A,HI,mutualpublishing.com,Via website,N/A,NO AUDIOBOOKS,TIER 1,"Honolulu"
University of Alaska Press,Academic,Alaska,USA,"Alaska, Arctic, Indigenous",Via website,N/A,AK,uaf.edu/uapress,Via website,N/A,NO AUDIOBOOKS,TIER 1,"Fairbanks"
Epicenter Press,Traditional,Alaska,USA,"Alaska, Pacific NW",Via website,N/A,AK,epicenterpress.com,Via website,N/A,NO AUDIOBOOKS,TIER 1,"Kenmore WA"
